{
"type": "FeatureCollection",
"name": "geo_38_特定施設入居者生活介護（有料老人ホーム）",
"crs": { "type": "name", "properties": { "name": "urn:ogc:def:crs:OGC:1.3:CRS84" } },
"features": [
{ "type": "Feature", "properties": { "内容": "介護付有料老人ホーム松山エデンの園【特定施設入居者生活介護（有料老人ホーム）】愛媛県松山市祝谷6-1248", "url": "https://www.kaigokensaku.mhlw.go.jp/38/index.php?action_kouhyou_detail_004_kani=true&JigyosyoCd=3870101411-00&ServiceCd=331&Type=search", "url2": "http://www.seirei.or.jp/eden/matsuyama/" }, "geometry": { "type": "Point", "coordinates": [ 132.772944, 33.8644046 ] } },
{ "type": "Feature", "properties": { "内容": "有料老人ホーム馬木【特定施設入居者生活介護（有料老人ホーム）】愛媛県松山市馬木町2158番地高齢者福祉施設馬木", "url": "https://www.kaigokensaku.mhlw.go.jp/38/index.php?action_kouhyou_detail_004_kani=true&JigyosyoCd=3870101429-00&ServiceCd=331&Type=search", "url2": "http://jurakukai.jp/facility-info/umaki" }, "geometry": { "type": "Point", "coordinates": [ 132.745698261862913, 33.89309000057635 ] } },
{ "type": "Feature", "properties": { "内容": "よんでんライフケア道後【特定施設入居者生活介護（有料老人ホーム）】愛媛県松山市紅葉町2番27号", "url": "https://www.kaigokensaku.mhlw.go.jp/38/index.php?action_kouhyou_detail_004_kani=true&JigyosyoCd=3870103581-00&ServiceCd=331&Type=search", "url2": "http://www.yondenlc.co.jp" }, "geometry": { "type": "Point", "coordinates": [ 132.788381500000014, 33.842255 ] } },
{ "type": "Feature", "properties": { "内容": "有料老人ホームサンリベラル道後【特定施設入居者生活介護（有料老人ホーム）】愛媛県松山市末町甲56番地1", "url": "https://www.kaigokensaku.mhlw.go.jp/38/index.php?action_kouhyou_detail_004_kani=true&JigyosyoCd=3870103680-00&ServiceCd=331&Type=search", "url2": "https://sunliberal.com" }, "geometry": { "type": "Point", "coordinates": [ 132.818701014819311, 33.863102807268909 ] } },
{ "type": "Feature", "properties": { "内容": "トータルケアサポート花みずき【特定施設入居者生活介護（有料老人ホーム）】愛媛県松山市泉町23番地6", "url": "https://www.kaigokensaku.mhlw.go.jp/38/index.php?action_kouhyou_detail_004_kani=true&JigyosyoCd=3870104217-00&ServiceCd=331&Type=search", "url2": "http://hanamizuki-kaigo.jp" }, "geometry": { "type": "Point", "coordinates": [ 132.766825199999971, 33.8335887 ] } },
{ "type": "Feature", "properties": { "内容": "パートナーハウスかとれあ【特定施設入居者生活介護（有料老人ホーム）】愛媛県松山市高井町640番1", "url": "https://www.kaigokensaku.mhlw.go.jp/38/index.php?action_kouhyou_detail_004_kani=true&JigyosyoCd=3870104845-00&ServiceCd=331&Type=search", "url2": "http://www.ehime-medix.jp/" }, "geometry": { "type": "Point", "coordinates": [ 132.815751299999988, 33.7983547 ] } },
{ "type": "Feature", "properties": { "内容": "オアシス小坂【特定施設入居者生活介護（有料老人ホーム）】愛媛県松山市小坂5丁目16-10", "url": "https://www.kaigokensaku.mhlw.go.jp/38/index.php?action_kouhyou_detail_004_kani=true&JigyosyoCd=3870105586-00&ServiceCd=331&Type=search", "url2": "http://www.oasis-care.jp/" }, "geometry": { "type": "Point", "coordinates": [ 132.778946697226047, 33.826183815014566 ] } },
{ "type": "Feature", "properties": { "内容": "特定施設入居者生活介護事業所　アロハ居相【特定施設入居者生活介護（有料老人ホーム）】愛媛県松山市居相三丁目14-20", "url": "https://www.kaigokensaku.mhlw.go.jp/38/index.php?action_kouhyou_detail_004_kani=true&JigyosyoCd=3870105891-00&ServiceCd=331&Type=search", "url2": null }, "geometry": { "type": "Point", "coordinates": [ 132.769611400000031, 33.8113164 ] } },
{ "type": "Feature", "properties": { "内容": "介護付有料老人ホーム　菫野花舘【特定施設入居者生活介護（有料老人ホーム）】愛媛県松山市枝松3丁目1番13号", "url": "https://www.kaigokensaku.mhlw.go.jp/38/index.php?action_kouhyou_detail_004_kani=true&JigyosyoCd=3870106295-00&ServiceCd=331&Type=search", "url2": "http://www.sumire-group.jp/" }, "geometry": { "type": "Point", "coordinates": [ 132.7861206, 33.8319756 ] } },
{ "type": "Feature", "properties": { "内容": "有料老人ホームうめの小町【特定施設入居者生活介護（有料老人ホーム）】愛媛県松山市南梅本町甲50番地2", "url": "https://www.kaigokensaku.mhlw.go.jp/38/index.php?action_kouhyou_detail_004_kani=true&JigyosyoCd=3870106345-00&ServiceCd=331&Type=search", "url2": "https://www.umekoma.jp/" }, "geometry": { "type": "Point", "coordinates": [ 132.836157800000024, 33.8013353 ] } },
{ "type": "Feature", "properties": { "内容": "有料老人ホーム　マドンナハウス西石井【特定施設入居者生活介護（有料老人ホーム）】愛媛県松山市西石井一丁目1番27号", "url": "https://www.kaigokensaku.mhlw.go.jp/38/index.php?action_kouhyou_detail_004_kani=true&JigyosyoCd=3870106683-00&ServiceCd=331&Type=search", "url2": "actplan.co.jp" }, "geometry": { "type": "Point", "coordinates": [ 132.774330299999974, 33.816366 ] } },
{ "type": "Feature", "properties": { "内容": "介護付有料老人ホーム　三津の里【特定施設入居者生活介護（有料老人ホーム）】松山市古三津四丁目６３０番地", "url": "https://www.kaigokensaku.mhlw.go.jp/38/index.php?action_kouhyou_detail_004_kani=true&JigyosyoCd=3870106964-00&ServiceCd=331&Type=search", "url2": "http://www.mitsuseikei.jp/mitsunosato/" }, "geometry": { "type": "Point", "coordinates": [ 132.7306506, 33.8556405 ] } },
{ "type": "Feature", "properties": { "内容": "有料老人ホーム　エメロード【特定施設入居者生活介護（有料老人ホーム）】愛媛県松山市六軒家町3-22フォーシーズンズまつやま", "url": "https://www.kaigokensaku.mhlw.go.jp/38/index.php?action_kouhyou_detail_004_kani=true&JigyosyoCd=3870106998-00&ServiceCd=331&Type=search", "url2": "http://4seasons-m.com/emeload_top.html" }, "geometry": { "type": "Point", "coordinates": [ 132.74971830000004, 33.8520332 ] } },
{ "type": "Feature", "properties": { "内容": "有料老人ホーム　朝生田の杜【特定施設入居者生活介護（有料老人ホーム）】松山市朝生田町３丁目８番２号", "url": "https://www.kaigokensaku.mhlw.go.jp/38/index.php?action_kouhyou_detail_004_kani=true&JigyosyoCd=3870107079-00&ServiceCd=331&Type=search", "url2": "http://www.asodanomori.jp/" }, "geometry": { "type": "Point", "coordinates": [ 132.7667143, 33.8239482 ] } },
{ "type": "Feature", "properties": { "内容": "介護付き有料老人ホーム　あったか拓南【特定施設入居者生活介護（有料老人ホーム）】愛媛県松山市中村３丁目１－２", "url": "https://www.kaigokensaku.mhlw.go.jp/38/index.php?action_kouhyou_detail_004_kani=true&JigyosyoCd=3870107152-00&ServiceCd=331&Type=search", "url2": null }, "geometry": { "type": "Point", "coordinates": [ 132.77940179999996, 33.8299117 ] } },
{ "type": "Feature", "properties": { "内容": "パラディ　はるみかん【特定施設入居者生活介護（有料老人ホーム）】愛媛県松山市紅葉町2番16号", "url": "https://www.kaigokensaku.mhlw.go.jp/38/index.php?action_kouhyou_detail_004_kani=true&JigyosyoCd=3870107228-00&ServiceCd=331&Type=search", "url2": "halumikan.com" }, "geometry": { "type": "Point", "coordinates": [ 132.789192500000013, 33.8426494 ] } },
{ "type": "Feature", "properties": { "内容": "介護付有料老人ホーム　ハッピー南久米【特定施設入居者生活介護（有料老人ホーム）】松山市南久米町128番地１", "url": "https://www.kaigokensaku.mhlw.go.jp/38/index.php?action_kouhyou_detail_004_kani=true&JigyosyoCd=3870107236-00&ServiceCd=331&Type=search", "url2": "http://www.carejapan.co.jp/" }, "geometry": { "type": "Point", "coordinates": [ 132.803783071163906, 33.818748489067914 ] } },
{ "type": "Feature", "properties": { "内容": "ウェルケア畑寺【特定施設入居者生活介護（有料老人ホーム）】畑寺３丁目８番４１号", "url": "https://www.kaigokensaku.mhlw.go.jp/38/index.php?action_kouhyou_detail_004_kani=true&JigyosyoCd=3870107277-00&ServiceCd=331&Type=search", "url2": "http://kikuju.or.jp/" }, "geometry": { "type": "Point", "coordinates": [ 132.797586, 33.8279958 ] } },
{ "type": "Feature", "properties": { "内容": "介護付有料老人ホーム　四葉【特定施設入居者生活介護（有料老人ホーム）】愛媛県松山市高山町3番17号介護付有料老人ホーム四葉", "url": "https://www.kaigokensaku.mhlw.go.jp/38/index.php?action_kouhyou_detail_004_kani=true&JigyosyoCd=3870108051-00&ServiceCd=331&Type=search", "url2": "http://www.yotsuba4165.com/" }, "geometry": { "type": "Point", "coordinates": [ 132.725397562040712, 33.867332464502034 ] } },
{ "type": "Feature", "properties": { "内容": "介護付有料老人ホーム　瀬戸風【特定施設入居者生活介護（有料老人ホーム）】愛媛県松山市古三津四丁目600番地1", "url": "https://www.kaigokensaku.mhlw.go.jp/38/index.php?action_kouhyou_detail_004_kani=true&JigyosyoCd=3870108077-00&ServiceCd=331&Type=search", "url2": "http://mitsuseikei.jp/setokaze/" }, "geometry": { "type": "Point", "coordinates": [ 132.729897899999969, 33.8561765 ] } },
{ "type": "Feature", "properties": { "内容": "介護付有料老人ホームさや【特定施設入居者生活介護（有料老人ホーム）】愛媛県松山市南斎院町1165番地介護付有料老人ホームさや", "url": "https://www.kaigokensaku.mhlw.go.jp/38/index.php?action_kouhyou_detail_004_kani=true&JigyosyoCd=3870108135-00&ServiceCd=331&Type=search", "url2": "http://www.aijukai-group.com/" }, "geometry": { "type": "Point", "coordinates": [ 132.735269600000038, 33.8347793 ] } },
{ "type": "Feature", "properties": { "内容": "介護付有料老人ホーム　おはぎ【特定施設入居者生活介護（有料老人ホーム）】愛媛県松山市平田町398番地", "url": "https://www.kaigokensaku.mhlw.go.jp/38/index.php?action_kouhyou_detail_004_kani=true&JigyosyoCd=3870108168-00&ServiceCd=331&Type=search", "url2": "https://www.community-1220.com" }, "geometry": { "type": "Point", "coordinates": [ 132.750271, 33.8883544 ] } },
{ "type": "Feature", "properties": { "内容": "介護付有料老人ホーム　グランドライフ　であい【特定施設入居者生活介護（有料老人ホーム）】愛媛県松山市余戸南5丁目3番18号", "url": "https://www.kaigokensaku.mhlw.go.jp/38/index.php?action_kouhyou_detail_004_kani=true&JigyosyoCd=3870108614-00&ServiceCd=331&Type=search", "url2": "http://www.aijukai-group.com" }, "geometry": { "type": "Point", "coordinates": [ 132.724445599999967, 33.8088459 ] } },
{ "type": "Feature", "properties": { "内容": "介護付有料老人ホームふくふく湊町【特定施設入居者生活介護（有料老人ホーム）】愛媛県松山市湊町2丁目6番地4", "url": "https://www.kaigokensaku.mhlw.go.jp/38/index.php?action_kouhyou_detail_004_kani=true&JigyosyoCd=3870108655-00&ServiceCd=331&Type=search", "url2": "http://www.fukui-g.com" }, "geometry": { "type": "Point", "coordinates": [ 132.7725302, 33.8360052 ] } },
{ "type": "Feature", "properties": { "内容": "介護付有料老人ホーム　笑歩会　あそだ【特定施設入居者生活介護（有料老人ホーム）】愛媛県松山市朝生田町六丁目２番５号", "url": "https://www.kaigokensaku.mhlw.go.jp/38/index.php?action_kouhyou_detail_004_kani=true&JigyosyoCd=3870108812-00&ServiceCd=331&Type=search", "url2": "http://shouhokai.jp/" }, "geometry": { "type": "Point", "coordinates": [ 132.768297099475149, 33.821165896523517 ] } },
{ "type": "Feature", "properties": { "内容": "有料老人ホーム　ながきの杜【特定施設入居者生活介護（有料老人ホーム）】愛媛県松山市永木町2丁目1番地48", "url": "https://www.kaigokensaku.mhlw.go.jp/38/index.php?action_kouhyou_detail_004_kani=true&JigyosyoCd=3870109042-00&ServiceCd=331&Type=search", "url2": "www.asodanomori.jp/nagakinomori/" }, "geometry": { "type": "Point", "coordinates": [ 132.77371745158996, 33.835056598808784 ] } },
{ "type": "Feature", "properties": { "内容": "介護付有料老人ホームワイズみつはま【特定施設入居者生活介護（有料老人ホーム）】愛媛県松山市神田町8-17", "url": "https://www.kaigokensaku.mhlw.go.jp/38/index.php?action_kouhyou_detail_004_kani=true&JigyosyoCd=3870111303-00&ServiceCd=331&Type=search", "url2": "http://www.waiz-h.com" }, "geometry": { "type": "Point", "coordinates": [ 132.718779600000062, 33.862406 ] } },
{ "type": "Feature", "properties": { "内容": "介護付有料老人ホームさくら【特定施設入居者生活介護（有料老人ホーム）】愛媛県松山市土居田町２７３番地1", "url": "https://www.kaigokensaku.mhlw.go.jp/38/index.php?action_kouhyou_detail_004_kani=true&JigyosyoCd=3870111337-00&ServiceCd=331&Type=search", "url2": "http://greenhealth.jp" }, "geometry": { "type": "Point", "coordinates": [ 132.748788200000035, 33.8196954 ] } },
{ "type": "Feature", "properties": { "内容": "介護付有料老人ホーム　アトラス高木【特定施設入居者生活介護（有料老人ホーム）】愛媛県松山市馬木町2480番地", "url": "https://www.kaigokensaku.mhlw.go.jp/38/index.php?action_kouhyou_detail_004_kani=true&JigyosyoCd=3870111667-00&ServiceCd=331&Type=search", "url2": "http://ogawa.miyoshi-s.jp/" }, "geometry": { "type": "Point", "coordinates": [ 132.742921700000011, 33.8870404 ] } },
{ "type": "Feature", "properties": { "内容": "介護付有料老人ホームガリラヤ久米【特定施設入居者生活介護（有料老人ホーム）】愛媛県松山市久米窪田町667番地1高齢者総合福祉施設ガリラヤ久米", "url": "https://www.kaigokensaku.mhlw.go.jp/38/index.php?action_kouhyou_detail_004_kani=true&JigyosyoCd=3870111717-00&ServiceCd=331&Type=search", "url2": "https://www.ailinen.jp/senior/" }, "geometry": { "type": "Point", "coordinates": [ 132.813443304862943, 33.805682822496792 ] } },
{ "type": "Feature", "properties": { "内容": "介護付有料老人ホーム四葉　問屋【特定施設入居者生活介護（有料老人ホーム）】愛媛県松山市問屋町８番６号高齢者複合施設　四葉", "url": "https://www.kaigokensaku.mhlw.go.jp/38/index.php?action_kouhyou_detail_004_kani=true&JigyosyoCd=3870111808-00&ServiceCd=331&Type=search", "url2": "http://yotsuba4165.com/" }, "geometry": { "type": "Point", "coordinates": [ 132.751579874868753, 33.865832674106443 ] } },
{ "type": "Feature", "properties": { "内容": "介護付有料老人ホーム　グランドライフあいじゅ祝谷【特定施設入居者生活介護（有料老人ホーム）】愛媛県松山市祝谷6丁目1027番地1", "url": "https://www.kaigokensaku.mhlw.go.jp/38/index.php?action_kouhyou_detail_004_kani=true&JigyosyoCd=3870112061-00&ServiceCd=331&Type=search", "url2": "http://www.aijukai-group.com/" }, "geometry": { "type": "Point", "coordinates": [ 132.7754966, 33.862941 ] } },
{ "type": "Feature", "properties": { "内容": "介護付有料老人ホームよろこび【特定施設入居者生活介護（有料老人ホーム）】愛媛県松山市堀江町甲2082番地1", "url": "https://www.kaigokensaku.mhlw.go.jp/38/index.php?action_kouhyou_detail_004_kani=true&JigyosyoCd=3870112285-00&ServiceCd=331&Type=search", "url2": "http://www.yuyusya.co.jp/" }, "geometry": { "type": "Point", "coordinates": [ 132.754954, 33.910186 ] } },
{ "type": "Feature", "properties": { "内容": "介護付き有料老人ホーム　サンシティ北条【特定施設入居者生活介護（有料老人ホーム）】愛媛県松山市下難波甲1377番地2高齢者総合福祉施設　サンシティ北条", "url": "https://www.kaigokensaku.mhlw.go.jp/38/index.php?action_kouhyou_detail_004_kani=true&JigyosyoCd=3870112814-00&ServiceCd=331&Type=search", "url2": "http://suncity-hojo.jp" }, "geometry": { "type": "Point", "coordinates": [ 132.775682753967288, 33.987749783479799 ] } },
{ "type": "Feature", "properties": { "内容": "ツクイ・サンシャイン松山【特定施設入居者生活介護（有料老人ホーム）】愛媛県松山市桑原3丁目１４－３０ツクイ・サンシャイン松山", "url": "https://www.kaigokensaku.mhlw.go.jp/38/index.php?action_kouhyou_detail_004_kani=true&JigyosyoCd=3870112921-00&ServiceCd=331&Type=search", "url2": "http://www.tsukui.net" }, "geometry": { "type": "Point", "coordinates": [ 132.797982499999989, 33.8346288 ] } },
{ "type": "Feature", "properties": { "内容": "介護付き有料老人ホーム　ソラストさらさ道後【特定施設入居者生活介護（有料老人ホーム）】愛媛県松山市祝谷東町乙813-8", "url": "https://www.kaigokensaku.mhlw.go.jp/38/index.php?action_kouhyou_detail_004_kani=true&JigyosyoCd=3870113101-00&ServiceCd=331&Type=search", "url2": "http://solasto-kaigo.com/" }, "geometry": { "type": "Point", "coordinates": [ 132.7869785, 33.8591085 ] } },
{ "type": "Feature", "properties": { "内容": "なでしこハウス・東石井【特定施設入居者生活介護（有料老人ホーム）】愛媛県松山市東石井3丁目13番33号", "url": "https://www.kaigokensaku.mhlw.go.jp/38/index.php?action_kouhyou_detail_004_kani=true&JigyosyoCd=3870113572-00&ServiceCd=331&Type=search", "url2": "actplan.co.jp" }, "geometry": { "type": "Point", "coordinates": [ 132.7653057, 33.8393515 ] } },
{ "type": "Feature", "properties": { "内容": "ラ・ナシカもりまつ【特定施設入居者生活介護（有料老人ホーム）】愛媛県松山市森松町301-1", "url": "https://www.kaigokensaku.mhlw.go.jp/38/index.php?action_kouhyou_detail_004_kani=true&JigyosyoCd=3870105925-00&ServiceCd=331&Type=search", "url2": "rh-morimatsu@cedar-web.com" }, "geometry": { "type": "Point", "coordinates": [ 132.795214200000032, 33.7904498 ] } },
{ "type": "Feature", "properties": { "内容": "介護付有料老人ホームそがの里【特定施設入居者生活介護（有料老人ホーム）】愛媛県松山市小坂２丁目４－２５", "url": "https://www.kaigokensaku.mhlw.go.jp/38/index.php?action_kouhyou_detail_004_kani=true&JigyosyoCd=3870106121-00&ServiceCd=331&Type=search", "url2": "http://greenhealth.jp/" }, "geometry": { "type": "Point", "coordinates": [ 132.7798017, 33.8334724 ] } },
{ "type": "Feature", "properties": { "内容": "介護付有料老人ホームグランドライフ幸樹【特定施設入居者生活介護（有料老人ホーム）】愛媛県松山市東垣生町277番地1", "url": "https://www.kaigokensaku.mhlw.go.jp/38/index.php?action_kouhyou_detail_004_kani=true&JigyosyoCd=3870106766-00&ServiceCd=331&Type=search", "url2": null }, "geometry": { "type": "Point", "coordinates": [ 132.709466799999973, 33.8103787 ] } },
{ "type": "Feature", "properties": { "内容": "介護付有料老人ホーム梅津寺ヒルズすみれ【特定施設入居者生活介護（有料老人ホーム）】愛媛県松山市梅津寺町乙56-214", "url": "https://www.kaigokensaku.mhlw.go.jp/38/index.php?action_kouhyou_detail_004_kani=true&JigyosyoCd=3870107392-00&ServiceCd=331&Type=search", "url2": "http://www.sumire-group.jp/" }, "geometry": { "type": "Point", "coordinates": [ 132.70717860000002, 33.8777454 ] } },
{ "type": "Feature", "properties": { "内容": "介護付有料老人ホーム福寿【特定施設入居者生活介護（有料老人ホーム）】愛媛県松山市権現町甲10", "url": "https://www.kaigokensaku.mhlw.go.jp/38/index.php?action_kouhyou_detail_004_kani=true&JigyosyoCd=3870112038-00&ServiceCd=331&Type=search", "url2": "http://jurakukai.jp/facility-info/fukuju" }, "geometry": { "type": "Point", "coordinates": [ 132.765626200000042, 33.899123 ] } },
{ "type": "Feature", "properties": { "内容": "介護付有料老人ホームゆうゆう【特定施設入居者生活介護（有料老人ホーム）】愛媛県松山市余戸南2丁目24番38号", "url": "https://www.kaigokensaku.mhlw.go.jp/38/index.php?action_kouhyou_detail_004_kani=true&JigyosyoCd=3870104977-00&ServiceCd=331&Type=search", "url2": "http://www.yuyusya.co.jp/matsuyama2.html" }, "geometry": { "type": "Point", "coordinates": [ 132.735142099999962, 33.8108294 ] } },
{ "type": "Feature", "properties": { "内容": "介護付有料老人ホーム笑歩会　天山【特定施設入居者生活介護（有料老人ホーム）】愛媛県松山市天山三丁目１２番１０号", "url": "https://www.kaigokensaku.mhlw.go.jp/38/index.php?action_kouhyou_detail_004_kani=true&JigyosyoCd=3870107194-00&ServiceCd=331&Type=search", "url2": "http://www.shouho-jyuraku.jp" }, "geometry": { "type": "Point", "coordinates": [ 132.7747829, 33.8213959 ] } },
{ "type": "Feature", "properties": { "内容": "介護付有料老人ホーム寿楽会生石【特定施設入居者生活介護（有料老人ホーム）】愛媛県松山市高岡町830番地1", "url": "https://www.kaigokensaku.mhlw.go.jp/38/index.php?action_kouhyou_detail_004_kani=true&JigyosyoCd=3870112509-00&ServiceCd=331&Type=search", "url2": "http://jurakukai.jp" }, "geometry": { "type": "Point", "coordinates": [ 132.714808434584569, 33.831929503877035 ] } },
{ "type": "Feature", "properties": { "内容": "介護付有料老人ホームみんなの家【特定施設入居者生活介護（有料老人ホーム）】愛媛県松山市来住町675番地", "url": "https://www.kaigokensaku.mhlw.go.jp/38/index.php?action_kouhyou_detail_004_kani=true&JigyosyoCd=3870113770-00&ServiceCd=331&Type=search", "url2": "https://minnanoie.life/" }, "geometry": { "type": "Point", "coordinates": [ 132.801558717763641, 33.803075049849298 ] } },
{ "type": "Feature", "properties": { "内容": "介護付有料老人ホーム　グランドライフ衣山【特定施設入居者生活介護（有料老人ホーム）】松山市衣山５丁目８番地1", "url": "https://www.kaigokensaku.mhlw.go.jp/38/index.php?action_kouhyou_detail_004_kani=true&JigyosyoCd=3870107467-00&ServiceCd=331&Type=search", "url2": "http://www.aijukai-group.com/" }, "geometry": { "type": "Point", "coordinates": [ 132.740609816563392, 33.850166620233864 ] } },
{ "type": "Feature", "properties": { "内容": "有料老人ホーム廣寿苑【特定施設入居者生活介護（有料老人ホーム）】愛媛県今治市南大門町3丁目5-8", "url": "https://www.kaigokensaku.mhlw.go.jp/38/index.php?action_kouhyou_detail_004_kani=true&JigyosyoCd=3870201492-00&ServiceCd=331&Type=search", "url2": null }, "geometry": { "type": "Point", "coordinates": [ 132.993224599999962, 34.0674334 ] } },
{ "type": "Feature", "properties": { "内容": "有料老人ホーム　オリーブ【特定施設入居者生活介護（有料老人ホーム）】愛媛県今治市大西町紺原甲828番地1", "url": "https://www.kaigokensaku.mhlw.go.jp/38/index.php?action_kouhyou_detail_004_kani=true&JigyosyoCd=3870201641-00&ServiceCd=331&Type=search", "url2": null }, "geometry": { "type": "Point", "coordinates": [ 132.937963500000023, 34.0678222 ] } },
{ "type": "Feature", "properties": { "内容": "介護付有料老人ホーム　ソラストさらさ湯ノ浦【特定施設入居者生活介護（有料老人ホーム）】愛媛県今治市湯ノ浦２２", "url": "https://www.kaigokensaku.mhlw.go.jp/38/index.php?action_kouhyou_detail_004_kani=true&JigyosyoCd=3870202672-00&ServiceCd=331&Type=search", "url2": "https://www.solasto.co.jp/" }, "geometry": { "type": "Point", "coordinates": [ 133.0540551, 33.997322500000031 ] } },
{ "type": "Feature", "properties": { "内容": "有料老人ホーム　かとれあ【特定施設入居者生活介護（有料老人ホーム）】愛媛県今治市北日吉町１丁目１８番７号", "url": "https://www.kaigokensaku.mhlw.go.jp/38/index.php?action_kouhyou_detail_004_kani=true&JigyosyoCd=3870202771-00&ServiceCd=331&Type=search", "url2": "https://www.juntenkai.jp/" }, "geometry": { "type": "Point", "coordinates": [ 132.9916498, 34.0650435 ] } },
{ "type": "Feature", "properties": { "内容": "ケアホーム　なごみ荘【特定施設入居者生活介護（有料老人ホーム）】愛媛県宇和島市高串1-424", "url": "https://www.kaigokensaku.mhlw.go.jp/38/index.php?action_kouhyou_detail_004_kani=true&JigyosyoCd=3870300674-00&ServiceCd=331&Type=search", "url2": "http://www.nagomisou.com/" }, "geometry": { "type": "Point", "coordinates": [ 132.573600700000043, 33.2449188 ] } },
{ "type": "Feature", "properties": { "内容": "介護付有料老人ホーム笑歩会【特定施設入居者生活介護（有料老人ホーム）】愛媛県宇和島市保田甲981-1", "url": "https://www.kaigokensaku.mhlw.go.jp/38/index.php?action_kouhyou_detail_004_kani=true&JigyosyoCd=3870300856-00&ServiceCd=331&Type=search", "url2": "http://shouhokai.jp/" }, "geometry": { "type": "Point", "coordinates": [ 132.547009, 33.1919599 ] } },
{ "type": "Feature", "properties": { "内容": "ますほの里【特定施設入居者生活介護（有料老人ホーム）】愛媛県宇和島市津島町高田甲２９２０番地１", "url": "https://www.kaigokensaku.mhlw.go.jp/38/index.php?action_kouhyou_detail_004_kani=true&JigyosyoCd=3870301292-00&ServiceCd=331&Type=search", "url2": null }, "geometry": { "type": "Point", "coordinates": [ 132.524424, 33.1305664 ] } },
{ "type": "Feature", "properties": { "内容": "ウェル　つしま【特定施設入居者生活介護（有料老人ホーム）】愛媛県宇和島市津島町高田甲2448-3", "url": "https://www.kaigokensaku.mhlw.go.jp/38/index.php?action_kouhyou_detail_004_kani=true&JigyosyoCd=3870301458-00&ServiceCd=331&Type=search", "url2": "http://miyuki-tsushima.tkc.best-hp.jp/" }, "geometry": { "type": "Point", "coordinates": [ 132.524704400000019, 33.1335384 ] } },
{ "type": "Feature", "properties": { "内容": "おるde新町介護付有料老人ホーム【特定施設入居者生活介護（有料老人ホーム）】愛媛県八幡浜市新町三丁目272番地1", "url": "https://www.kaigokensaku.mhlw.go.jp/38/index.php?action_kouhyou_detail_004_kani=true&JigyosyoCd=3870400540-00&ServiceCd=331&Type=search", "url2": "http://www.orude.jp/" }, "geometry": { "type": "Point", "coordinates": [ 132.424075099999982, 33.4615703 ] } },
{ "type": "Feature", "properties": { "内容": "ウェルフェア五反田【特定施設入居者生活介護（有料老人ホーム）】愛媛県八幡浜市五反田1番耕地106番地", "url": "https://www.kaigokensaku.mhlw.go.jp/38/index.php?action_kouhyou_detail_004_kani=true&JigyosyoCd=3870400359-00&ServiceCd=331&Type=search", "url2": "http://www.kujira.biz/wellfar/index.html" }, "geometry": { "type": "Point", "coordinates": [ 132.4464375, 33.4428337 ] } },
{ "type": "Feature", "properties": { "内容": "さわやか新居浜館【特定施設入居者生活介護（有料老人ホーム）】新居浜市東田３丁目乙11-77さわやか新居浜館", "url": "https://www.kaigokensaku.mhlw.go.jp/38/index.php?action_kouhyou_detail_004_kani=true&JigyosyoCd=3870502311-00&ServiceCd=331&Type=search", "url2": "http://www.sawayakaclub.jp" }, "geometry": { "type": "Point", "coordinates": [ 133.321029800000019, 33.9445501 ] } },
{ "type": "Feature", "properties": { "内容": "熟年コミュニティせとうち【特定施設入居者生活介護（有料老人ホーム）】愛媛県西条市小松町妙口甲1280番地", "url": "https://www.kaigokensaku.mhlw.go.jp/38/index.php?action_kouhyou_detail_004_kani=true&JigyosyoCd=3870600248-00&ServiceCd=331&Type=search", "url2": "http://www.jukunen.jp" }, "geometry": { "type": "Point", "coordinates": [ 133.087795314964211, 33.894238660342985 ] } },
{ "type": "Feature", "properties": { "内容": "サポートシステム龍星【特定施設入居者生活介護（有料老人ホーム）】愛媛県大洲市柚木王子ヶ平580番地1", "url": "https://www.kaigokensaku.mhlw.go.jp/38/index.php?action_kouhyou_detail_004_kani=true&JigyosyoCd=3870700667-00&ServiceCd=331&Type=search", "url2": "http://shinpukai.co.jp/" }, "geometry": { "type": "Point", "coordinates": [ 132.548610899999971, 33.5033857 ] } },
{ "type": "Feature", "properties": { "内容": "介護付き有料老人ホーム　空海の里【特定施設入居者生活介護（有料老人ホーム）】愛媛県大洲市柚木７５２－１", "url": "https://www.kaigokensaku.mhlw.go.jp/38/index.php?action_kouhyou_detail_004_kani=true&JigyosyoCd=3870700840-00&ServiceCd=331&Type=search", "url2": "http://kuukai-no-sato.jp/" }, "geometry": { "type": "Point", "coordinates": [ 132.554097917196714, 33.50094721877543 ] } },
{ "type": "Feature", "properties": { "内容": "グランドライフ　あいじゅ新川【特定施設入居者生活介護（有料老人ホーム）】愛媛県伊予市下吾川字北西原1781番地1", "url": "https://www.kaigokensaku.mhlw.go.jp/38/index.php?action_kouhyou_detail_004_kani=true&JigyosyoCd=3871000638-00&ServiceCd=331&Type=search", "url2": "http://www.aijukai-group.com/facilities/aijushinkawa.html" }, "geometry": { "type": "Point", "coordinates": [ 132.700158386277735, 33.772354943879456 ] } },
{ "type": "Feature", "properties": { "内容": "株式会社悠遊社　介護付き有料老人ホームゆうゆう三島【特定施設入居者生活介護（有料老人ホーム）】愛媛県四国中央市三島中3丁目11番38号", "url": "https://www.kaigokensaku.mhlw.go.jp/38/index.php?action_kouhyou_detail_004_kani=true&JigyosyoCd=3871301457-00&ServiceCd=331&Type=search", "url2": "http://www.yuyusya.co.jp" }, "geometry": { "type": "Point", "coordinates": [ 133.543657940505994, 33.982122895547171 ] } },
{ "type": "Feature", "properties": { "内容": "介護付有料老人ホームさくらリビング川之江【特定施設入居者生活介護（有料老人ホーム）】愛媛県四国中央市金生町下分996-1介護付有料老人ホームさくらリビング川之江", "url": "https://www.kaigokensaku.mhlw.go.jp/38/index.php?action_kouhyou_detail_004_kani=true&JigyosyoCd=3871301523-00&ServiceCd=331&Type=search", "url2": "https://sakuraliving.jp/" }, "geometry": { "type": "Point", "coordinates": [ 133.575549257016746, 33.99970653588052 ] } },
{ "type": "Feature", "properties": { "内容": "シルバーハウス西予【特定施設入居者生活介護（有料老人ホーム）】愛媛県西予市宇和町上松葉164番地1", "url": "https://www.kaigokensaku.mhlw.go.jp/38/index.php?action_kouhyou_detail_004_kani=true&JigyosyoCd=3871400549-00&ServiceCd=331&Type=search", "url2": "http://www.kojinkai.jp" }, "geometry": { "type": "Point", "coordinates": [ 132.502101566899455, 33.385203799381983 ] } },
{ "type": "Feature", "properties": { "内容": "介護付有料老人ホーム　笑歩会　東温【特定施設入居者生活介護（有料老人ホーム）】愛媛県東温市田窪字井手ノ上332番地2", "url": "https://www.kaigokensaku.mhlw.go.jp/38/index.php?action_kouhyou_detail_004_kani=true&JigyosyoCd=3871500132-00&ServiceCd=331&Type=search", "url2": "http://www.shouhokai.jp/" }, "geometry": { "type": "Point", "coordinates": [ 132.865936939672793, 33.791159407513234 ] } },
{ "type": "Feature", "properties": { "内容": "介護付有料老人ホーム　笑歩会　松前【特定施設入居者生活介護（有料老人ホーム）】愛媛県伊予郡松前町筒井317番地2", "url": "https://www.kaigokensaku.mhlw.go.jp/38/index.php?action_kouhyou_detail_004_kani=true&JigyosyoCd=3873501179-00&ServiceCd=331&Type=search", "url2": "http://shouhokai.jp/" }, "geometry": { "type": "Point", "coordinates": [ 132.70603959999994, 33.7916558 ] } },
{ "type": "Feature", "properties": { "内容": "介護付有料老人ホームTo-be【特定施設入居者生活介護（有料老人ホーム）】愛媛県伊予郡砥部町麻生51番地1", "url": "https://www.kaigokensaku.mhlw.go.jp/38/index.php?action_kouhyou_detail_004_kani=true&JigyosyoCd=3873501120-00&ServiceCd=331&Type=search", "url2": null }, "geometry": { "type": "Point", "coordinates": [ 132.789416410836793, 33.780952383283818 ] } },
{ "type": "Feature", "properties": { "内容": "介護付有料老人ホーム　虹の森【特定施設入居者生活介護（有料老人ホーム）】北宇和郡松野町大字松丸５５２番地", "url": "https://www.kaigokensaku.mhlw.go.jp/38/index.php?action_kouhyou_detail_004_kani=true&JigyosyoCd=3873900835-00&ServiceCd=331&Type=search", "url2": null }, "geometry": { "type": "Point", "coordinates": [ 132.712556799999987, 33.2240314 ] } },
{ "type": "Feature", "properties": { "内容": "介護付有料老人ホーム　虹【特定施設入居者生活介護（有料老人ホーム）】愛媛県北宇和郡松野町大字豊岡３０１１番地1", "url": "https://www.kaigokensaku.mhlw.go.jp/38/index.php?action_kouhyou_detail_004_kani=true&JigyosyoCd=3873900918-00&ServiceCd=331&Type=search", "url2": null }, "geometry": { "type": "Point", "coordinates": [ 132.702660400000013, 33.231802400000014 ] } },
{ "type": "Feature", "properties": { "内容": "有料老人ホームあおぞら【特定施設入居者生活介護（有料老人ホーム）】愛媛県北宇和郡鬼北町大字興野々1251番地", "url": "https://www.kaigokensaku.mhlw.go.jp/38/index.php?action_kouhyou_detail_004_kani=true&JigyosyoCd=3873900801-00&ServiceCd=331&Type=search", "url2": "http://careplazaaozora.community.officelive.com/aboutus.aspx" }, "geometry": { "type": "Point", "coordinates": [ 132.7154842, 33.2503478 ] } }
]
}
