{
"type": "FeatureCollection",
"name": "geo_38_小規模多機能型居宅介護",
"crs": { "type": "name", "properties": { "name": "urn:ogc:def:crs:OGC:1.3:CRS84" } },
"features": [
{ "type": "Feature", "properties": { "内容": "小規模多機能ホームめぐり【小規模多機能型居宅介護】愛媛県松山市保免西３丁目9-26", "url": "https://www.kaigokensaku.mhlw.go.jp/38/index.php?action_kouhyou_detail_004_kani=true&JigyosyoCd=3890102001-00&ServiceCd=730&Type=search", "url2": "https://cross-service.co.jp/" }, "geometry": { "type": "Point", "coordinates": [ 132.743684300000012, 33.8152143 ] } },
{ "type": "Feature", "properties": { "内容": "小規模多機能ホームゆうゆう【小規模多機能型居宅介護】愛媛県松山市古川南3丁目23-22", "url": "https://www.kaigokensaku.mhlw.go.jp/38/index.php?action_kouhyou_detail_004_kani=true&JigyosyoCd=3890100633-00&ServiceCd=730&Type=search", "url2": "http://www.yuyusya.co.jp/" }, "geometry": { "type": "Point", "coordinates": [ 132.761506899999972, 33.8044837 ] } },
{ "type": "Feature", "properties": { "内容": "しょうきぼたきのうほうむ3丁目【小規模多機能型居宅介護】愛媛県松山市水泥町631番地", "url": "https://www.kaigokensaku.mhlw.go.jp/38/index.php?action_kouhyou_detail_004_kani=true&JigyosyoCd=3890100682-00&ServiceCd=730&Type=search", "url2": "http://www.slowlife.co.jp" }, "geometry": { "type": "Point", "coordinates": [ 132.831386, 33.8027128 ] } },
{ "type": "Feature", "properties": { "内容": "小規模多機能ホーム　ゆうゆう立花【小規模多機能型居宅介護】愛媛県松山市立花１丁目１番２６号", "url": "https://www.kaigokensaku.mhlw.go.jp/38/index.php?action_kouhyou_detail_004_kani=true&JigyosyoCd=3890100799-00&ServiceCd=730&Type=search", "url2": "http://www.yuyusya.co.jp" }, "geometry": { "type": "Point", "coordinates": [ 132.77309409999998, 33.8309975 ] } },
{ "type": "Feature", "properties": { "内容": "すずらん家【小規模多機能型居宅介護】愛媛県松山市西長戸町４８６番地５", "url": "https://www.kaigokensaku.mhlw.go.jp/38/index.php?action_kouhyou_detail_004_kani=true&JigyosyoCd=3890100161-00&ServiceCd=730&Type=search", "url2": "https://suzuran-kaigo.net/" }, "geometry": { "type": "Point", "coordinates": [ 132.740746899999976, 33.8666728 ] } },
{ "type": "Feature", "properties": { "内容": "すずらん通り【小規模多機能型居宅介護】愛媛県松山市堀江町567番地2", "url": "https://www.kaigokensaku.mhlw.go.jp/38/index.php?action_kouhyou_detail_004_kani=true&JigyosyoCd=3890100500-00&ServiceCd=730&Type=search", "url2": "http://suzuran-kaigo.net" }, "geometry": { "type": "Point", "coordinates": [ 132.74273560000006, 33.9010586 ] } },
{ "type": "Feature", "properties": { "内容": "小規模多機能型居宅介護施設　まちなか【小規模多機能型居宅介護】愛媛県松山市萱町５丁目10番地20", "url": "https://www.kaigokensaku.mhlw.go.jp/38/index.php?action_kouhyou_detail_004_kani=true&JigyosyoCd=3890100856-00&ServiceCd=730&Type=search", "url2": null }, "geometry": { "type": "Point", "coordinates": [ 132.7566927, 33.850609367208556 ] } },
{ "type": "Feature", "properties": { "内容": "小規模多機能型　海の家すずらん【小規模多機能型居宅介護】愛媛県松山市堀江町甲531番地1", "url": "https://www.kaigokensaku.mhlw.go.jp/38/index.php?action_kouhyou_detail_004_kani=true&JigyosyoCd=3890101193-00&ServiceCd=730&Type=search", "url2": "http://suzuran-kaigo.net" }, "geometry": { "type": "Point", "coordinates": [ 132.740501010227916, 33.89975125911922 ] } },
{ "type": "Feature", "properties": { "内容": "小規模多機能ホームいしい和泉【小規模多機能型居宅介護】愛媛県松山市和泉南二丁目5番1号地域密着型総合介護施設いしいの里", "url": "https://www.kaigokensaku.mhlw.go.jp/38/index.php?action_kouhyou_detail_004_kani=true&JigyosyoCd=3890101557-00&ServiceCd=730&Type=search", "url2": "http:/www.yoshiken-c.jp" }, "geometry": { "type": "Point", "coordinates": [ 132.764098096399266, 33.816784707147974 ] } },
{ "type": "Feature", "properties": { "内容": "小規模多機能型居宅介護　　アトラス小川【小規模多機能型居宅介護】愛媛県松山市小川甲82番地三好整形外科医院２階", "url": "https://www.kaigokensaku.mhlw.go.jp/38/index.php?action_kouhyou_detail_004_kani=true&JigyosyoCd=3890100930-00&ServiceCd=730&Type=search", "url2": null }, "geometry": { "type": "Point", "coordinates": [ 132.764273394277978, 33.927542979554303 ] } },
{ "type": "Feature", "properties": { "内容": "こもれびの家すずらん【小規模多機能型居宅介護】愛媛県松山市和気町2丁目818番地7", "url": "https://www.kaigokensaku.mhlw.go.jp/38/index.php?action_kouhyou_detail_004_kani=true&JigyosyoCd=3890102068-00&ServiceCd=730&Type=search", "url2": "https://suzuran-kaigo.net/" }, "geometry": { "type": "Point", "coordinates": [ 132.735943959057948, 33.900958691140616 ] } },
{ "type": "Feature", "properties": { "内容": "小規模多機能ホーム南高井【小規模多機能型居宅介護】愛媛県松山市南高井333番地", "url": "https://www.kaigokensaku.mhlw.go.jp/38/index.php?action_kouhyou_detail_004_kani=true&JigyosyoCd=3890102159-00&ServiceCd=730&Type=search", "url2": "https://www.tensinkai.or.jp/" }, "geometry": { "type": "Point", "coordinates": [ 132.8249341, 33.787857 ] } },
{ "type": "Feature", "properties": { "内容": "アユーラ小規模多機能型居宅介護事業所【小規模多機能型居宅介護】松山市日の出町10－80アユーラステーション松山", "url": "https://www.kaigokensaku.mhlw.go.jp/38/index.php?action_kouhyou_detail_004_kani=true&JigyosyoCd=3890100179-00&ServiceCd=730&Type=search", "url2": "http://www.ayurastation-matsuyama.jp" }, "geometry": { "type": "Point", "coordinates": [ 132.783770799999957, 33.8377248 ] } },
{ "type": "Feature", "properties": { "内容": "小規模多機能ホームだんだん【小規模多機能型居宅介護】愛媛県松山市朝生田町7丁目8番地4号", "url": "https://www.kaigokensaku.mhlw.go.jp/38/index.php?action_kouhyou_detail_004_kani=true&JigyosyoCd=3890100203-00&ServiceCd=730&Type=search", "url2": "http://www.cross-service.co.jp/welfare.html" }, "geometry": { "type": "Point", "coordinates": [ 132.762417133868439, 33.820375177920958 ] } },
{ "type": "Feature", "properties": { "内容": "小規模多機能センター難波【小規模多機能型居宅介護】愛媛県松山市中通甲898番1", "url": "https://www.kaigokensaku.mhlw.go.jp/38/index.php?action_kouhyou_detail_004_kani=true&JigyosyoCd=3890100229-00&ServiceCd=730&Type=search", "url2": "http://www.anjukai.com" }, "geometry": { "type": "Point", "coordinates": [ 132.792083269380981, 33.984282998255722 ] } },
{ "type": "Feature", "properties": { "内容": "小規模多機能センター和気【小規模多機能型居宅介護】松山市和気町一丁目684番地", "url": "https://www.kaigokensaku.mhlw.go.jp/38/index.php?action_kouhyou_detail_004_kani=true&JigyosyoCd=3890100237-00&ServiceCd=730&Type=search", "url2": "http://www.anju-kai.jp" }, "geometry": { "type": "Point", "coordinates": [ 132.736163291401681, 33.894944016785445 ] } },
{ "type": "Feature", "properties": { "内容": "小規模多機能ホームともの家【小規模多機能型居宅介護】松山市溝辺町甲93-1", "url": "https://www.kaigokensaku.mhlw.go.jp/38/index.php?action_kouhyou_detail_004_kani=true&JigyosyoCd=3890100450-00&ServiceCd=730&Type=search", "url2": "http://www.tomo-home.jp" }, "geometry": { "type": "Point", "coordinates": [ 132.80798157011418, 33.847837034119031 ] } },
{ "type": "Feature", "properties": { "内容": "小規模多機能ホームやわらぎ【小規模多機能型居宅介護】久万ノ台１３７－６", "url": "https://www.kaigokensaku.mhlw.go.jp/38/index.php?action_kouhyou_detail_004_kani=true&JigyosyoCd=3890100534-00&ServiceCd=730&Type=search", "url2": "http://www.minori-group.com" }, "geometry": { "type": "Point", "coordinates": [ 132.747426899999937, 33.856192626232833 ] } },
{ "type": "Feature", "properties": { "内容": "小規模多機能型居宅介護事業所　ウェルケア高浜【小規模多機能型居宅介護】愛媛県松山市松ノ木2丁目789番地", "url": "https://www.kaigokensaku.mhlw.go.jp/38/index.php?action_kouhyou_detail_004_kani=true&JigyosyoCd=3890100542-00&ServiceCd=730&Type=search", "url2": "http://kikuju.or.jp/" }, "geometry": { "type": "Point", "coordinates": [ 132.720373900000027, 33.8735853 ] } },
{ "type": "Feature", "properties": { "内容": "アユーラ小規模多機能枝松【小規模多機能型居宅介護】愛媛県松山市枝松6丁目3番15号グループホームあゆーら2階", "url": "https://www.kaigokensaku.mhlw.go.jp/38/index.php?action_kouhyou_detail_004_kani=true&JigyosyoCd=3890100575-00&ServiceCd=730&Type=search", "url2": "http://www.ayurastation-matsuyama.jp" }, "geometry": { "type": "Point", "coordinates": [ 132.7843514, 33.8245236 ] } },
{ "type": "Feature", "properties": { "内容": "小規模多機能型居宅介護　楓華【小規模多機能型居宅介護】愛媛県松山市太山寺町１３２１－１", "url": "https://www.kaigokensaku.mhlw.go.jp/38/index.php?action_kouhyou_detail_004_kani=true&JigyosyoCd=3890100617-00&ServiceCd=730&Type=search", "url2": "http://www.minyu-kai.com/" }, "geometry": { "type": "Point", "coordinates": [ 132.727389799999969, 33.8861872 ] } },
{ "type": "Feature", "properties": { "内容": "小規模多機能ホームつむぎ【小規模多機能型居宅介護】愛媛県松山市和気町1丁目27番地", "url": "https://www.kaigokensaku.mhlw.go.jp/38/index.php?action_kouhyou_detail_004_kani=true&JigyosyoCd=3890100625-00&ServiceCd=730&Type=search", "url2": "http://www.cross-service.co.jp/welfare.html" }, "geometry": { "type": "Point", "coordinates": [ 132.736405600000012, 33.8917259 ] } },
{ "type": "Feature", "properties": { "内容": "小規模多機能型居宅介護やわらぎいくし村【小規模多機能型居宅介護】生石町４７２番地", "url": "https://www.kaigokensaku.mhlw.go.jp/38/index.php?action_kouhyou_detail_004_kani=true&JigyosyoCd=3890100674-00&ServiceCd=730&Type=search", "url2": "http://www.yawaragi-ehime.com/" }, "geometry": { "type": "Point", "coordinates": [ 132.740811424842718, 33.8323706196039 ] } },
{ "type": "Feature", "properties": { "内容": "小規模多機能型居宅介護　ハートガーデンつじまち【小規模多機能型居宅介護】愛媛県松山市辻町2番35号", "url": "https://www.kaigokensaku.mhlw.go.jp/38/index.php?action_kouhyou_detail_004_kani=true&JigyosyoCd=3890100724-00&ServiceCd=730&Type=search", "url2": "http://www.aijukai-group.com" }, "geometry": { "type": "Point", "coordinates": [ 132.7478463, 33.8413927 ] } },
{ "type": "Feature", "properties": { "内容": "しょうきぼのん木　たいさんじ【小規模多機能型居宅介護】愛媛県松山市太山寺町1257番地1", "url": "https://www.kaigokensaku.mhlw.go.jp/38/index.php?action_kouhyou_detail_004_kani=true&JigyosyoCd=3890100849-00&ServiceCd=730&Type=search", "url2": null }, "geometry": { "type": "Point", "coordinates": [ 132.749771099999975, 33.889021 ] } },
{ "type": "Feature", "properties": { "内容": "小規模多機能ホームてとて【小規模多機能型居宅介護】愛媛県松山市来住町1056－1", "url": "https://www.kaigokensaku.mhlw.go.jp/38/index.php?action_kouhyou_detail_004_kani=true&JigyosyoCd=3890100880-00&ServiceCd=730&Type=search", "url2": "https://cross-service.co.jp" }, "geometry": { "type": "Point", "coordinates": [ 132.798186200000032, 33.8037568 ] } },
{ "type": "Feature", "properties": { "内容": "小規模多機能ホーム　ケアリビングそれいゆ【小規模多機能型居宅介護】愛媛県松山市安城寺町９６９－５", "url": "https://www.kaigokensaku.mhlw.go.jp/38/index.php?action_kouhyou_detail_004_kani=true&JigyosyoCd=3890100948-00&ServiceCd=730&Type=search", "url2": null }, "geometry": { "type": "Point", "coordinates": [ 132.740993896295208, 33.876132705898591 ] } },
{ "type": "Feature", "properties": { "内容": "小規模多機能ホームつよし【小規模多機能型居宅介護】愛媛県松山市津吉町６１１番地３", "url": "https://www.kaigokensaku.mhlw.go.jp/38/index.php?action_kouhyou_detail_004_kani=true&JigyosyoCd=3890101003-00&ServiceCd=730&Type=search", "url2": "http://www.tensinkai.or.jp" }, "geometry": { "type": "Point", "coordinates": [ 132.83235250000007, 33.7711833 ] } },
{ "type": "Feature", "properties": { "内容": "小規模多機能型居宅介護　いなほ【小規模多機能型居宅介護】愛媛県松山市志津川町４９番１", "url": "https://www.kaigokensaku.mhlw.go.jp/38/index.php?action_kouhyou_detail_004_kani=true&JigyosyoCd=3890101060-00&ServiceCd=730&Type=search", "url2": "http://minyu-kai.com/" }, "geometry": { "type": "Point", "coordinates": [ 132.750134900000035, 33.8781386 ] } },
{ "type": "Feature", "properties": { "内容": "小規模多機能いちえい保免【小規模多機能型居宅介護】愛媛県松山市保免中２丁目3-19　　（地番480-1）", "url": "https://www.kaigokensaku.mhlw.go.jp/38/index.php?action_kouhyou_detail_004_kani=true&JigyosyoCd=3890101086-00&ServiceCd=730&Type=search", "url2": "http://fukushi.sanshin-grp.com/houmen/" }, "geometry": { "type": "Point", "coordinates": [ 132.745551745754938, 33.815672906368057 ] } },
{ "type": "Feature", "properties": { "内容": "小規模多機能センター　あわい【小規模多機能型居宅介護】愛媛県松山市小川甲２１４番地1", "url": "https://www.kaigokensaku.mhlw.go.jp/38/index.php?action_kouhyou_detail_004_kani=true&JigyosyoCd=3890101094-00&ServiceCd=730&Type=search", "url2": "http://www.anjukai.com" }, "geometry": { "type": "Point", "coordinates": [ 132.76352981139226, 33.926133955537047 ] } },
{ "type": "Feature", "properties": { "内容": "小規模多機能の家　こんまいこんまい「あんき」【小規模多機能型居宅介護】愛媛県松山市西垣生町1704番地2", "url": "https://www.kaigokensaku.mhlw.go.jp/38/index.php?action_kouhyou_detail_004_kani=true&JigyosyoCd=3890101177-00&ServiceCd=730&Type=search", "url2": "http://anki-m.net/" }, "geometry": { "type": "Point", "coordinates": [ 132.697879300000068, 33.8119727 ] } },
{ "type": "Feature", "properties": { "内容": "小規模多機能型居宅介護　持田のいえ【小規模多機能型居宅介護】愛媛県松山市持田町４丁目７番９号", "url": "https://www.kaigokensaku.mhlw.go.jp/38/index.php?action_kouhyou_detail_004_kani=true&JigyosyoCd=3890101227-00&ServiceCd=730&Type=search", "url2": null }, "geometry": { "type": "Point", "coordinates": [ 132.779110100000054, 33.8451682 ] } },
{ "type": "Feature", "properties": { "内容": "小規模多機能　ともの家　吾も紅【小規模多機能型居宅介護】愛媛県松山市溝辺町甲５６２-１", "url": "https://www.kaigokensaku.mhlw.go.jp/38/index.php?action_kouhyou_detail_004_kani=true&JigyosyoCd=3890101276-00&ServiceCd=730&Type=search", "url2": "http://www.tomo-home.jp" }, "geometry": { "type": "Point", "coordinates": [ 132.805346567421338, 33.852405330859234 ] } },
{ "type": "Feature", "properties": { "内容": "小規模多機能ホーム三町【小規模多機能型居宅介護】愛媛県松山市三町三丁目3番23号小規模多機能ホーム三町", "url": "https://www.kaigokensaku.mhlw.go.jp/38/index.php?action_kouhyou_detail_004_kani=true&JigyosyoCd=3890101284-00&ServiceCd=730&Type=search", "url2": "https://www.aine-kaigo.com" }, "geometry": { "type": "Point", "coordinates": [ 132.799666399999978, 33.8245629 ] } },
{ "type": "Feature", "properties": { "内容": "小規模多機能型居宅介護　竹の郷【小規模多機能型居宅介護】愛媛県松山市太山寺町1470番地", "url": "https://www.kaigokensaku.mhlw.go.jp/38/index.php?action_kouhyou_detail_004_kani=true&JigyosyoCd=3890101300-00&ServiceCd=730&Type=search", "url2": "http://www.setofukuzikai.com/" }, "geometry": { "type": "Point", "coordinates": [ 132.725058580148414, 33.884969765848517 ] } },
{ "type": "Feature", "properties": { "内容": "小規模多機能の家こうの【小規模多機能型居宅介護】愛媛県松山市河野別府179-1小規模多機能の家こうの", "url": "https://www.kaigokensaku.mhlw.go.jp/38/index.php?action_kouhyou_detail_004_kani=true&JigyosyoCd=3890101375-00&ServiceCd=730&Type=search", "url2": "http://anju-kai.jp/" }, "geometry": { "type": "Point", "coordinates": [ 132.781416900000067, 33.9494088 ] } },
{ "type": "Feature", "properties": { "内容": "小規模多機能施設ふくずみ【小規模多機能型居宅介護】愛媛県松山市福角町甲６１６－１小規模多機能施設ふくずみ", "url": "https://www.kaigokensaku.mhlw.go.jp/38/index.php?action_kouhyou_detail_004_kani=true&JigyosyoCd=3890101383-00&ServiceCd=730&Type=search", "url2": "http://anju-kai.jp/" }, "geometry": { "type": "Point", "coordinates": [ 132.759789599999976, 33.8994036 ] } },
{ "type": "Feature", "properties": { "内容": "小規模多機能　いちえい日招きの里【小規模多機能型居宅介護】愛媛県松山市保免西1丁目5番24号", "url": "https://www.kaigokensaku.mhlw.go.jp/38/index.php?action_kouhyou_detail_004_kani=true&JigyosyoCd=3890101433-00&ServiceCd=730&Type=search", "url2": "http://fukushi.sanshin-grp.com/himanekinosato/facilities.html" }, "geometry": { "type": "Point", "coordinates": [ 132.743544571163966, 33.817539859871758 ] } },
{ "type": "Feature", "properties": { "内容": "小規模多機能ホームゆうゆう針田【小規模多機能型居宅介護】愛媛県松山市針田町128番地1", "url": "https://www.kaigokensaku.mhlw.go.jp/38/index.php?action_kouhyou_detail_004_kani=true&JigyosyoCd=3890101466-00&ServiceCd=730&Type=search", "url2": "http://www.yuyusya.co.jp/" }, "geometry": { "type": "Point", "coordinates": [ 132.734797599999979, 33.823825 ] } },
{ "type": "Feature", "properties": { "内容": "小規模多機能ホームここえ【小規模多機能型居宅介護】愛媛県松山市平井町甲3277-1", "url": "https://www.kaigokensaku.mhlw.go.jp/38/index.php?action_kouhyou_detail_004_kani=true&JigyosyoCd=3890101680-00&ServiceCd=730&Type=search", "url2": "http://www.cross-service.co.jp/" }, "geometry": { "type": "Point", "coordinates": [ 132.8185919, 33.8061196 ] } },
{ "type": "Feature", "properties": { "内容": "小規模多機能ほしのおか【小規模多機能型居宅介護】愛媛県松山市星岡1丁目31番7号特別養護老人ホームほしのおか", "url": "https://www.kaigokensaku.mhlw.go.jp/38/index.php?action_kouhyou_detail_004_kani=true&JigyosyoCd=3890101748-00&ServiceCd=730&Type=search", "url2": "https://www.meishikai.info/" }, "geometry": { "type": "Point", "coordinates": [ 132.787913715869081, 33.818307944929622 ] } },
{ "type": "Feature", "properties": { "内容": "小規模多機能ホーム里山【小規模多機能型居宅介護】愛媛県松山市鷹子町1111番地1", "url": "https://www.kaigokensaku.mhlw.go.jp/38/index.php?action_kouhyou_detail_004_kani=true&JigyosyoCd=3890101920-00&ServiceCd=730&Type=search", "url2": "https://tobe-k.com" }, "geometry": { "type": "Point", "coordinates": [ 132.8125942, 33.817321 ] } },
{ "type": "Feature", "properties": { "内容": "シーサイド高岡【小規模多機能型居宅介護】愛媛県松山市高岡町877番地6", "url": "https://www.kaigokensaku.mhlw.go.jp/38/index.php?action_kouhyou_detail_004_kani=true&JigyosyoCd=3890101938-00&ServiceCd=730&Type=search", "url2": "https://jcare.xyz" }, "geometry": { "type": "Point", "coordinates": [ 132.71037530000001, 33.8305117 ] } },
{ "type": "Feature", "properties": { "内容": "小規模多機能ホーム新石手【小規模多機能型居宅介護】愛媛県松山市新石手甲219番地3", "url": "https://www.kaigokensaku.mhlw.go.jp/38/index.php?action_kouhyou_detail_004_kani=true&JigyosyoCd=3890101946-00&ServiceCd=730&Type=search", "url2": null }, "geometry": { "type": "Point", "coordinates": [ 132.8020778, 33.8467197 ] } },
{ "type": "Feature", "properties": { "内容": "小規模多機能ホーム虹の家【小規模多機能型居宅介護】愛媛県松山市立花５丁目1-53", "url": "https://www.kaigokensaku.mhlw.go.jp/38/index.php?action_kouhyou_detail_004_kani=true&JigyosyoCd=3890101961-00&ServiceCd=730&Type=search", "url2": "http://kyowahp.com" }, "geometry": { "type": "Point", "coordinates": [ 132.7722106, 33.8275239 ] } },
{ "type": "Feature", "properties": { "内容": "小規模多機能型居宅介護あいしょう小栗【小規模多機能型居宅介護】愛媛県松山市小栗5丁目1番25号あいしょう小栗", "url": "https://www.kaigokensaku.mhlw.go.jp/38/index.php?action_kouhyou_detail_004_kani=true&JigyosyoCd=3890102035-00&ServiceCd=730&Type=search", "url2": "https://www.meishikai.info/" }, "geometry": { "type": "Point", "coordinates": [ 132.759797, 33.8289004 ] } },
{ "type": "Feature", "properties": { "内容": "小規模多機能ホームいしい【小規模多機能型居宅介護】松山市北井門二丁目９番１５号", "url": "https://www.kaigokensaku.mhlw.go.jp/38/index.php?action_kouhyou_detail_004_kani=true&JigyosyoCd=3890100757-00&ServiceCd=730&Type=search", "url2": "http://www.ishii-c.jp" }, "geometry": { "type": "Point", "coordinates": [ 132.777674499999989, 33.8031454 ] } },
{ "type": "Feature", "properties": { "内容": "小規模多機能　いちえい東垣生【小規模多機能型居宅介護】愛媛県松山市東垣生町638番地1", "url": "https://www.kaigokensaku.mhlw.go.jp/38/index.php?action_kouhyou_detail_004_kani=true&JigyosyoCd=3890102134-00&ServiceCd=730&Type=search", "url2": "https://sanshin-grp.com/ichiei/facilities/higashihabu/" }, "geometry": { "type": "Point", "coordinates": [ 132.714662037324302, 33.814136924041797 ] } },
{ "type": "Feature", "properties": { "内容": "小規模多機能　にじいろ【小規模多機能型居宅介護】愛媛県松山市苞木甲200番地", "url": "https://www.kaigokensaku.mhlw.go.jp/38/index.php?action_kouhyou_detail_004_kani=true&JigyosyoCd=3890100815-00&ServiceCd=730&Type=search", "url2": "http://www.taitofukushikai.jp/" }, "geometry": { "type": "Point", "coordinates": [ 132.776042227677891, 33.941172845763795 ] } },
{ "type": "Feature", "properties": { "内容": "小規模多機能ホーム桑原【小規模多機能型居宅介護】愛媛県松山市桑原二丁目10番21号小規模多機能ホーム桑原", "url": "https://www.kaigokensaku.mhlw.go.jp/38/index.php?action_kouhyou_detail_004_kani=true&JigyosyoCd=3890101615-00&ServiceCd=730&Type=search", "url2": null }, "geometry": { "type": "Point", "coordinates": [ 132.79296528408679, 33.836661819571425 ] } },
{ "type": "Feature", "properties": { "内容": "小規模多機能型居宅介護　さくらの丘【小規模多機能型居宅介護】松山市南江戸6-5-31", "url": "https://www.kaigokensaku.mhlw.go.jp/38/index.php?action_kouhyou_detail_004_kani=true&JigyosyoCd=3890100914-00&ServiceCd=730&Type=search", "url2": "http://kaigokikaku-aki.com/" }, "geometry": { "type": "Point", "coordinates": [ 132.7375, 33.8402787 ] } },
{ "type": "Feature", "properties": { "内容": "小規模多機能型居宅介護事業所　ステラ【小規模多機能型居宅介護】愛媛県今治市大西町紺原1166番地3", "url": "https://www.kaigokensaku.mhlw.go.jp/38/index.php?action_kouhyou_detail_004_kani=true&JigyosyoCd=3890200185-00&ServiceCd=730&Type=search", "url2": "http://kouhukai.com" }, "geometry": { "type": "Point", "coordinates": [ 132.9341081, 34.0721134 ] } },
{ "type": "Feature", "properties": { "内容": "今治市社協小規模多機能ゆいの村【小規模多機能型居宅介護】大三島町野々江２４３５－１４", "url": "https://www.kaigokensaku.mhlw.go.jp/38/index.php?action_kouhyou_detail_004_kani=true&JigyosyoCd=3890200243-00&ServiceCd=730&Type=search", "url2": "http://www.imabari-shakyo.jp/" }, "geometry": { "type": "Point", "coordinates": [ 132.990162953967229, 34.221259932962411 ] } },
{ "type": "Feature", "properties": { "内容": "小規模多機能　倶楽部壱番館　＋reha【小規模多機能型居宅介護】愛媛県今治市泉川町2丁目1番地52", "url": "https://www.kaigokensaku.mhlw.go.jp/38/index.php?action_kouhyou_detail_004_kani=true&JigyosyoCd=3890200573-00&ServiceCd=730&Type=search", "url2": null }, "geometry": { "type": "Point", "coordinates": [ 132.993638890599101, 34.056534073869251 ] } },
{ "type": "Feature", "properties": { "内容": "おあしす今治【小規模多機能型居宅介護】今治市郷桜井3丁目3番67号", "url": "https://www.kaigokensaku.mhlw.go.jp/38/index.php?action_kouhyou_detail_004_kani=true&JigyosyoCd=3890200094-00&ServiceCd=730&Type=search", "url2": "http://care-net.biz/38/ishiioasis/index.php" }, "geometry": { "type": "Point", "coordinates": [ 133.035644100000013, 34.0180387 ] } },
{ "type": "Feature", "properties": { "内容": "小規模多機能型居宅介護施設　いよ路【小規模多機能型居宅介護】愛媛県今治市鯉池町１丁目2-10いよ路", "url": "https://www.kaigokensaku.mhlw.go.jp/38/index.php?action_kouhyou_detail_004_kani=true&JigyosyoCd=3890200102-00&ServiceCd=730&Type=search", "url2": "http://careーｎet.biz/38/iyoji/" }, "geometry": { "type": "Point", "coordinates": [ 132.988241499999958, 34.0531741 ] } },
{ "type": "Feature", "properties": { "内容": "ふれあいの家　ひまわり【小規模多機能型居宅介護】愛媛県今治市郷本町３丁目５番３４号", "url": "https://www.kaigokensaku.mhlw.go.jp/38/index.php?action_kouhyou_detail_004_kani=true&JigyosyoCd=3890200128-00&ServiceCd=730&Type=search", "url2": "https://care-net.biz/38/himawari/" }, "geometry": { "type": "Point", "coordinates": [ 132.993221299999959, 34.0447811 ] } },
{ "type": "Feature", "properties": { "内容": "おあしす北郷【小規模多機能型居宅介護】今治市波方町樋口甲2035番地1", "url": "https://www.kaigokensaku.mhlw.go.jp/38/index.php?action_kouhyou_detail_004_kani=true&JigyosyoCd=3890200151-00&ServiceCd=730&Type=search", "url2": "http://care-net.biz/38/kitagou/index.php" }, "geometry": { "type": "Point", "coordinates": [ 132.953278299999965, 34.1018475 ] } },
{ "type": "Feature", "properties": { "内容": "シーサイドきくま【小規模多機能型居宅介護】今治市菊間町浜1061番地", "url": "https://www.kaigokensaku.mhlw.go.jp/38/index.php?action_kouhyou_detail_004_kani=true&JigyosyoCd=3890200219-00&ServiceCd=730&Type=search", "url2": "http://npo-caresupport.main.jp/" }, "geometry": { "type": "Point", "coordinates": [ 132.84359228346716, 34.03760131356681 ] } },
{ "type": "Feature", "properties": { "内容": "小規模　あさくら【小規模多機能型居宅介護】古谷甲９９２番地１", "url": "https://www.kaigokensaku.mhlw.go.jp/38/index.php?action_kouhyou_detail_004_kani=true&JigyosyoCd=3890200227-00&ServiceCd=730&Type=search", "url2": null }, "geometry": { "type": "Point", "coordinates": [ 132.999379159782364, 34.013724965182789 ] } },
{ "type": "Feature", "properties": { "内容": "サテライト　ひまわり【小規模多機能型居宅介護】八町西４丁目１番１２号", "url": "https://www.kaigokensaku.mhlw.go.jp/38/index.php?action_kouhyou_detail_004_kani=true&JigyosyoCd=3890200300-00&ServiceCd=730&Type=search", "url2": "https://care-net.biz/38/himawari/" }, "geometry": { "type": "Point", "coordinates": [ 143.5450002, 43.2430258 ] } },
{ "type": "Feature", "properties": { "内容": "小規模多機能型居宅介護施設ししま【小規模多機能型居宅介護】愛媛県今治市桜井4丁目6番52号高齢者介護施設ハートウォーミングライフ志々満", "url": "https://www.kaigokensaku.mhlw.go.jp/38/index.php?action_kouhyou_detail_004_kani=true&JigyosyoCd=3890200318-00&ServiceCd=730&Type=search", "url2": "http://heartwarming.jp/" }, "geometry": { "type": "Point", "coordinates": [ 133.039463025737973, 34.016446912979866 ] } },
{ "type": "Feature", "properties": { "内容": "小規模多機能うらら【小規模多機能型居宅介護】愛媛県今治市南大門町2丁目2番地2", "url": "https://www.kaigokensaku.mhlw.go.jp/38/index.php?action_kouhyou_detail_004_kani=true&JigyosyoCd=3890200359-00&ServiceCd=730&Type=search", "url2": "http://yasuragi-suzuki.or.jp/" }, "geometry": { "type": "Point", "coordinates": [ 132.995960668647712, 34.066473808332034 ] } },
{ "type": "Feature", "properties": { "内容": "小規模多機能型介護施設たちばな南【小規模多機能型居宅介護】愛媛県今治市八町東5丁目6-2", "url": "https://www.kaigokensaku.mhlw.go.jp/38/index.php?action_kouhyou_detail_004_kani=true&JigyosyoCd=3890200391-00&ServiceCd=730&Type=search", "url2": null }, "geometry": { "type": "Point", "coordinates": [ 133.002975399999968, 34.0366964 ] } },
{ "type": "Feature", "properties": { "内容": "ＪＡおちいまばり元気まんてん【小規模多機能型居宅介護】愛媛県今治市別名４３４", "url": "https://www.kaigokensaku.mhlw.go.jp/38/index.php?action_kouhyou_detail_004_kani=true&JigyosyoCd=3890200433-00&ServiceCd=730&Type=search", "url2": "http://www.ja-ochiima.or.jp/fukushi/" }, "geometry": { "type": "Point", "coordinates": [ 132.977834681614723, 34.045460092713526 ] } },
{ "type": "Feature", "properties": { "内容": "シーサイド【小規模多機能型居宅介護】愛媛県今治市吉海町臥間45番1号", "url": "https://www.kaigokensaku.mhlw.go.jp/38/index.php?action_kouhyou_detail_004_kani=true&JigyosyoCd=3890200706-00&ServiceCd=730&Type=search", "url2": "https://www.meishikai.info/" }, "geometry": { "type": "Point", "coordinates": [ 133.021076599999986, 34.1288458 ] } },
{ "type": "Feature", "properties": { "内容": "おかげさん【小規模多機能型居宅介護】愛媛県今治市玉川町別所甲９３番３", "url": "https://www.kaigokensaku.mhlw.go.jp/38/index.php?action_kouhyou_detail_004_kani=true&JigyosyoCd=3890200177-00&ServiceCd=730&Type=search", "url2": "http://www.okagesan.jp/" }, "geometry": { "type": "Point", "coordinates": [ 132.970617, 34.0313377 ] } },
{ "type": "Feature", "properties": { "内容": "瀬戸内たくまの里【小規模多機能型居宅介護】愛媛県今治市宅間甲577", "url": "https://www.kaigokensaku.mhlw.go.jp/38/index.php?action_kouhyou_detail_004_kani=true&JigyosyoCd=3890200086-00&ServiceCd=730&Type=search", "url2": "http://www5.ocn.ne.jp/~kc-seto/" }, "geometry": { "type": "Point", "coordinates": [ 132.943394149498744, 34.069094855613514 ] } },
{ "type": "Feature", "properties": { "内容": "瀬戸内みすかの家【小規模多機能型居宅介護】愛媛県今治市東門町5丁目14-52", "url": "https://www.kaigokensaku.mhlw.go.jp/38/index.php?action_kouhyou_detail_004_kani=true&JigyosyoCd=3890200136-00&ServiceCd=730&Type=search", "url2": "http://www5.ocn.ne.jp/~kc-seto" }, "geometry": { "type": "Point", "coordinates": [ 133.016218400000071, 34.060941600000014 ] } },
{ "type": "Feature", "properties": { "内容": "小規模多機能ホーム　未来【小規模多機能型居宅介護】愛媛県宇和島市吉田町東小路甲57", "url": "https://www.kaigokensaku.mhlw.go.jp/38/index.php?action_kouhyou_detail_004_kani=true&JigyosyoCd=3890300183-00&ServiceCd=730&Type=search", "url2": "http://care-net.biz/38/yoshimaru1930/" }, "geometry": { "type": "Point", "coordinates": [ 132.541046599999987, 33.2790567 ] } },
{ "type": "Feature", "properties": { "内容": "小規模多機能いづみ【小規模多機能型居宅介護】愛媛県宇和島市泉町１丁目１番４０号", "url": "https://www.kaigokensaku.mhlw.go.jp/38/index.php?action_kouhyou_detail_004_kani=true&JigyosyoCd=3890300100-00&ServiceCd=730&Type=search", "url2": "http://jurakukai.jp/facility-info/izumi" }, "geometry": { "type": "Point", "coordinates": [ 132.571784200000025, 33.2327978 ] } },
{ "type": "Feature", "properties": { "内容": "公益財団法人正光会小規模多機能ホームだんだんの里【小規模多機能型居宅介護】愛媛県宇和島市三間町宮野下746番地小規模多機能ホームだんだんの里", "url": "https://www.kaigokensaku.mhlw.go.jp/38/index.php?action_kouhyou_detail_004_kani=true&JigyosyoCd=3890300092-00&ServiceCd=730&Type=search", "url2": "http:/www.shokokai-grp.or.jp" }, "geometry": { "type": "Point", "coordinates": [ 132.613431699999978, 33.2909371 ] } },
{ "type": "Feature", "properties": { "内容": "小規模多機能型居宅介護橙園【小規模多機能型居宅介護】愛媛県八幡浜市保内町宮内1番耕地５７０番地１", "url": "https://www.kaigokensaku.mhlw.go.jp/38/index.php?action_kouhyou_detail_004_kani=true&JigyosyoCd=3890400082-00&ServiceCd=730&Type=search", "url2": "http://www.medica-site.com/shisetsu_detail.php?recid=685" }, "geometry": { "type": "Point", "coordinates": [ 132.400227115344279, 33.488275926297419 ] } },
{ "type": "Feature", "properties": { "内容": "小規模多機能型居宅介護めぐみ【小規模多機能型居宅介護】八幡浜市穴井3番耕地703番地", "url": "https://www.kaigokensaku.mhlw.go.jp/38/index.php?action_kouhyou_detail_004_kani=true&JigyosyoCd=3890400017-00&ServiceCd=730&Type=search", "url2": "https://ameblo.jp/syoukibotakinoumegumi/" }, "geometry": { "type": "Point", "coordinates": [ 132.3976348, 33.3992238 ] } },
{ "type": "Feature", "properties": { "内容": "セントケア新居浜本郷【小規模多機能型居宅介護】愛媛県新居浜市本郷一丁目３番２４号", "url": "https://www.kaigokensaku.mhlw.go.jp/38/index.php?action_kouhyou_detail_004_kani=true&JigyosyoCd=3890500287-00&ServiceCd=730&Type=search", "url2": null }, "geometry": { "type": "Point", "coordinates": [ 133.285394799999949, 33.9377306 ] } },
{ "type": "Feature", "properties": { "内容": "小規模多機能施設　宝寿園【小規模多機能型居宅介護】荷内町６番２１号", "url": "https://www.kaigokensaku.mhlw.go.jp/38/index.php?action_kouhyou_detail_004_kani=true&JigyosyoCd=3890500071-00&ServiceCd=730&Type=search", "url2": "http://www.housyuukai.jp/" }, "geometry": { "type": "Point", "coordinates": [ 133.371755500000063, 33.978613 ] } },
{ "type": "Feature", "properties": { "内容": "ケアサポートセンター八雲【小規模多機能型居宅介護】新居浜市八雲町８番２４号", "url": "https://www.kaigokensaku.mhlw.go.jp/38/index.php?action_kouhyou_detail_004_kani=true&JigyosyoCd=3890500105-00&ServiceCd=730&Type=search", "url2": "http://www.hapinesu.com/" }, "geometry": { "type": "Point", "coordinates": [ 133.289336899999967, 33.961009 ] } },
{ "type": "Feature", "properties": { "内容": "憩いのいえ【小規模多機能型居宅介護】新居浜市船木字上長野甲５８１－２", "url": "https://www.kaigokensaku.mhlw.go.jp/38/index.php?action_kouhyou_detail_004_kani=true&JigyosyoCd=3890500113-00&ServiceCd=730&Type=search", "url2": null }, "geometry": { "type": "Point", "coordinates": [ 133.355737595042456, 33.939870850881142 ] } },
{ "type": "Feature", "properties": { "内容": "ケアサポートセンター若水【小規模多機能型居宅介護】愛媛県新居浜市若水町一丁目7番6号", "url": "https://www.kaigokensaku.mhlw.go.jp/38/index.php?action_kouhyou_detail_004_kani=true&JigyosyoCd=3890500261-00&ServiceCd=730&Type=search", "url2": "http://www.hapinesu.com/" }, "geometry": { "type": "Point", "coordinates": [ 133.278893299999936, 33.9656778 ] } },
{ "type": "Feature", "properties": { "内容": "小規模多機能ホーム泉川【小規模多機能型居宅介護】愛媛県新居浜市岸の上町１丁目１２番２８号小規模多機能ホーム泉川", "url": "https://www.kaigokensaku.mhlw.go.jp/38/index.php?action_kouhyou_detail_004_kani=true&JigyosyoCd=3890500345-00&ServiceCd=730&Type=search", "url2": "http://www.yuyusya.co.jp/" }, "geometry": { "type": "Point", "coordinates": [ 133.306814900000063, 33.9442276 ] } },
{ "type": "Feature", "properties": { "内容": "垣生倶楽部【小規模多機能型居宅介護】愛媛県新居浜市垣生四丁目３番３５号", "url": "https://www.kaigokensaku.mhlw.go.jp/38/index.php?action_kouhyou_detail_004_kani=true&JigyosyoCd=3890500386-00&ServiceCd=730&Type=search", "url2": "http://www.niihama-mcoop.or.jp/" }, "geometry": { "type": "Point", "coordinates": [ 133.321725, 33.981193 ] } },
{ "type": "Feature", "properties": { "内容": "小規模多機能ホームはなみずき【小規模多機能型居宅介護】愛媛県新居浜市若水町2-7-4", "url": "https://www.kaigokensaku.mhlw.go.jp/38/index.php?action_kouhyou_detail_004_kani=true&JigyosyoCd=3890500568-00&ServiceCd=730&Type=search", "url2": "http://www.ehime-med.or.jp/cms/?page_id=98" }, "geometry": { "type": "Point", "coordinates": [ 133.278755084655756, 33.967088266583566 ] } },
{ "type": "Feature", "properties": { "内容": "小規模多機能ホーム　みんなの家　行って民家【小規模多機能型居宅介護】愛媛県西条市新市５８０番地", "url": "https://www.kaigokensaku.mhlw.go.jp/38/index.php?action_kouhyou_detail_004_kani=true&JigyosyoCd=3890600152-00&ServiceCd=730&Type=search", "url2": "http://www.yuyusya.co.jp/" }, "geometry": { "type": "Point", "coordinates": [ 133.060101977909881, 33.934359170006395 ] } },
{ "type": "Feature", "properties": { "内容": "小規模多機能型居宅介護事業所　ひので【小規模多機能型居宅介護】愛媛県西条市神拝乙35番地5", "url": "https://www.kaigokensaku.mhlw.go.jp/38/index.php?action_kouhyou_detail_004_kani=true&JigyosyoCd=3890600178-00&ServiceCd=730&Type=search", "url2": null }, "geometry": { "type": "Point", "coordinates": [ 133.179633700000068, 33.9244573 ] } },
{ "type": "Feature", "properties": { "内容": "サテライト型小規模多機能型居宅介護　芳苑【小規模多機能型居宅介護】愛媛県西条市三芳1254番地1", "url": "https://www.kaigokensaku.mhlw.go.jp/38/index.php?action_kouhyou_detail_004_kani=true&JigyosyoCd=3890600426-00&ServiceCd=730&Type=search", "url2": "http://kitenkai.or.jp" }, "geometry": { "type": "Point", "coordinates": [ 133.0580956, 33.9500248 ] } },
{ "type": "Feature", "properties": { "内容": "小規模多機能型居宅介護きざえもん【小規模多機能型居宅介護】愛媛県西条市北条232番地1", "url": "https://www.kaigokensaku.mhlw.go.jp/38/index.php?action_kouhyou_detail_004_kani=true&JigyosyoCd=3890600111-00&ServiceCd=730&Type=search", "url2": "http://jcomm-care.co.jp" }, "geometry": { "type": "Point", "coordinates": [ 133.091427899999985, 33.9254187 ] } },
{ "type": "Feature", "properties": { "内容": "小規模多機能ホーム・トータルケア今井【小規模多機能型居宅介護】西条市丹原町今井155－I", "url": "https://www.kaigokensaku.mhlw.go.jp/38/index.php?action_kouhyou_detail_004_kani=true&JigyosyoCd=3890600129-00&ServiceCd=730&Type=search", "url2": null }, "geometry": { "type": "Point", "coordinates": [ 133.055325700000026, 33.9008678 ] } },
{ "type": "Feature", "properties": { "内容": "セントケア西条朔日市【小規模多機能型居宅介護】愛媛県西条朔日市78-7", "url": "https://www.kaigokensaku.mhlw.go.jp/38/index.php?action_kouhyou_detail_004_kani=true&JigyosyoCd=3890600228-00&ServiceCd=730&Type=search", "url2": null }, "geometry": { "type": "Point", "coordinates": [ 133.191124599999966, 33.9235188 ] } },
{ "type": "Feature", "properties": { "内容": "小規模多機能型居宅介護　芳苑【小規模多機能型居宅介護】愛媛県西条市三芳1254番地1", "url": "https://www.kaigokensaku.mhlw.go.jp/38/index.php?action_kouhyou_detail_004_kani=true&JigyosyoCd=3890600236-00&ServiceCd=730&Type=search", "url2": "http://kitenkai.or.jp" }, "geometry": { "type": "Point", "coordinates": [ 133.057576417922974, 33.950266481286683 ] } },
{ "type": "Feature", "properties": { "内容": "エンジョイライフ玉之江【小規模多機能型居宅介護】愛媛県西条市玉之江317番地", "url": "https://www.kaigokensaku.mhlw.go.jp/38/index.php?action_kouhyou_detail_004_kani=true&JigyosyoCd=3890600277-00&ServiceCd=730&Type=search", "url2": "hhttps://www.enjoylefe.jp" }, "geometry": { "type": "Point", "coordinates": [ 133.102736729347043, 33.910353598070181 ] } },
{ "type": "Feature", "properties": { "内容": "小規模多機能ホーム　ケアたまご【小規模多機能型居宅介護】愛媛県西条市禎瑞884-2", "url": "https://www.kaigokensaku.mhlw.go.jp/38/index.php?action_kouhyou_detail_004_kani=true&JigyosyoCd=3890600293-00&ServiceCd=730&Type=search", "url2": "https://www.caretamago.com" }, "geometry": { "type": "Point", "coordinates": [ 133.148361695715636, 33.915655787667163 ] } },
{ "type": "Feature", "properties": { "内容": "JAえひめ未来小規模多機能型居宅介護事業所武丈の里【小規模多機能型居宅介護】愛媛県西条市大町980番地4", "url": "https://www.kaigokensaku.mhlw.go.jp/38/index.php?action_kouhyou_detail_004_kani=true&JigyosyoCd=3890600301-00&ServiceCd=730&Type=search", "url2": "http://www.ja-ehimemirai.or.jp" }, "geometry": { "type": "Point", "coordinates": [ 133.190410140258763, 33.908852418343415 ] } },
{ "type": "Feature", "properties": { "内容": "小規模多機能ホームサテライト福うさぎ【小規模多機能型居宅介護】愛媛県西条市楢木244-2サンワタチバナ101号室", "url": "https://www.kaigokensaku.mhlw.go.jp/38/index.php?action_kouhyou_detail_004_kani=true&JigyosyoCd=3890600459-00&ServiceCd=730&Type=search", "url2": "https://www.caretamago.com/" }, "geometry": { "type": "Point", "coordinates": [ 133.142635640475476, 33.894836114519144 ] } },
{ "type": "Feature", "properties": { "内容": "小規模多機能型居宅介護施設あゆみ【小規模多機能型居宅介護】愛媛県西条市河原津甲503番地1", "url": "https://www.kaigokensaku.mhlw.go.jp/38/index.php?action_kouhyou_detail_004_kani=true&JigyosyoCd=3890600160-00&ServiceCd=730&Type=search", "url2": null }, "geometry": { "type": "Point", "coordinates": [ 133.067047799999955, 33.9670556 ] } },
{ "type": "Feature", "properties": { "内容": "小規模多機能型居宅介護　亀の郷【小規模多機能型居宅介護】愛媛県大洲市松尾465番地1", "url": "https://www.kaigokensaku.mhlw.go.jp/38/index.php?action_kouhyou_detail_004_kani=true&JigyosyoCd=3890700044-00&ServiceCd=730&Type=search", "url2": "https://www.enjoylife-care.jp/" }, "geometry": { "type": "Point", "coordinates": [ 132.546442613988319, 33.491713011193731 ] } },
{ "type": "Feature", "properties": { "内容": "小規模多機能型居宅介護　亀の郷2番館【小規模多機能型居宅介護】愛媛県大洲市北只88-28", "url": "https://www.kaigokensaku.mhlw.go.jp/38/index.php?action_kouhyou_detail_004_kani=true&JigyosyoCd=3890700150-00&ServiceCd=730&Type=search", "url2": "https://www.enjoylife-care.jp/" }, "geometry": { "type": "Point", "coordinates": [ 132.54555176655785, 33.492276286442433 ] } },
{ "type": "Feature", "properties": { "内容": "小規模多機能ホーム　スマイルごしき【小規模多機能型居宅介護】愛媛県伊予市米湊736番地5", "url": "https://www.kaigokensaku.mhlw.go.jp/38/index.php?action_kouhyou_detail_004_kani=true&JigyosyoCd=3891000089-00&ServiceCd=730&Type=search", "url2": null }, "geometry": { "type": "Point", "coordinates": [ 132.7044219, 33.7578989 ] } },
{ "type": "Feature", "properties": { "内容": "あんこ【小規模多機能型居宅介護】愛媛県伊予市大平字片山甲228番地", "url": "https://www.kaigokensaku.mhlw.go.jp/38/index.php?action_kouhyou_detail_004_kani=true&JigyosyoCd=3891000121-00&ServiceCd=730&Type=search", "url2": null }, "geometry": { "type": "Point", "coordinates": [ 132.703443702439415, 33.727298845722203 ] } },
{ "type": "Feature", "properties": { "内容": "小規模多機能型居宅介護山田井の郷【小規模多機能型居宅介護】愛媛県四国中央市金生町山田井原際887番地の2", "url": "https://www.kaigokensaku.mhlw.go.jp/38/index.php?action_kouhyou_detail_004_kani=true&JigyosyoCd=3891300158-00&ServiceCd=730&Type=search", "url2": "http://www.aibikai.jp/" }, "geometry": { "type": "Point", "coordinates": [ 133.594170180761694, 34.009402796055454 ] } },
{ "type": "Feature", "properties": { "内容": "ケアHOMEピース【小規模多機能型居宅介護】愛媛県四国中央市上分町408番地1", "url": "https://www.kaigokensaku.mhlw.go.jp/38/index.php?action_kouhyou_detail_004_kani=true&JigyosyoCd=3891300356-00&ServiceCd=730&Type=search", "url2": "https://kenkou-kai.jp/" }, "geometry": { "type": "Point", "coordinates": [ 133.5819723, 33.9932947 ] } },
{ "type": "Feature", "properties": { "内容": "さくら倶楽部【小規模多機能型居宅介護】愛媛県東温市志津川89番地3", "url": "https://www.kaigokensaku.mhlw.go.jp/38/index.php?action_kouhyou_detail_004_kani=true&JigyosyoCd=3891500013-00&ServiceCd=730&Type=search", "url2": null }, "geometry": { "type": "Point", "coordinates": [ 132.880026, 33.8068971 ] } },
{ "type": "Feature", "properties": { "内容": "小規模多機能センターたのくぼ【小規模多機能型居宅介護】愛媛県東温市田窪９１７番地１", "url": "https://www.kaigokensaku.mhlw.go.jp/38/index.php?action_kouhyou_detail_004_kani=true&JigyosyoCd=3891500062-00&ServiceCd=730&Type=search", "url2": "http://www14.ocn.ne.jp/~iyo.m/" }, "geometry": { "type": "Point", "coordinates": [ 132.853725599999962, 33.7868487 ] } },
{ "type": "Feature", "properties": { "内容": "小規模多機能ホームふくふくの会わくわく【小規模多機能型居宅介護】愛媛県越智郡上島町弓削下弓削1028-1", "url": "https://www.kaigokensaku.mhlw.go.jp/38/index.php?action_kouhyou_detail_004_kani=true&JigyosyoCd=3893200018-00&ServiceCd=730&Type=search", "url2": "http://fukufukunokai.com/" }, "geometry": { "type": "Point", "coordinates": [ 133.200132732379842, 34.260923391651254 ] } },
{ "type": "Feature", "properties": { "内容": "小規模多機能ホームふくふくの会ふくふく【小規模多機能型居宅介護】愛媛県越智郡上島町弓削上弓削3", "url": "https://www.kaigokensaku.mhlw.go.jp/38/index.php?action_kouhyou_detail_004_kani=true&JigyosyoCd=3893200026-00&ServiceCd=730&Type=search", "url2": "http://fukufukunokai.com/" }, "geometry": { "type": "Point", "coordinates": [ 133.212575499999957, 34.2836824 ] } },
{ "type": "Feature", "properties": { "内容": "小規模多機能ホーム・メサイア【小規模多機能型居宅介護】愛媛県上浮穴郡久万高原町上野尻甲５３５番地", "url": "https://www.kaigokensaku.mhlw.go.jp/38/index.php?action_kouhyou_detail_004_kani=true&JigyosyoCd=3893400030-00&ServiceCd=730&Type=search", "url2": "http://care-net.biz/38/jesus/" }, "geometry": { "type": "Point", "coordinates": [ 132.906024113600097, 33.648567705845593 ] } },
{ "type": "Feature", "properties": { "内容": "小規模多機能ひまわりのたね【小規模多機能型居宅介護】愛媛県伊予郡松前町昌農内347-1", "url": "https://www.kaigokensaku.mhlw.go.jp/38/index.php?action_kouhyou_detail_004_kani=true&JigyosyoCd=3893500086-00&ServiceCd=730&Type=search", "url2": null }, "geometry": { "type": "Point", "coordinates": [ 132.723240199999964, 33.8004691 ] } },
{ "type": "Feature", "properties": { "内容": "小規模多機能ホームあったか【小規模多機能型居宅介護】愛媛県伊予郡砥部町高尾田1171-3", "url": "https://www.kaigokensaku.mhlw.go.jp/38/index.php?action_kouhyou_detail_004_kani=true&JigyosyoCd=3893500045-00&ServiceCd=730&Type=search", "url2": "https://tobe-k.com" }, "geometry": { "type": "Point", "coordinates": [ 132.796186400000011, 33.7771483 ] } },
{ "type": "Feature", "properties": { "内容": "小規模多機能ホーム砥部オレンジ荘【小規模多機能型居宅介護】愛媛県伊予郡砥部町大南2267番地", "url": "https://www.kaigokensaku.mhlw.go.jp/38/index.php?action_kouhyou_detail_004_kani=true&JigyosyoCd=3893500151-00&ServiceCd=730&Type=search", "url2": "https://tobe-k.com" }, "geometry": { "type": "Point", "coordinates": [ 132.7928499, 33.7296273 ] } },
{ "type": "Feature", "properties": { "内容": "やまの里　たまたに【小規模多機能型居宅介護】愛媛県伊予郡砥部町玉谷670番地1", "url": "https://www.kaigokensaku.mhlw.go.jp/38/index.php?action_kouhyou_detail_004_kani=true&JigyosyoCd=3893500169-00&ServiceCd=730&Type=search", "url2": "https://koujyukai-hirota.com/" }, "geometry": { "type": "Point", "coordinates": [ 132.794879774204986, 33.664845536307766 ] } },
{ "type": "Feature", "properties": { "内容": "小規模多機能型居宅介護事業所さくら【小規模多機能型居宅介護】愛媛県喜多郡内子町内子４２７１番地１０", "url": "https://www.kaigokensaku.mhlw.go.jp/38/index.php?action_kouhyou_detail_004_kani=true&JigyosyoCd=3893600050-00&ServiceCd=730&Type=search", "url2": null }, "geometry": { "type": "Point", "coordinates": [ 132.644193399999949, 33.555332300000011 ] } },
{ "type": "Feature", "properties": { "内容": "小規模多機能ホーム　虹の森【小規模多機能型居宅介護】愛媛県北宇和郡松野町大字松丸548番地１", "url": "https://www.kaigokensaku.mhlw.go.jp/38/index.php?action_kouhyou_detail_004_kani=true&JigyosyoCd=3893900039-00&ServiceCd=730&Type=search", "url2": null }, "geometry": { "type": "Point", "coordinates": [ 132.7127901, 33.2238398 ] } },
{ "type": "Feature", "properties": { "内容": "小規模多機能型居宅介護事業所あおぞら【小規模多機能型居宅介護】愛媛県北宇和郡鬼北町大字興野々１２５１番地", "url": "https://www.kaigokensaku.mhlw.go.jp/38/index.php?action_kouhyou_detail_004_kani=true&JigyosyoCd=3893900013-00&ServiceCd=730&Type=search", "url2": "http://careplazaaozora.community.officelive.com/aboutus.aspx" }, "geometry": { "type": "Point", "coordinates": [ 132.7154842, 33.2503478 ] } },
{ "type": "Feature", "properties": { "内容": "小規模多機能型居宅介護事業所ほのぼの【小規模多機能型居宅介護】愛媛県北宇和郡鬼北町大字永野市433番地1", "url": "https://www.kaigokensaku.mhlw.go.jp/38/index.php?action_kouhyou_detail_004_kani=true&JigyosyoCd=3893900054-00&ServiceCd=730&Type=search", "url2": null }, "geometry": { "type": "Point", "coordinates": [ 132.6823733, 33.251174500000019 ] } },
{ "type": "Feature", "properties": { "内容": "小規模多機能型居宅介護事業所ほほえみ【小規模多機能型居宅介護】愛媛県南宇和郡愛南町久家691", "url": "https://www.kaigokensaku.mhlw.go.jp/38/index.php?action_kouhyou_detail_004_kani=true&JigyosyoCd=3894000060-00&ServiceCd=730&Type=search", "url2": null }, "geometry": { "type": "Point", "coordinates": [ 132.504308400000014, 32.9405952 ] } }
]
}
