{
"type": "FeatureCollection",
"name": "geo_38_特定福祉用具販売",
"crs": { "type": "name", "properties": { "name": "urn:ogc:def:crs:OGC:1.3:CRS84" } },
"features": [
{ "type": "Feature", "properties": { "内容": "ニチイケアセンターたかのこ【特定福祉用具販売】愛媛県松山市南久米町145-1竹之井ﾋﾞﾙ106号", "url": "https://www.kaigokensaku.mhlw.go.jp/38/index.php?action_kouhyou_detail_004_kani=true&JigyosyoCd=3870101130-00&ServiceCd=410&Type=search", "url2": "www.nichiigakkan.co.jp" }, "geometry": { "type": "Point", "coordinates": [ 132.805267871685828, 33.816714483619386 ] } },
{ "type": "Feature", "properties": { "内容": "あい・愛ワーク【特定福祉用具販売】愛媛県松山市東垣生町282-2", "url": "https://www.kaigokensaku.mhlw.go.jp/38/index.php?action_kouhyou_detail_004_kani=true&JigyosyoCd=3870103524-00&ServiceCd=410&Type=search", "url2": null }, "geometry": { "type": "Point", "coordinates": [ 132.708594700000049, 33.8113564 ] } },
{ "type": "Feature", "properties": { "内容": "福祉用具貸与販売事業所　ファミリーケア【特定福祉用具販売】愛媛県松山市西垣生町1184-5ファミリーケア智温苑１Ｆ事務所内", "url": "https://www.kaigokensaku.mhlw.go.jp/38/index.php?action_kouhyou_detail_004_kani=true&JigyosyoCd=3870109075-00&ServiceCd=410&Type=search", "url2": "http://familycare.co.jp" }, "geometry": { "type": "Point", "coordinates": [ 132.703823, 33.8149531 ] } },
{ "type": "Feature", "properties": { "内容": "クリアーズ福祉用具貸与事業所【特定福祉用具販売】愛媛県松山市空港通1丁目8-28", "url": "https://www.kaigokensaku.mhlw.go.jp/38/index.php?action_kouhyou_detail_004_kani=true&JigyosyoCd=3870112301-00&ServiceCd=410&Type=search", "url2": "http://www.clears.life/" }, "geometry": { "type": "Point", "coordinates": [ 132.749443499999984, 33.8282971 ] } },
{ "type": "Feature", "properties": { "内容": "合資会社テクノエイドみらい福祉用具貸与事業所【特定福祉用具販売】愛媛県松山市吉藤５丁目２０－２９", "url": "https://www.kaigokensaku.mhlw.go.jp/38/index.php?action_kouhyou_detail_004_kani=true&JigyosyoCd=3870102765-00&ServiceCd=410&Type=search", "url2": null }, "geometry": { "type": "Point", "coordinates": [ 132.760568112966894, 33.873840848062642 ] } },
{ "type": "Feature", "properties": { "内容": "アゲイン福祉用具貸与事業所【特定福祉用具販売】愛媛県松山市天山１丁目8-11", "url": "https://www.kaigokensaku.mhlw.go.jp/38/index.php?action_kouhyou_detail_004_kani=true&JigyosyoCd=3870113614-00&ServiceCd=410&Type=search", "url2": null }, "geometry": { "type": "Point", "coordinates": [ 132.779921800000011, 33.8224465 ] } },
{ "type": "Feature", "properties": { "内容": "四国医療サービス株式会社福祉事業部愛媛本部【特定福祉用具販売】愛媛県松山市久米窪田町425番地8-1", "url": "https://www.kaigokensaku.mhlw.go.jp/38/index.php?action_kouhyou_detail_004_kani=true&JigyosyoCd=3870100793-00&ServiceCd=410&Type=search", "url2": "http://www.shikoku-ms.jp/index.html" }, "geometry": { "type": "Point", "coordinates": [ 132.8075298, 33.8042873 ] } },
{ "type": "Feature", "properties": { "内容": "株式会社アストあっぷるケアサービス【特定福祉用具販売】愛媛県松山市朝生田町4丁目8-2", "url": "https://www.kaigokensaku.mhlw.go.jp/38/index.php?action_kouhyou_detail_004_kani=true&JigyosyoCd=3870101270-00&ServiceCd=410&Type=search", "url2": null }, "geometry": { "type": "Point", "coordinates": [ 132.763795100000038, 33.8238064 ] } },
{ "type": "Feature", "properties": { "内容": "西日本商事株式会社【特定福祉用具販売】愛媛県松山市久万ノ台1195番地", "url": "https://www.kaigokensaku.mhlw.go.jp/38/index.php?action_kouhyou_detail_004_kani=true&JigyosyoCd=3870101437-00&ServiceCd=410&Type=search", "url2": "http://www" }, "geometry": { "type": "Point", "coordinates": [ 132.743077200000016, 33.856238 ] } },
{ "type": "Feature", "properties": { "内容": "ベストケア株式会社福祉用具貸与事業所【特定福祉用具販売】愛媛県松山市山越５丁目９番６号", "url": "https://www.kaigokensaku.mhlw.go.jp/38/index.php?action_kouhyou_detail_004_kani=true&JigyosyoCd=3870102393-00&ServiceCd=410&Type=search", "url2": "http://www.best-care.jp/" }, "geometry": { "type": "Point", "coordinates": [ 132.7505655, 33.859749 ] } },
{ "type": "Feature", "properties": { "内容": "フランスベッド株式会社　メディカル松山営業所【特定福祉用具販売】愛媛県松山市和泉北1-5-20", "url": "https://www.kaigokensaku.mhlw.go.jp/38/index.php?action_kouhyou_detail_004_kani=true&JigyosyoCd=3870107244-00&ServiceCd=410&Type=search", "url2": "http://www.francebed.co.jp/" }, "geometry": { "type": "Point", "coordinates": [ 132.757568, 33.8229369 ] } },
{ "type": "Feature", "properties": { "内容": "株式会社ケアサポートＫ２【特定福祉用具販売】愛媛県松山市堀江町甲766-23", "url": "https://www.kaigokensaku.mhlw.go.jp/38/index.php?action_kouhyou_detail_004_kani=true&JigyosyoCd=3870107806-00&ServiceCd=410&Type=search", "url2": null }, "geometry": { "type": "Point", "coordinates": [ 132.741167840019983, 33.901727124822536 ] } },
{ "type": "Feature", "properties": { "内容": "株式会社トーカイ松山営業所【特定福祉用具販売】愛媛県松山市南久米町110", "url": "https://www.kaigokensaku.mhlw.go.jp/38/index.php?action_kouhyou_detail_004_kani=true&JigyosyoCd=3870108606-00&ServiceCd=410&Type=search", "url2": "http://www.tokai-corp.com/" }, "geometry": { "type": "Point", "coordinates": [ 132.801049599999942, 33.8190191 ] } },
{ "type": "Feature", "properties": { "内容": "いよ福祉用具サービス【特定福祉用具販売】保免西二丁目１－２伊予保免ビル", "url": "https://www.kaigokensaku.mhlw.go.jp/38/index.php?action_kouhyou_detail_004_kani=true&JigyosyoCd=3870108846-00&ServiceCd=410&Type=search", "url2": "http://www.iyohp.jp/" }, "geometry": { "type": "Point", "coordinates": [ 132.741387, 33.8148979 ] } },
{ "type": "Feature", "properties": { "内容": "株式会社ライフケア松山支店【特定福祉用具販売】愛媛県松山市北吉田町1019-2", "url": "https://www.kaigokensaku.mhlw.go.jp/38/index.php?action_kouhyou_detail_004_kani=true&JigyosyoCd=3870109380-00&ServiceCd=410&Type=search", "url2": "http://www.kawanishi-md.co.jp" }, "geometry": { "type": "Point", "coordinates": [ 132.708761055017021, 33.833820351245976 ] } },
{ "type": "Feature", "properties": { "内容": "指定福祉用具貸与事業所安信【特定福祉用具販売】愛媛県松山市桑原3丁目1-47", "url": "https://www.kaigokensaku.mhlw.go.jp/38/index.php?action_kouhyou_detail_004_kani=true&JigyosyoCd=3870110073-00&ServiceCd=410&Type=search", "url2": "m-anshin.com" }, "geometry": { "type": "Point", "coordinates": [ 132.7976247, 33.832195 ] } },
{ "type": "Feature", "properties": { "内容": "株式会社イーケア【特定福祉用具販売】愛媛県松山市福音寺町236番地10シャルマンコーポ福音寺104号", "url": "https://www.kaigokensaku.mhlw.go.jp/38/index.php?action_kouhyou_detail_004_kani=true&JigyosyoCd=3870110339-00&ServiceCd=410&Type=search", "url2": "https://ecare-ehime.com/" }, "geometry": { "type": "Point", "coordinates": [ 132.79353867232507, 33.822553575210563 ] } },
{ "type": "Feature", "properties": { "内容": "介護支援ショップ松山　三泰商事株式会社【特定福祉用具販売】愛媛県松山市喜与町２丁目５－６ハイツ楡の森２Ｆ", "url": "https://www.kaigokensaku.mhlw.go.jp/38/index.php?action_kouhyou_detail_004_kani=true&JigyosyoCd=3870110933-00&ServiceCd=410&Type=search", "url2": "www.santaisyoji.com/gaiyoh.html" }, "geometry": { "type": "Point", "coordinates": [ 132.772430200000031, 33.8443876 ] } },
{ "type": "Feature", "properties": { "内容": "有限会社戸田医療器　福祉事業部　ぷく【特定福祉用具販売】愛媛県松山市北梅本740-1", "url": "https://www.kaigokensaku.mhlw.go.jp/38/index.php?action_kouhyou_detail_004_kani=true&JigyosyoCd=3870110982-00&ServiceCd=410&Type=search", "url2": null }, "geometry": { "type": "Point", "coordinates": [ 132.837419793007058, 33.806051254863995 ] } },
{ "type": "Feature", "properties": { "内容": "株式会社トモエヤ商事【特定福祉用具販売】愛媛県松山市古川北３丁目１８番１２号", "url": "https://www.kaigokensaku.mhlw.go.jp/38/index.php?action_kouhyou_detail_004_kani=true&JigyosyoCd=3870111402-00&ServiceCd=410&Type=search", "url2": "http://tomoeyasyoji.com/" }, "geometry": { "type": "Point", "coordinates": [ 132.76094020000005, 33.8107496 ] } },
{ "type": "Feature", "properties": { "内容": "アポロメディカルジャパン合同会社【特定福祉用具販売】愛媛県松山市小栗六丁目8-32", "url": "https://www.kaigokensaku.mhlw.go.jp/38/index.php?action_kouhyou_detail_004_kani=true&JigyosyoCd=3870111477-00&ServiceCd=410&Type=search", "url2": "http://apollomj.wixsite.com/amjllc" }, "geometry": { "type": "Point", "coordinates": [ 132.756779, 33.8277252 ] } },
{ "type": "Feature", "properties": { "内容": "福祉用具貸与事業所アイルズ【特定福祉用具販売】愛媛県松山市余戸南1丁目8-8", "url": "https://www.kaigokensaku.mhlw.go.jp/38/index.php?action_kouhyou_detail_004_kani=true&JigyosyoCd=3870111840-00&ServiceCd=410&Type=search", "url2": "http://aylu-s.com/" }, "geometry": { "type": "Point", "coordinates": [ 132.7398793701324, 33.810877798422389 ] } },
{ "type": "Feature", "properties": { "内容": "指定福祉用具事業所わんらいふ【特定福祉用具販売】畑寺２丁目４番５１号", "url": "https://www.kaigokensaku.mhlw.go.jp/38/index.php?action_kouhyou_detail_004_kani=true&JigyosyoCd=3870112558-00&ServiceCd=410&Type=search", "url2": "http://hp.kaipoke.biz/39v/" }, "geometry": { "type": "Point", "coordinates": [ 132.797558, 33.8300567 ] } },
{ "type": "Feature", "properties": { "内容": "福祉用具事業所すまいる【特定福祉用具販売】愛媛県松山市空港通二丁目13番8号", "url": "https://www.kaigokensaku.mhlw.go.jp/38/index.php?action_kouhyou_detail_004_kani=true&JigyosyoCd=3870112640-00&ServiceCd=410&Type=search", "url2": null }, "geometry": { "type": "Point", "coordinates": [ 132.7409204, 33.8289859 ] } },
{ "type": "Feature", "properties": { "内容": "(株)フロンティア松山中央営業所【特定福祉用具販売】愛媛県松山市来住町1180-1", "url": "https://www.kaigokensaku.mhlw.go.jp/38/index.php?action_kouhyou_detail_004_kani=true&JigyosyoCd=3870113309-00&ServiceCd=410&Type=search", "url2": null }, "geometry": { "type": "Point", "coordinates": [ 132.796995031779034, 33.807954570524323 ] } },
{ "type": "Feature", "properties": { "内容": "かぐや【特定福祉用具販売】愛媛県松山市中島大浦830番地", "url": "https://www.kaigokensaku.mhlw.go.jp/38/index.php?action_kouhyou_detail_004_kani=true&JigyosyoCd=3873300317-00&ServiceCd=410&Type=search", "url2": null }, "geometry": { "type": "Point", "coordinates": [ 132.630449499999941, 33.9774326 ] } },
{ "type": "Feature", "properties": { "内容": "株式会社　曽我商会【特定福祉用具販売】愛媛県松山市余戸南一丁目20番28号", "url": "https://www.kaigokensaku.mhlw.go.jp/38/index.php?action_kouhyou_detail_004_kani=true&JigyosyoCd=3870100835-00&ServiceCd=410&Type=search", "url2": "http://www.sogasyoukai.com" }, "geometry": { "type": "Point", "coordinates": [ 132.736794799999984, 33.812209800000026 ] } },
{ "type": "Feature", "properties": { "内容": "株式会社　アトム商事【特定福祉用具販売】愛媛県松山市天山二丁目5番5号", "url": "https://www.kaigokensaku.mhlw.go.jp/38/index.php?action_kouhyou_detail_004_kani=true&JigyosyoCd=3870105305-00&ServiceCd=410&Type=search", "url2": "https://www.atomgroup.jp/" }, "geometry": { "type": "Point", "coordinates": [ 132.777741002516194, 33.819272028775018 ] } },
{ "type": "Feature", "properties": { "内容": "じゅらく【特定福祉用具販売】愛媛県松山市山越6丁目16番17号", "url": "https://www.kaigokensaku.mhlw.go.jp/38/index.php?action_kouhyou_detail_004_kani=true&JigyosyoCd=3870105560-00&ServiceCd=410&Type=search", "url2": null }, "geometry": { "type": "Point", "coordinates": [ 132.749930523389821, 33.858414833435567 ] } },
{ "type": "Feature", "properties": { "内容": "株式会社　繭【特定福祉用具販売】愛媛県松山市須賀町5-27", "url": "https://www.kaigokensaku.mhlw.go.jp/38/index.php?action_kouhyou_detail_004_kani=true&JigyosyoCd=3870108101-00&ServiceCd=410&Type=search", "url2": null }, "geometry": { "type": "Point", "coordinates": [ 132.714513500000066, 33.8584091 ] } },
{ "type": "Feature", "properties": { "内容": "株式会社悠遊社福祉用具貸与・販売事業所【特定福祉用具販売】愛媛県松山市立花１丁目１番２６号", "url": "https://www.kaigokensaku.mhlw.go.jp/38/index.php?action_kouhyou_detail_004_kani=true&JigyosyoCd=3870113606-00&ServiceCd=410&Type=search", "url2": "http:/www.yuyusya.co.jp/" }, "geometry": { "type": "Point", "coordinates": [ 132.761540700000012, 33.804522899999981 ] } },
{ "type": "Feature", "properties": { "内容": "福祉用具貸与事業所シー・エル・イー【特定福祉用具販売】愛媛県松山市西石井一丁目１番５号", "url": "https://www.kaigokensaku.mhlw.go.jp/38/index.php?action_kouhyou_detail_004_kani=true&JigyosyoCd=3870108457-00&ServiceCd=410&Type=search", "url2": "http://care-life-energy.ｊｐ/" }, "geometry": { "type": "Point", "coordinates": [ 132.774316399999947, 33.8159688 ] } },
{ "type": "Feature", "properties": { "内容": "ダスキンヘルスレント愛媛中予ステーション【特定福祉用具販売】愛媛県松山市東野５丁目４－２", "url": "https://www.kaigokensaku.mhlw.go.jp/38/index.php?action_kouhyou_detail_004_kani=true&JigyosyoCd=3870109299-00&ServiceCd=410&Type=search", "url2": "http://healthrent.duskin.jp" }, "geometry": { "type": "Point", "coordinates": [ 132.799049364723942, 33.838848147336151 ] } },
{ "type": "Feature", "properties": { "内容": "株式会社よんやく【特定福祉用具販売】愛媛県松山市南高井町1828番地", "url": "https://www.kaigokensaku.mhlw.go.jp/38/index.php?action_kouhyou_detail_004_kani=true&JigyosyoCd=3870112103-00&ServiceCd=410&Type=search", "url2": null }, "geometry": { "type": "Point", "coordinates": [ 132.801152600000023, 33.7913331 ] } },
{ "type": "Feature", "properties": { "内容": "株式会社フロンティア松山営業所【特定福祉用具販売】愛媛県松山市大可賀１－３－６", "url": "https://www.kaigokensaku.mhlw.go.jp/38/index.php?action_kouhyou_detail_004_kani=true&JigyosyoCd=3870109281-00&ServiceCd=410&Type=search", "url2": "http://www.frontier-ph.com/homecare/" }, "geometry": { "type": "Point", "coordinates": [ 132.71353309999995, 33.8540013 ] } },
{ "type": "Feature", "properties": { "内容": "株式会社キュート　福祉用具事業所【特定福祉用具販売】北日吉町3丁目2番4号", "url": "https://www.kaigokensaku.mhlw.go.jp/38/index.php?action_kouhyou_detail_004_kani=true&JigyosyoCd=3870202391-00&ServiceCd=410&Type=search", "url2": null }, "geometry": { "type": "Point", "coordinates": [ 132.986418304644445, 34.058290638692959 ] } },
{ "type": "Feature", "properties": { "内容": "介護機器のイトウ株式会社【特定福祉用具販売】愛媛県今治市蒼社町2-2-3", "url": "https://www.kaigokensaku.mhlw.go.jp/38/index.php?action_kouhyou_detail_004_kani=true&JigyosyoCd=3870200015-00&ServiceCd=410&Type=search", "url2": "kiki-ito@orion.ocn.ne.jp" }, "geometry": { "type": "Point", "coordinates": [ 132.99555330000004, 34.0544527 ] } },
{ "type": "Feature", "properties": { "内容": "有限会社東予医療器商会【特定福祉用具販売】愛媛県今治市立花町2丁目4-12", "url": "https://www.kaigokensaku.mhlw.go.jp/38/index.php?action_kouhyou_detail_004_kani=true&JigyosyoCd=3870200148-00&ServiceCd=410&Type=search", "url2": "https://touyoiryo.jp/" }, "geometry": { "type": "Point", "coordinates": [ 133.000284400000027, 34.0519471 ] } },
{ "type": "Feature", "properties": { "内容": "今治市社協介護サービスセンター【特定福祉用具販売】愛媛県今治市南宝来町1-9-8今治市総合福祉センター", "url": "https://www.kaigokensaku.mhlw.go.jp/38/index.php?action_kouhyou_detail_004_kani=true&JigyosyoCd=3870200981-00&ServiceCd=410&Type=search", "url2": "http://www.imabari-shakyo.jp" }, "geometry": { "type": "Point", "coordinates": [ 132.998018199999933, 34.0601487 ] } },
{ "type": "Feature", "properties": { "内容": "西日本商事株式会社　今治営業所【特定福祉用具販売】愛媛県今治市北鳥生町4丁目3-501-1", "url": "https://www.kaigokensaku.mhlw.go.jp/38/index.php?action_kouhyou_detail_004_kani=true&JigyosyoCd=3870201427-00&ServiceCd=410&Type=search", "url2": null }, "geometry": { "type": "Point", "coordinates": [ 133.005966450831551, 34.051579376724717 ] } },
{ "type": "Feature", "properties": { "内容": "福祉事業部　テクノハート【特定福祉用具販売】愛媛県今治市東村4丁目甲412番2", "url": "https://www.kaigokensaku.mhlw.go.jp/38/index.php?action_kouhyou_detail_004_kani=true&JigyosyoCd=3870201484-00&ServiceCd=410&Type=search", "url2": null }, "geometry": { "type": "Point", "coordinates": [ 133.027182826725067, 34.038588222261595 ] } },
{ "type": "Feature", "properties": { "内容": "ダスキンヘルスレント愛媛東ステーション【特定福祉用具販売】今治市小泉5丁目12-22", "url": "https://www.kaigokensaku.mhlw.go.jp/38/index.php?action_kouhyou_detail_004_kani=true&JigyosyoCd=3870201799-00&ServiceCd=410&Type=search", "url2": "http://healthrent.duskin.jp/" }, "geometry": { "type": "Point", "coordinates": [ 132.983336099999974, 34.0472332 ] } },
{ "type": "Feature", "properties": { "内容": "有限会社ころばぬ先【特定福祉用具販売】愛媛県今治市伯方町北浦甲1400", "url": "https://www.kaigokensaku.mhlw.go.jp/38/index.php?action_kouhyou_detail_004_kani=true&JigyosyoCd=3873200665-00&ServiceCd=410&Type=search", "url2": null }, "geometry": { "type": "Point", "coordinates": [ 133.097708830410767, 34.229437915705404 ] } },
{ "type": "Feature", "properties": { "内容": "株式会社家具のヨコタ【特定福祉用具販売】愛媛県今治市阿方甲265番地", "url": "https://www.kaigokensaku.mhlw.go.jp/38/index.php?action_kouhyou_detail_004_kani=true&JigyosyoCd=3870201955-00&ServiceCd=410&Type=search", "url2": null }, "geometry": { "type": "Point", "coordinates": [ 132.967335520407119, 34.06219263305298 ] } },
{ "type": "Feature", "properties": { "内容": "株式会社トーカイ　今治営業所【特定福祉用具販売】今治市東村南2丁目2-13", "url": "https://www.kaigokensaku.mhlw.go.jp/38/index.php?action_kouhyou_detail_004_kani=true&JigyosyoCd=3870201906-00&ServiceCd=410&Type=search", "url2": "http://www.tokai-corp.com/" }, "geometry": { "type": "Point", "coordinates": [ 133.029922400000032, 34.0351921 ] } },
{ "type": "Feature", "properties": { "内容": "ケアセンター宇和島【特定福祉用具販売】愛媛県宇和島市丸之内2-1-7", "url": "https://www.kaigokensaku.mhlw.go.jp/38/index.php?action_kouhyou_detail_004_kani=true&JigyosyoCd=3870300153-00&ServiceCd=410&Type=search", "url2": "http://cc-uwajima.jp" }, "geometry": { "type": "Point", "coordinates": [ 132.565107, 33.2170466 ] } },
{ "type": "Feature", "properties": { "内容": "四国医療サービス株式会社宇和島営業所【特定福祉用具販売】愛媛県宇和島市高串3番耕地59番4", "url": "https://www.kaigokensaku.mhlw.go.jp/38/index.php?action_kouhyou_detail_004_kani=true&JigyosyoCd=3870300260-00&ServiceCd=410&Type=search", "url2": "http://www.shikoku-ms.jp" }, "geometry": { "type": "Point", "coordinates": [ 132.571420399999965, 33.2443966 ] } },
{ "type": "Feature", "properties": { "内容": "株式会社丸三【特定福祉用具販売】愛媛県宇和島市中央町2丁目3-22", "url": "https://www.kaigokensaku.mhlw.go.jp/38/index.php?action_kouhyou_detail_004_kani=true&JigyosyoCd=3870300534-00&ServiceCd=410&Type=search", "url2": "http://marusankagu.com/kaigo/index.html" }, "geometry": { "type": "Point", "coordinates": [ 132.56744290000006, 33.222085 ] } },
{ "type": "Feature", "properties": { "内容": "有限会社南予医科学器械販売【特定福祉用具販売】愛媛県宇和島市宮下甲1305番地", "url": "https://www.kaigokensaku.mhlw.go.jp/38/index.php?action_kouhyou_detail_004_kani=true&JigyosyoCd=3870300237-00&ServiceCd=410&Type=search", "url2": null }, "geometry": { "type": "Point", "coordinates": [ 132.548300199999971, 33.2068999 ] } },
{ "type": "Feature", "properties": { "内容": "株式会社ヒューマンライフ【特定福祉用具販売】愛媛県宇和島市朝日町3丁目6番22号", "url": "https://www.kaigokensaku.mhlw.go.jp/38/index.php?action_kouhyou_detail_004_kani=true&JigyosyoCd=3870301110-00&ServiceCd=410&Type=search", "url2": "https://humanlife2007.wixsite.com/home" }, "geometry": { "type": "Point", "coordinates": [ 132.560531352114822, 33.227681317448074 ] } },
{ "type": "Feature", "properties": { "内容": "株式会社トーカイ　宇和島営業所【特定福祉用具販売】愛媛県宇和島市保手2丁目7番16号", "url": "https://www.kaigokensaku.mhlw.go.jp/38/index.php?action_kouhyou_detail_004_kani=true&JigyosyoCd=3870301581-00&ServiceCd=410&Type=search", "url2": "https://www.tokai-corp.com/" }, "geometry": { "type": "Point", "coordinates": [ 132.551324900000054, 33.2110718 ] } },
{ "type": "Feature", "properties": { "内容": "介護支援ショップ八幡浜三泰商事株式会社【特定福祉用具販売】愛媛県八幡浜市新町3丁目276番地1", "url": "https://www.kaigokensaku.mhlw.go.jp/38/index.php?action_kouhyou_detail_004_kani=true&JigyosyoCd=3870400110-00&ServiceCd=410&Type=search", "url2": "http://www.santaisyouji/com" }, "geometry": { "type": "Point", "coordinates": [ 132.424075099999953, 33.4615703 ] } },
{ "type": "Feature", "properties": { "内容": "有限会社アサノ設備　ケアサポートがいな【特定福祉用具販売】愛媛県八幡浜市保内町須川24-1", "url": "https://www.kaigokensaku.mhlw.go.jp/38/index.php?action_kouhyou_detail_004_kani=true&JigyosyoCd=3870400854-00&ServiceCd=410&Type=search", "url2": null }, "geometry": { "type": "Point", "coordinates": [ 132.414940652541617, 33.483923724267257 ] } },
{ "type": "Feature", "properties": { "内容": "株式会社土居商店　ゆうきりんりん【特定福祉用具販売】愛媛県八幡浜市天神通2丁目1526番地177", "url": "https://www.kaigokensaku.mhlw.go.jp/38/index.php?action_kouhyou_detail_004_kani=true&JigyosyoCd=3870401050-00&ServiceCd=410&Type=search", "url2": null }, "geometry": { "type": "Point", "coordinates": [ 132.4214148, 33.4590682 ] } },
{ "type": "Feature", "properties": { "内容": "快青　福祉事業部【特定福祉用具販売】愛媛県八幡浜市広瀬一丁目6番8号", "url": "https://www.kaigokensaku.mhlw.go.jp/38/index.php?action_kouhyou_detail_004_kani=true&JigyosyoCd=3870401035-00&ServiceCd=410&Type=search", "url2": null }, "geometry": { "type": "Point", "coordinates": [ 132.4262616, 33.4553986 ] } },
{ "type": "Feature", "properties": { "内容": "うららか福祉サービス株式会社【特定福祉用具販売】愛媛県新居浜市江口町1番48号", "url": "https://www.kaigokensaku.mhlw.go.jp/38/index.php?action_kouhyou_detail_004_kani=true&JigyosyoCd=3870500281-00&ServiceCd=410&Type=search", "url2": null }, "geometry": { "type": "Point", "coordinates": [ 133.273496099999988, 33.9586256 ] } },
{ "type": "Feature", "properties": { "内容": "四国医療サービス株式会社福祉事業部　新居浜営業所【特定福祉用具販売】愛媛県新居浜市阿島1丁目1番51号", "url": "https://www.kaigokensaku.mhlw.go.jp/38/index.php?action_kouhyou_detail_004_kani=true&JigyosyoCd=3870501172-00&ServiceCd=410&Type=search", "url2": "http://www.shikoku-ms.jp" }, "geometry": { "type": "Point", "coordinates": [ 133.352796200000057, 33.9771044 ] } },
{ "type": "Feature", "properties": { "内容": "株式会社　翼　愛媛営業所【特定福祉用具販売】愛媛県新居浜市中須賀町1-1-35", "url": "https://www.kaigokensaku.mhlw.go.jp/38/index.php?action_kouhyou_detail_004_kani=true&JigyosyoCd=3870501586-00&ServiceCd=410&Type=search", "url2": "http://www.kk-tsubasa.co.jp" }, "geometry": { "type": "Point", "coordinates": [ 133.274751061271701, 33.960031455179198 ] } },
{ "type": "Feature", "properties": { "内容": "株式会社　トーカイ　新居浜営業所【特定福祉用具販売】愛媛県新居浜市又野1丁目2番8号", "url": "https://www.kaigokensaku.mhlw.go.jp/38/index.php?action_kouhyou_detail_004_kani=true&JigyosyoCd=3870502261-00&ServiceCd=410&Type=search", "url2": "http://www.tokai-corp.com/" }, "geometry": { "type": "Point", "coordinates": [ 133.323184015136576, 33.970871022866966 ] } },
{ "type": "Feature", "properties": { "内容": "株式会社　曽我商会　新居浜営業所【特定福祉用具販売】愛媛県新居浜市西原町二丁目7番75号", "url": "https://www.kaigokensaku.mhlw.go.jp/38/index.php?action_kouhyou_detail_004_kani=true&JigyosyoCd=3870502659-00&ServiceCd=410&Type=search", "url2": "http://www.sogasyoukai.com/" }, "geometry": { "type": "Point", "coordinates": [ 133.269735500000024, 33.9661692 ] } },
{ "type": "Feature", "properties": { "内容": "ケアサービスアサヒ　新居浜営業所【特定福祉用具販売】愛媛県新居浜市西喜光地町9番35号寺川ビル１Ｆ", "url": "https://www.kaigokensaku.mhlw.go.jp/38/index.php?action_kouhyou_detail_004_kani=true&JigyosyoCd=3870502683-00&ServiceCd=410&Type=search", "url2": null }, "geometry": { "type": "Point", "coordinates": [ 133.297418500000049, 33.9357643 ] } },
{ "type": "Feature", "properties": { "内容": "コープえひめ福祉用具貸与事業所新居浜【特定福祉用具販売】愛媛県新居浜市新田町1-6-51", "url": "https://www.kaigokensaku.mhlw.go.jp/38/index.php?action_kouhyou_detail_004_kani=true&JigyosyoCd=3870501362-00&ServiceCd=410&Type=search", "url2": null }, "geometry": { "type": "Point", "coordinates": [ 133.265163511189257, 33.957427675269834 ] } },
{ "type": "Feature", "properties": { "内容": "有限会社ムラカワ【特定福祉用具販売】愛媛県西条市明屋敷108", "url": "https://www.kaigokensaku.mhlw.go.jp/38/index.php?action_kouhyou_detail_004_kani=true&JigyosyoCd=3870600149-00&ServiceCd=410&Type=search", "url2": null }, "geometry": { "type": "Point", "coordinates": [ 133.180994700000042, 33.9234852 ] } },
{ "type": "Feature", "properties": { "内容": "西日本商事（株）西条営業所【特定福祉用具販売】愛媛県西条市三津屋南3-39", "url": "https://www.kaigokensaku.mhlw.go.jp/38/index.php?action_kouhyou_detail_004_kani=true&JigyosyoCd=3870601691-00&ServiceCd=410&Type=search", "url2": null }, "geometry": { "type": "Point", "coordinates": [ 133.0881043, 33.9292157 ] } },
{ "type": "Feature", "properties": { "内容": "株式会社　翼　西条営業所【特定福祉用具販売】愛媛県西条市大町776番地22", "url": "https://www.kaigokensaku.mhlw.go.jp/38/index.php?action_kouhyou_detail_004_kani=true&JigyosyoCd=3870601808-00&ServiceCd=410&Type=search", "url2": "https://www.kk-tsubasa.co.jp/" }, "geometry": { "type": "Point", "coordinates": [ 133.1898306, 33.9141061 ] } },
{ "type": "Feature", "properties": { "内容": "介護支援ショップ大洲三泰商事株式会社【特定福祉用具販売】愛媛県大洲市東大洲9番地2", "url": "https://www.kaigokensaku.mhlw.go.jp/38/index.php?action_kouhyou_detail_004_kani=true&JigyosyoCd=3870700071-00&ServiceCd=410&Type=search", "url2": "http://www/santaisyoji.com" }, "geometry": { "type": "Point", "coordinates": [ 132.551088400000026, 33.5164842 ] } },
{ "type": "Feature", "properties": { "内容": "株式会社アスト　あっぷるケアサービス【特定福祉用具販売】愛媛県大洲市東大洲116", "url": "https://www.kaigokensaku.mhlw.go.jp/38/index.php?action_kouhyou_detail_004_kani=true&JigyosyoCd=3870700139-00&ServiceCd=410&Type=search", "url2": null }, "geometry": { "type": "Point", "coordinates": [ 132.552754899999968, 33.5176591 ] } },
{ "type": "Feature", "properties": { "内容": "リ・ライフ【特定福祉用具販売】愛媛県大洲市徳森２４８番地", "url": "https://www.kaigokensaku.mhlw.go.jp/38/index.php?action_kouhyou_detail_004_kani=true&JigyosyoCd=3870700550-00&ServiceCd=410&Type=search", "url2": "http://www" }, "geometry": { "type": "Point", "coordinates": [ 132.575780387557984, 33.532223196975146 ] } },
{ "type": "Feature", "properties": { "内容": "株式会社トーカイ　大洲営業所【特定福祉用具販売】愛媛県大洲市菅田町菅田甲１３１２－１アネックス堀川1Ｆ", "url": "https://www.kaigokensaku.mhlw.go.jp/38/index.php?action_kouhyou_detail_004_kani=true&JigyosyoCd=3870700683-00&ServiceCd=410&Type=search", "url2": "https://www.tokai-corp.com/" }, "geometry": { "type": "Point", "coordinates": [ 132.589254319573911, 33.509355895811645 ] } },
{ "type": "Feature", "properties": { "内容": "四国医療サービス株式会社　大洲営業所【特定福祉用具販売】愛媛県大洲市東大洲985番地4", "url": "https://www.kaigokensaku.mhlw.go.jp/38/index.php?action_kouhyou_detail_004_kani=true&JigyosyoCd=3870700899-00&ServiceCd=410&Type=search", "url2": "http://www.shikoku-ms.jp/" }, "geometry": { "type": "Point", "coordinates": [ 132.56928419999997, 33.5201815 ] } },
{ "type": "Feature", "properties": { "内容": "アクトヒューマンケア【特定福祉用具販売】下吾川2022番地1", "url": "https://www.kaigokensaku.mhlw.go.jp/38/index.php?action_kouhyou_detail_004_kani=true&JigyosyoCd=3871000596-00&ServiceCd=410&Type=search", "url2": null }, "geometry": { "type": "Point", "coordinates": [ 132.704034500000034, 33.7745272 ] } },
{ "type": "Feature", "properties": { "内容": "合資会社バモス愛媛　福祉用具貸与事業所【特定福祉用具販売】愛媛県伊予市灘町16-19", "url": "https://www.kaigokensaku.mhlw.go.jp/38/index.php?action_kouhyou_detail_004_kani=true&JigyosyoCd=3873501229-00&ServiceCd=410&Type=search", "url2": "http://vamosu.jp/" }, "geometry": { "type": "Point", "coordinates": [ 132.703067330607553, 33.759187804262616 ] } },
{ "type": "Feature", "properties": { "内容": "有限会社　アウラ【特定福祉用具販売】愛媛県伊予市宮下550番地1", "url": "https://www.kaigokensaku.mhlw.go.jp/38/index.php?action_kouhyou_detail_004_kani=true&JigyosyoCd=3871000083-00&ServiceCd=410&Type=search", "url2": "http://www.aura.ne.jp" }, "geometry": { "type": "Point", "coordinates": [ 132.757296464346211, 33.783331816862599 ] } },
{ "type": "Feature", "properties": { "内容": "株式会社サスケ福祉事業部【特定福祉用具販売】愛媛県四国中央市土居町津根３３５７－１", "url": "https://www.kaigokensaku.mhlw.go.jp/38/index.php?action_kouhyou_detail_004_kani=true&JigyosyoCd=3870502279-00&ServiceCd=410&Type=search", "url2": null }, "geometry": { "type": "Point", "coordinates": [ 133.449091299999964, 33.967338 ] } },
{ "type": "Feature", "properties": { "内容": "福祉用具貸与・販売事業所ココロココ【特定福祉用具販売】愛媛県四国中央市下柏町1087-1ココロココ三島1Ｆ", "url": "https://www.kaigokensaku.mhlw.go.jp/38/index.php?action_kouhyou_detail_004_kani=true&JigyosyoCd=3871301135-00&ServiceCd=410&Type=search", "url2": null }, "geometry": { "type": "Point", "coordinates": [ 133.573964899999964, 33.9835296 ] } },
{ "type": "Feature", "properties": { "内容": "介護ショップすずき【特定福祉用具販売】愛媛県四国中央市三島宮川2-1-6", "url": "https://www.kaigokensaku.mhlw.go.jp/38/index.php?action_kouhyou_detail_004_kani=true&JigyosyoCd=3871301309-00&ServiceCd=410&Type=search", "url2": "https://suzuki-js.com/care-shop/" }, "geometry": { "type": "Point", "coordinates": [ 133.5498317, 33.9831962 ] } },
{ "type": "Feature", "properties": { "内容": "株式会社翼　四国中央営業所【特定福祉用具販売】愛媛県四国中央市下柏町75-1ﾛｲﾔﾙﾏﾝｼｮﾝ柏1101号", "url": "https://www.kaigokensaku.mhlw.go.jp/38/index.php?action_kouhyou_detail_004_kani=true&JigyosyoCd=3871301358-00&ServiceCd=410&Type=search", "url2": "www.kk-tsubasa.co.jp" }, "geometry": { "type": "Point", "coordinates": [ 133.558779700000059, 33.9858248 ] } },
{ "type": "Feature", "properties": { "内容": "ダスキンヘルスレント四国中央ステーション【特定福祉用具販売】愛媛県四国中央市土居町藤原3番耕地88番地1", "url": "https://www.kaigokensaku.mhlw.go.jp/38/index.php?action_kouhyou_detail_004_kani=true&JigyosyoCd=3871301424-00&ServiceCd=410&Type=search", "url2": "healthrent.duskin.jp" }, "geometry": { "type": "Point", "coordinates": [ 133.4428062, 33.9805776 ] } },
{ "type": "Feature", "properties": { "内容": "介護ショップ山田【特定福祉用具販売】愛媛県四国中央市上分町６９３－１", "url": "https://www.kaigokensaku.mhlw.go.jp/38/index.php?action_kouhyou_detail_004_kani=true&JigyosyoCd=3871300459-00&ServiceCd=410&Type=search", "url2": null }, "geometry": { "type": "Point", "coordinates": [ 133.58723202327883, 33.992650407851421 ] } },
{ "type": "Feature", "properties": { "内容": "介護支援ショップ西予三泰商事株式会社【特定福祉用具販売】愛媛県西予市宇和町坂戸330番地5", "url": "https://www.kaigokensaku.mhlw.go.jp/38/index.php?action_kouhyou_detail_004_kani=true&JigyosyoCd=3873800399-00&ServiceCd=410&Type=search", "url2": "http://www.santaisyoji/com" }, "geometry": { "type": "Point", "coordinates": [ 132.5049616, 33.3905358 ] } },
{ "type": "Feature", "properties": { "内容": "有限会社　ひまわり商会【特定福祉用具販売】愛媛県西予市宇和町小野田373番地の4", "url": "https://www.kaigokensaku.mhlw.go.jp/38/index.php?action_kouhyou_detail_004_kani=true&JigyosyoCd=3873800167-00&ServiceCd=410&Type=search", "url2": null }, "geometry": { "type": "Point", "coordinates": [ 132.490722979762268, 33.368470079613076 ] } },
{ "type": "Feature", "properties": { "内容": "株式会社あおぞら【特定福祉用具販売】愛媛県西予市宇和町神領119", "url": "https://www.kaigokensaku.mhlw.go.jp/38/index.php?action_kouhyou_detail_004_kani=true&JigyosyoCd=3871400861-00&ServiceCd=410&Type=search", "url2": null }, "geometry": { "type": "Point", "coordinates": [ 132.506031299999989, 33.3654359 ] } },
{ "type": "Feature", "properties": { "内容": "株式会社ヤエス　愛媛営業所【特定福祉用具販売】愛媛県東温市見奈良1532", "url": "https://www.kaigokensaku.mhlw.go.jp/38/index.php?action_kouhyou_detail_004_kani=true&JigyosyoCd=3871500256-00&ServiceCd=410&Type=search", "url2": "http://www.yaesu.org" }, "geometry": { "type": "Point", "coordinates": [ 132.87722780674585, 33.795818614614241 ] } },
{ "type": "Feature", "properties": { "内容": "株式会社　廣昭【特定福祉用具販売】越智郡上島町弓削下弓削206-2", "url": "https://www.kaigokensaku.mhlw.go.jp/38/index.php?action_kouhyou_detail_004_kani=true&JigyosyoCd=3873200988-00&ServiceCd=410&Type=search", "url2": null }, "geometry": { "type": "Point", "coordinates": [ 133.204542301991296, 34.258109052270825 ] } },
{ "type": "Feature", "properties": { "内容": "ハッピースマイル【特定福祉用具販売】愛媛県伊予郡砥部町千足１番地2４", "url": "https://www.kaigokensaku.mhlw.go.jp/38/index.php?action_kouhyou_detail_004_kani=true&JigyosyoCd=3873500957-00&ServiceCd=410&Type=search", "url2": "https://www.fukuda-happysmile.com" }, "geometry": { "type": "Point", "coordinates": [ 132.790019330688438, 33.747207618513578 ] } },
{ "type": "Feature", "properties": { "内容": "株式会社　さがわ【特定福祉用具販売】愛媛県伊予郡砥部町宮内８５９番地", "url": "https://www.kaigokensaku.mhlw.go.jp/38/index.php?action_kouhyou_detail_004_kani=true&JigyosyoCd=3873501096-00&ServiceCd=410&Type=search", "url2": null }, "geometry": { "type": "Point", "coordinates": [ 132.7909029, 33.7493513 ] } },
{ "type": "Feature", "properties": { "内容": "まこと株式会社　仁田之浜事業所【特定福祉用具販売】愛媛県西宇和郡伊方町仁田之浜1092", "url": "https://www.kaigokensaku.mhlw.go.jp/38/index.php?action_kouhyou_detail_004_kani=true&JigyosyoCd=3873700581-00&ServiceCd=410&Type=search", "url2": null }, "geometry": { "type": "Point", "coordinates": [ 132.358414499999981, 33.4833605 ] } },
{ "type": "Feature", "properties": { "内容": "福祉用具販売事業所　増田建材【特定福祉用具販売】西宇和郡伊方町二名津215番地", "url": "https://www.kaigokensaku.mhlw.go.jp/38/index.php?action_kouhyou_detail_004_kani=true&JigyosyoCd=3873700565-00&ServiceCd=410&Type=search", "url2": null }, "geometry": { "type": "Point", "coordinates": [ 132.137933, 33.40225779999998 ] } },
{ "type": "Feature", "properties": { "内容": "有限会社　福岡メディカル【特定福祉用具販売】愛媛県南宇和郡愛南町一本松3517番地1", "url": "https://www.kaigokensaku.mhlw.go.jp/38/index.php?action_kouhyou_detail_004_kani=true&JigyosyoCd=3874000155-00&ServiceCd=410&Type=search", "url2": null }, "geometry": { "type": "Point", "coordinates": [ 132.647180900524972, 32.96288691010804 ] } }
]
}
