{
"type": "FeatureCollection",
"name": "geo_38_特定施設入居者生活介護（軽費老人ホーム）",
"crs": { "type": "name", "properties": { "name": "urn:ogc:def:crs:OGC:1.3:CRS84" } },
"features": [
{ "type": "Feature", "properties": { "内容": "ケアハウス　であい【特定施設入居者生活介護（軽費老人ホーム）】愛媛県松山市余戸南5丁目3-18", "url": "https://www.kaigokensaku.mhlw.go.jp/38/index.php?action_kouhyou_detail_004_kani=true&JigyosyoCd=3870104456-00&ServiceCd=332&Type=search", "url2": "http://www.aijukai-group.com" }, "geometry": { "type": "Point", "coordinates": [ 132.724445599999967, 33.8088459 ] } },
{ "type": "Feature", "properties": { "内容": "ケアハウス姫原【特定施設入居者生活介護（軽費老人ホーム）】愛媛県松山市姫原1丁目1656番地", "url": "https://www.kaigokensaku.mhlw.go.jp/38/index.php?action_kouhyou_detail_004_kani=true&JigyosyoCd=3870105875-00&ServiceCd=332&Type=search", "url2": "http://www.himebara-saiseikai.jp/" }, "geometry": { "type": "Point", "coordinates": [ 132.764669700000013, 33.8677123 ] } },
{ "type": "Feature", "properties": { "内容": "ケアハウス来住【特定施設入居者生活介護（軽費老人ホーム）】愛媛県松山市来住町３６番地", "url": "https://www.kaigokensaku.mhlw.go.jp/38/index.php?action_kouhyou_detail_004_kani=true&JigyosyoCd=3870108184-00&ServiceCd=332&Type=search", "url2": "http://jurakukai.jp/facility-info/care-house" }, "geometry": { "type": "Point", "coordinates": [ 132.806749299999979, 33.8025209 ] } },
{ "type": "Feature", "properties": { "内容": "ケアハウス友【特定施設入居者生活介護（軽費老人ホーム）】築山町7-14", "url": "https://www.kaigokensaku.mhlw.go.jp/38/index.php?action_kouhyou_detail_004_kani=true&JigyosyoCd=3870104373-00&ServiceCd=332&Type=search", "url2": "https://care-net.biz/38/aikoukaiyou/" }, "geometry": { "type": "Point", "coordinates": [ 132.777926900000011, 33.8382496 ] } },
{ "type": "Feature", "properties": { "内容": "ケアハウス　さや【特定施設入居者生活介護（軽費老人ホーム）】愛媛県松山市南斉院町1158番地", "url": "https://www.kaigokensaku.mhlw.go.jp/38/index.php?action_kouhyou_detail_004_kani=true&JigyosyoCd=3870105107-00&ServiceCd=332&Type=search", "url2": "http://www.aijukai-group.com/" }, "geometry": { "type": "Point", "coordinates": [ 132.735669599999937, 33.8347459 ] } },
{ "type": "Feature", "properties": { "内容": "幸風園【特定施設入居者生活介護（軽費老人ホーム）】愛媛県今治市大西町紺原甲290番地1", "url": "https://www.kaigokensaku.mhlw.go.jp/38/index.php?action_kouhyou_detail_004_kani=true&JigyosyoCd=3873200814-00&ServiceCd=332&Type=search", "url2": "http://kouhukai.com" }, "geometry": { "type": "Point", "coordinates": [ 132.937963500000023, 34.0678222 ] } },
{ "type": "Feature", "properties": { "内容": "ラ・ファミーユ【特定施設入居者生活介護（軽費老人ホーム）】愛媛県今治市菊間町浜1453-1", "url": "https://www.kaigokensaku.mhlw.go.jp/38/index.php?action_kouhyou_detail_004_kani=true&JigyosyoCd=3873200954-00&ServiceCd=332&Type=search", "url2": "http://www.nissinkai.jp/" }, "geometry": { "type": "Point", "coordinates": [ 132.84742940000001, 34.0430979 ] } },
{ "type": "Feature", "properties": { "内容": "ケアハウス鶴翠苑【特定施設入居者生活介護（軽費老人ホーム）】愛媛県西条市大野284番地1", "url": "https://www.kaigokensaku.mhlw.go.jp/38/index.php?action_kouhyou_detail_004_kani=true&JigyosyoCd=3871200337-00&ServiceCd=332&Type=search", "url2": "http://kitenkai.or.jp/" }, "geometry": { "type": "Point", "coordinates": [ 133.050877, 33.9458598 ] } },
{ "type": "Feature", "properties": { "内容": "特定施設入居者生活介護　ケアハウス虹の里【特定施設入居者生活介護（軽費老人ホーム）】愛媛県四国中央市上分町乙8-73ケアハウス虹の里", "url": "https://www.kaigokensaku.mhlw.go.jp/38/index.php?action_kouhyou_detail_004_kani=true&JigyosyoCd=3871300657-00&ServiceCd=332&Type=search", "url2": "http://www.aibikai.jp/" }, "geometry": { "type": "Point", "coordinates": [ 133.586652599999979, 33.9810133 ] } },
{ "type": "Feature", "properties": { "内容": "ケアハウス　オリーブ【特定施設入居者生活介護（軽費老人ホーム）】愛媛県四国中央市三島金子二丁目5番23号", "url": "https://www.kaigokensaku.mhlw.go.jp/38/index.php?action_kouhyou_detail_004_kani=true&JigyosyoCd=3871300426-00&ServiceCd=332&Type=search", "url2": "http://ch-olive.jp/" }, "geometry": { "type": "Point", "coordinates": [ 133.537926199999987, 33.9804519 ] } },
{ "type": "Feature", "properties": { "内容": "軽費老人ホームケアハウスれんげ【特定施設入居者生活介護（軽費老人ホーム）】愛媛県西予市宇和町久枝甲1434-1", "url": "https://www.kaigokensaku.mhlw.go.jp/38/index.php?action_kouhyou_detail_004_kani=true&JigyosyoCd=3871400564-00&ServiceCd=332&Type=search", "url2": "http:/www.seiyofukushi.com/" }, "geometry": { "type": "Point", "coordinates": [ 132.498929699999962, 33.3626723 ] } },
{ "type": "Feature", "properties": { "内容": "軽費老人ホームケアハウスはまゆう【特定施設入居者生活介護（軽費老人ホーム）】愛媛県西予市明浜町狩浜2-1208-4", "url": "https://www.kaigokensaku.mhlw.go.jp/38/index.php?action_kouhyou_detail_004_kani=true&JigyosyoCd=3871400630-00&ServiceCd=332&Type=search", "url2": "http://www.seiyofukushi.com/" }, "geometry": { "type": "Point", "coordinates": [ 132.4664196, 33.3212986 ] } },
{ "type": "Feature", "properties": { "内容": "ケアハウスひまわり苑【特定施設入居者生活介護（軽費老人ホーム）】愛媛県伊予郡松前町大字鶴吉635番地1", "url": "https://www.kaigokensaku.mhlw.go.jp/38/index.php?action_kouhyou_detail_004_kani=true&JigyosyoCd=3873500908-00&ServiceCd=332&Type=search", "url2": "http://kakuju.or.jp/" }, "geometry": { "type": "Point", "coordinates": [ 132.735822900000016, 33.782838 ] } },
{ "type": "Feature", "properties": { "内容": "軽費老人ホーム（ケアハウス）砥部オレンジ荘【特定施設入居者生活介護（軽費老人ホーム）】愛媛県伊予郡砥部町大南2267", "url": "https://www.kaigokensaku.mhlw.go.jp/38/index.php?action_kouhyou_detail_004_kani=true&JigyosyoCd=3873500817-00&ServiceCd=332&Type=search", "url2": "https://tobe-k.com" }, "geometry": { "type": "Point", "coordinates": [ 132.792960799999946, 33.7295898 ] } }
]
}
