{
"type": "FeatureCollection",
"name": "geo_38_地域密着型通所介護",
"crs": { "type": "name", "properties": { "name": "urn:ogc:def:crs:OGC:1.3:CRS84" } },
"features": [
{ "type": "Feature", "properties": { "内容": "デイサービス愛・家族【地域密着型通所介護】愛媛県松山市港山町4番17号サービス付き高齢者向け住宅　愛・家族", "url": "https://www.kaigokensaku.mhlw.go.jp/38/index.php?action_kouhyou_detail_004_kani=true&JigyosyoCd=3870111121-00&ServiceCd=780&Type=search", "url2": "http://aikazoku.com/" }, "geometry": { "type": "Point", "coordinates": [ 132.713451350926192, 33.868126054196857 ] } },
{ "type": "Feature", "properties": { "内容": "デイサービス　シン【地域密着型通所介護】愛媛県松山市土居田町583番地", "url": "https://www.kaigokensaku.mhlw.go.jp/38/index.php?action_kouhyou_detail_004_kani=true&JigyosyoCd=3870106659-00&ServiceCd=780&Type=search", "url2": null }, "geometry": { "type": "Point", "coordinates": [ 132.744155299999989, 33.8200008 ] } },
{ "type": "Feature", "properties": { "内容": "リハプライド南海【地域密着型通所介護】愛媛県松山市祝谷５丁目２－１５", "url": "https://www.kaigokensaku.mhlw.go.jp/38/index.php?action_kouhyou_detail_004_kani=true&JigyosyoCd=3870109778-00&ServiceCd=780&Type=search", "url2": null }, "geometry": { "type": "Point", "coordinates": [ 132.779835, 33.8574001 ] } },
{ "type": "Feature", "properties": { "内容": "リハコミュ　てらよこ【地域密着型通所介護】愛媛県松山市石手2丁目8-30", "url": "https://www.kaigokensaku.mhlw.go.jp/38/index.php?action_kouhyou_detail_004_kani=true&JigyosyoCd=3890101649-00&ServiceCd=780&Type=search", "url2": null }, "geometry": { "type": "Point", "coordinates": [ 132.798683100000034, 33.8478157 ] } },
{ "type": "Feature", "properties": { "内容": "デイサービスなないろ【地域密着型通所介護】愛媛県松山市立花二丁目2番15号", "url": "https://www.kaigokensaku.mhlw.go.jp/38/index.php?action_kouhyou_detail_004_kani=true&JigyosyoCd=3890102076-00&ServiceCd=780&Type=search", "url2": "http://kyowahp.com" }, "geometry": { "type": "Point", "coordinates": [ 132.7724237, 33.8284574 ] } },
{ "type": "Feature", "properties": { "内容": "デイサービスセンターすみれの家【地域密着型通所介護】愛媛県松山市北斎院町1072-1", "url": "https://www.kaigokensaku.mhlw.go.jp/38/index.php?action_kouhyou_detail_004_kani=true&JigyosyoCd=3870102773-00&ServiceCd=780&Type=search", "url2": "http://sumire-group.jp" }, "geometry": { "type": "Point", "coordinates": [ 132.724165099999937, 33.8361371 ] } },
{ "type": "Feature", "properties": { "内容": "通所介護事業所　かざはや【地域密着型通所介護】愛媛県松山市中西内４６９番地", "url": "https://www.kaigokensaku.mhlw.go.jp/38/index.php?action_kouhyou_detail_004_kani=true&JigyosyoCd=3870106071-00&ServiceCd=780&Type=search", "url2": "g-kazahaya@lime.plala." }, "geometry": { "type": "Point", "coordinates": [ 132.7879934, 33.9706174 ] } },
{ "type": "Feature", "properties": { "内容": "茶話本舗デイサービスさや【地域密着型通所介護】愛媛県松山市南斎院町923番地2", "url": "https://www.kaigokensaku.mhlw.go.jp/38/index.php?action_kouhyou_detail_004_kani=true&JigyosyoCd=3870108044-00&ServiceCd=780&Type=search", "url2": null }, "geometry": { "type": "Point", "coordinates": [ 132.730910705079424, 33.833128460159713 ] } },
{ "type": "Feature", "properties": { "内容": "デイサービス民家いろは【地域密着型通所介護】愛媛県松山市畑寺2丁目8番10号", "url": "https://www.kaigokensaku.mhlw.go.jp/38/index.php?action_kouhyou_detail_004_kani=true&JigyosyoCd=3870108382-00&ServiceCd=780&Type=search", "url2": "http://www.ikiikikaigo.com" }, "geometry": { "type": "Point", "coordinates": [ 132.798747, 33.8316371 ] } },
{ "type": "Feature", "properties": { "内容": "デイサービス民家　あすなろ【地域密着型通所介護】松山市北井門二丁目２６番２１号", "url": "https://www.kaigokensaku.mhlw.go.jp/38/index.php?action_kouhyou_detail_004_kani=true&JigyosyoCd=3870109034-00&ServiceCd=780&Type=search", "url2": "http://www.ikiikikaigo.com/" }, "geometry": { "type": "Point", "coordinates": [ 132.77977420000002, 33.804312 ] } },
{ "type": "Feature", "properties": { "内容": "リハプライド築山【地域密着型通所介護】松山市築山町7-5", "url": "https://www.kaigokensaku.mhlw.go.jp/38/index.php?action_kouhyou_detail_004_kani=true&JigyosyoCd=3870110230-00&ServiceCd=780&Type=search", "url2": "http://www.rehapride.co.jp/tsukiyama" }, "geometry": { "type": "Point", "coordinates": [ 132.778835100000038, 33.8385357 ] } },
{ "type": "Feature", "properties": { "内容": "指定通所介護事業所あさひ【地域密着型通所介護】愛媛県松山市下伊台町777-1", "url": "https://www.kaigokensaku.mhlw.go.jp/38/index.php?action_kouhyou_detail_004_kani=true&JigyosyoCd=3870110529-00&ServiceCd=780&Type=search", "url2": "https://asahi-idai.com/" }, "geometry": { "type": "Point", "coordinates": [ 132.801625387731491, 33.872562119888421 ] } },
{ "type": "Feature", "properties": { "内容": "地域密着型　デイサービス智温苑【地域密着型通所介護】愛媛県松山市西垣生町1184-5ファミリーケア智温苑", "url": "https://www.kaigokensaku.mhlw.go.jp/38/index.php?action_kouhyou_detail_004_kani=true&JigyosyoCd=3890101813-00&ServiceCd=780&Type=search", "url2": "http://familycare.co.jp/" }, "geometry": { "type": "Point", "coordinates": [ 132.703675100000027, 33.8150081 ] } },
{ "type": "Feature", "properties": { "内容": "デイサービスセンター和楽【地域密着型通所介護】愛媛県松山市味酒町1丁目9番地15株式会社ケアセンターとかじ　5階", "url": "https://www.kaigokensaku.mhlw.go.jp/38/index.php?action_kouhyou_detail_004_kani=true&JigyosyoCd=3890101821-00&ServiceCd=780&Type=search", "url2": "http://www.carecenter-tokaji.co.jp" }, "geometry": { "type": "Point", "coordinates": [ 132.756034099999965, 33.8421722 ] } },
{ "type": "Feature", "properties": { "内容": "デイサービス遊季【地域密着型通所介護】愛媛県松山市古川西２丁目１１番２４号", "url": "https://www.kaigokensaku.mhlw.go.jp/38/index.php?action_kouhyou_detail_004_kani=true&JigyosyoCd=3870107962-00&ServiceCd=780&Type=search", "url2": "http://hp.kaipoke.biz/k17/" }, "geometry": { "type": "Point", "coordinates": [ 132.756921299999931, 33.8084997 ] } },
{ "type": "Feature", "properties": { "内容": "デイサービス民家いろは　はなれ【地域密着型通所介護】愛媛県松山市古川北二丁目16番6号", "url": "https://www.kaigokensaku.mhlw.go.jp/38/index.php?action_kouhyou_detail_004_kani=true&JigyosyoCd=3870111196-00&ServiceCd=780&Type=search", "url2": null }, "geometry": { "type": "Point", "coordinates": [ 132.762603899999931, 33.8118912 ] } },
{ "type": "Feature", "properties": { "内容": "デイサービス智温苑【地域密着型通所介護】愛媛県松山市西垣生町1184番地5", "url": "https://www.kaigokensaku.mhlw.go.jp/38/index.php?action_kouhyou_detail_004_kani=true&JigyosyoCd=3890102225-00&ServiceCd=780&Type=search", "url2": "http://familycare.co.jp" }, "geometry": { "type": "Point", "coordinates": [ 132.703744300000011, 33.8150634 ] } },
{ "type": "Feature", "properties": { "内容": "デイサービス　さくら【地域密着型通所介護】愛媛県松山市桑原７丁目５番24号", "url": "https://www.kaigokensaku.mhlw.go.jp/38/index.php?action_kouhyou_detail_004_kani=true&JigyosyoCd=3890102241-00&ServiceCd=780&Type=search", "url2": "https://sakura-2024.maqe.site" }, "geometry": { "type": "Point", "coordinates": [ 132.7905318, 33.8295265 ] } },
{ "type": "Feature", "properties": { "内容": "デイサービスねこの手【地域密着型通所介護】愛媛県松山市古川南３丁目23-22", "url": "https://www.kaigokensaku.mhlw.go.jp/38/index.php?action_kouhyou_detail_004_kani=true&JigyosyoCd=3890102233-00&ServiceCd=780&Type=search", "url2": "https://yuyusya.co.jp" }, "geometry": { "type": "Point", "coordinates": [ 132.761540700000012, 33.804522899999981 ] } },
{ "type": "Feature", "properties": { "内容": "ハニーデイサービスセンター【地域密着型通所介護】愛媛県松山市西石井1丁目1番25号クリエイションビル1階", "url": "https://www.kaigokensaku.mhlw.go.jp/38/index.php?action_kouhyou_detail_004_kani=true&JigyosyoCd=3870102419-00&ServiceCd=780&Type=search", "url2": null }, "geometry": { "type": "Point", "coordinates": [ 132.774102500000026, 33.8164021 ] } },
{ "type": "Feature", "properties": { "内容": "デイサービスふくい【地域密着型通所介護】愛媛県松山市高井町795番地1", "url": "https://www.kaigokensaku.mhlw.go.jp/38/index.php?action_kouhyou_detail_004_kani=true&JigyosyoCd=3870103813-00&ServiceCd=780&Type=search", "url2": "http://www.fukui-g.com/fukui_clinic" }, "geometry": { "type": "Point", "coordinates": [ 132.814443, 33.7966937 ] } },
{ "type": "Feature", "properties": { "内容": "デイサービス愛と心えひめ【地域密着型通所介護】愛媛県松山市末町甲9番地1愛媛県在宅介護研修センター", "url": "https://www.kaigokensaku.mhlw.go.jp/38/index.php?action_kouhyou_detail_004_kani=true&JigyosyoCd=3870104027-00&ServiceCd=780&Type=search", "url2": "http://iyocom.jp/aitokokoro.e/" }, "geometry": { "type": "Point", "coordinates": [ 132.8181002, 33.8637977 ] } },
{ "type": "Feature", "properties": { "内容": "デイサービスよかよか倶楽部【地域密着型通所介護】愛媛県松山市築山町8番3号", "url": "https://www.kaigokensaku.mhlw.go.jp/38/index.php?action_kouhyou_detail_004_kani=true&JigyosyoCd=3870104076-00&ServiceCd=780&Type=search", "url2": "http://www.h6.dion.ne.jp/~alte/" }, "geometry": { "type": "Point", "coordinates": [ 132.7790685, 33.8381468 ] } },
{ "type": "Feature", "properties": { "内容": "デイサービスセンター和気【地域密着型通所介護】愛媛県松山市和気町1丁目685番地", "url": "https://www.kaigokensaku.mhlw.go.jp/38/index.php?action_kouhyou_detail_004_kani=true&JigyosyoCd=3870104258-00&ServiceCd=780&Type=search", "url2": "http://www.anju-kai.jp" }, "geometry": { "type": "Point", "coordinates": [ 132.736372299999971, 33.895033900000016 ] } },
{ "type": "Feature", "properties": { "内容": "デイサービスセンター　ひめやまの里【地域密着型通所介護】愛媛県松山市山越三丁目6番15号", "url": "https://www.kaigokensaku.mhlw.go.jp/38/index.php?action_kouhyou_detail_004_kani=true&JigyosyoCd=3870105792-00&ServiceCd=780&Type=search", "url2": null }, "geometry": { "type": "Point", "coordinates": [ 132.759528499999988, 33.860488 ] } },
{ "type": "Feature", "properties": { "内容": "デイサービス　ひめ【地域密着型通所介護】愛媛県松山市太山寺町477番2", "url": "https://www.kaigokensaku.mhlw.go.jp/38/index.php?action_kouhyou_detail_004_kani=true&JigyosyoCd=3870106162-00&ServiceCd=780&Type=search", "url2": null }, "geometry": { "type": "Point", "coordinates": [ 132.735915435850416, 33.882112114515323 ] } },
{ "type": "Feature", "properties": { "内容": "茶話本舗デイサービス久万ノ台【地域密着型通所介護】愛媛県松山市久万ノ台1038-6", "url": "https://www.kaigokensaku.mhlw.go.jp/38/index.php?action_kouhyou_detail_004_kani=true&JigyosyoCd=3870107350-00&ServiceCd=780&Type=search", "url2": "http://www.sawahonpo.com/" }, "geometry": { "type": "Point", "coordinates": [ 132.740018907658367, 33.858810401131642 ] } },
{ "type": "Feature", "properties": { "内容": "デイホームふゅうちゃあ【地域密着型通所介護】大可賀２丁目８－３４", "url": "https://www.kaigokensaku.mhlw.go.jp/38/index.php?action_kouhyou_detail_004_kani=true&JigyosyoCd=3870107459-00&ServiceCd=780&Type=search", "url2": "http://day-fuuture.com" }, "geometry": { "type": "Point", "coordinates": [ 132.713943323942544, 33.853450864887606 ] } },
{ "type": "Feature", "properties": { "内容": "ケアリビングながと【地域密着型通所介護】愛媛県松山市安城寺町969-6", "url": "https://www.kaigokensaku.mhlw.go.jp/38/index.php?action_kouhyou_detail_004_kani=true&JigyosyoCd=3870107699-00&ServiceCd=780&Type=search", "url2": null }, "geometry": { "type": "Point", "coordinates": [ 132.741069333065752, 33.8760194582498 ] } },
{ "type": "Feature", "properties": { "内容": "ＪＡえひめ中央デイサービスセンターサンケア坂本【地域密着型通所介護】愛媛県松山市久谷町甲77番地", "url": "https://www.kaigokensaku.mhlw.go.jp/38/index.php?action_kouhyou_detail_004_kani=true&JigyosyoCd=3870107830-00&ServiceCd=780&Type=search", "url2": "http://www.ja-e-chuo.or.jp" }, "geometry": { "type": "Point", "coordinates": [ 132.82583580000005, 33.7480747 ] } },
{ "type": "Feature", "properties": { "内容": "デイサービス道後茶寮【地域密着型通所介護】愛媛県松山市枝松6丁目6-16　山内SKYビル2F", "url": "https://www.kaigokensaku.mhlw.go.jp/38/index.php?action_kouhyou_detail_004_kani=true&JigyosyoCd=3870107889-00&ServiceCd=780&Type=search", "url2": "http://www.healthy-planet.jp" }, "geometry": { "type": "Point", "coordinates": [ 132.784373003322742, 33.825691438040408 ] } },
{ "type": "Feature", "properties": { "内容": "デイサービスセンター櫻【地域密着型通所介護】愛媛県松山市別府町４４７番地２", "url": "https://www.kaigokensaku.mhlw.go.jp/38/index.php?action_kouhyou_detail_004_kani=true&JigyosyoCd=3870108267-00&ServiceCd=780&Type=search", "url2": null }, "geometry": { "type": "Point", "coordinates": [ 132.722623500000026, 33.8440556 ] } },
{ "type": "Feature", "properties": { "内容": "デイサービス悠楽里【地域密着型通所介護】愛媛県松山市畑寺４丁目７番３２号", "url": "https://www.kaigokensaku.mhlw.go.jp/38/index.php?action_kouhyou_detail_004_kani=true&JigyosyoCd=3870108333-00&ServiceCd=780&Type=search", "url2": null }, "geometry": { "type": "Point", "coordinates": [ 132.8046908, 33.8246768 ] } },
{ "type": "Feature", "properties": { "内容": "デイサービス柳井町【地域密着型通所介護】愛媛県松山市柳井町1-11-15", "url": "https://www.kaigokensaku.mhlw.go.jp/38/index.php?action_kouhyou_detail_004_kani=true&JigyosyoCd=3870108788-00&ServiceCd=780&Type=search", "url2": null }, "geometry": { "type": "Point", "coordinates": [ 132.769962251589931, 33.833927683491275 ] } },
{ "type": "Feature", "properties": { "内容": "通所介護事業所ひだまり【地域密着型通所介護】愛媛県松山市立花3丁目3番ハーモニーガーデン", "url": "https://www.kaigokensaku.mhlw.go.jp/38/index.php?action_kouhyou_detail_004_kani=true&JigyosyoCd=3870108796-00&ServiceCd=780&Type=search", "url2": null }, "geometry": { "type": "Point", "coordinates": [ 132.774005200000033, 33.8255426 ] } },
{ "type": "Feature", "properties": { "内容": "リハビリデイサービスここから【地域密着型通所介護】愛媛県松山市松末１－５－１０", "url": "https://www.kaigokensaku.mhlw.go.jp/38/index.php?action_kouhyou_detail_004_kani=true&JigyosyoCd=3870108804-00&ServiceCd=780&Type=search", "url2": "https://www.kokokaraday.jp/" }, "geometry": { "type": "Point", "coordinates": [ 132.788434300000063, 33.8274567 ] } },
{ "type": "Feature", "properties": { "内容": "リハプライド　かどた脳神経外科【地域密着型通所介護】愛媛県松山市末広町5番14三和マンション末広101号", "url": "https://www.kaigokensaku.mhlw.go.jp/38/index.php?action_kouhyou_detail_004_kani=true&JigyosyoCd=3870108895-00&ServiceCd=780&Type=search", "url2": "http://www.lets-club.com/kadotanougeka/" }, "geometry": { "type": "Point", "coordinates": [ 132.763283900000033, 33.832136 ] } },
{ "type": "Feature", "properties": { "内容": "アルファデイサービスセンター久万の台【地域密着型通所介護】松山市久万ノ台１２１７番地アルファリビング松山久万の台", "url": "https://www.kaigokensaku.mhlw.go.jp/38/index.php?action_kouhyou_detail_004_kani=true&JigyosyoCd=3870108952-00&ServiceCd=780&Type=search", "url2": "http://www.anabuki-medical.jp/" }, "geometry": { "type": "Point", "coordinates": [ 132.744078464418038, 33.856761649471757 ] } },
{ "type": "Feature", "properties": { "内容": "デイサービスセンターこころ【地域密着型通所介護】松山市針田町16－3", "url": "https://www.kaigokensaku.mhlw.go.jp/38/index.php?action_kouhyou_detail_004_kani=true&JigyosyoCd=3870109000-00&ServiceCd=780&Type=search", "url2": "http://cocorokaigo.com/" }, "geometry": { "type": "Point", "coordinates": [ 132.737115302047187, 33.823318920380309 ] } },
{ "type": "Feature", "properties": { "内容": "デイサービス　ひがし野　真心庵【地域密着型通所介護】愛媛県松山市東野４丁目12番９号", "url": "https://www.kaigokensaku.mhlw.go.jp/38/index.php?action_kouhyou_detail_004_kani=true&JigyosyoCd=3870109018-00&ServiceCd=780&Type=search", "url2": "http://www.higashino-group.com/" }, "geometry": { "type": "Point", "coordinates": [ 132.8020263229389, 33.841547547802776 ] } },
{ "type": "Feature", "properties": { "内容": "デイサービスセンターみかん参号館【地域密着型通所介護】愛媛県松山市久万ノ台737番地", "url": "https://www.kaigokensaku.mhlw.go.jp/38/index.php?action_kouhyou_detail_004_kani=true&JigyosyoCd=3870109273-00&ServiceCd=780&Type=search", "url2": "http://rihasta-mikan.com/" }, "geometry": { "type": "Point", "coordinates": [ 132.741221900000028, 33.8601236 ] } },
{ "type": "Feature", "properties": { "内容": "スポーツデイ　歩風里　ふるみつ【地域密着型通所介護】愛媛県松山市古三津2丁目8‐13", "url": "https://www.kaigokensaku.mhlw.go.jp/38/index.php?action_kouhyou_detail_004_kani=true&JigyosyoCd=3870109422-00&ServiceCd=780&Type=search", "url2": "http://www.hofuri‐h.com" }, "geometry": { "type": "Point", "coordinates": [ 132.726520400000027, 33.858312300000016 ] } },
{ "type": "Feature", "properties": { "内容": "さきやま接骨院デイサービス【地域密着型通所介護】松山市永代町４－５ラッセルスクエア松山市駅１０１", "url": "https://www.kaigokensaku.mhlw.go.jp/38/index.php?action_kouhyou_detail_004_kani=true&JigyosyoCd=3870109513-00&ServiceCd=780&Type=search", "url2": "https://sakiyama-sekkotuin.com/" }, "geometry": { "type": "Point", "coordinates": [ 132.760074913859938, 33.8337686005951 ] } },
{ "type": "Feature", "properties": { "内容": "通所介護事業所　虹【地域密着型通所介護】保免西一丁目8番33号", "url": "https://www.kaigokensaku.mhlw.go.jp/38/index.php?action_kouhyou_detail_004_kani=true&JigyosyoCd=3870109646-00&ServiceCd=780&Type=search", "url2": null }, "geometry": { "type": "Point", "coordinates": [ 132.745263499999965, 33.8181232 ] } },
{ "type": "Feature", "properties": { "内容": "デイサービスセンター　ジェントルハートみつ【地域密着型通所介護】愛媛県松山市梅田町４番３５号高齢者福祉施設　ジェントルハートみつ", "url": "https://www.kaigokensaku.mhlw.go.jp/38/index.php?action_kouhyou_detail_004_kani=true&JigyosyoCd=3870109828-00&ServiceCd=780&Type=search", "url2": "http://www.aijukai-group.com/" }, "geometry": { "type": "Point", "coordinates": [ 132.712833199999977, 33.8603087 ] } },
{ "type": "Feature", "properties": { "内容": "デイサービス　ルーツ【地域密着型通所介護】愛媛県松山市山越四丁目１１番３６号", "url": "https://www.kaigokensaku.mhlw.go.jp/38/index.php?action_kouhyou_detail_004_kani=true&JigyosyoCd=3870109919-00&ServiceCd=780&Type=search", "url2": "https://roots.ehime.jp" }, "geometry": { "type": "Point", "coordinates": [ 132.7522914062491, 33.86140993666389 ] } },
{ "type": "Feature", "properties": { "内容": "デイサービス　いろり【地域密着型通所介護】愛媛県松山市立花1丁目12番27号", "url": "https://www.kaigokensaku.mhlw.go.jp/38/index.php?action_kouhyou_detail_004_kani=true&JigyosyoCd=3870110032-00&ServiceCd=780&Type=search", "url2": "https://te-to-te-kaigo.jp/" }, "geometry": { "type": "Point", "coordinates": [ 132.772777567459087, 33.831456473325254 ] } },
{ "type": "Feature", "properties": { "内容": "アルファデイサービスセンター南江戸【地域密着型通所介護】愛媛県松山市南江戸4丁目5番40号", "url": "https://www.kaigokensaku.mhlw.go.jp/38/index.php?action_kouhyou_detail_004_kani=true&JigyosyoCd=3870110321-00&ServiceCd=780&Type=search", "url2": "http://www.a-living.jp/dayservice.html" }, "geometry": { "type": "Point", "coordinates": [ 132.741400075532539, 33.838396847348569 ] } },
{ "type": "Feature", "properties": { "内容": "デイサービスlife【地域密着型通所介護】愛媛県松山市内宮町2201番地", "url": "https://www.kaigokensaku.mhlw.go.jp/38/index.php?action_kouhyou_detail_004_kani=true&JigyosyoCd=3870110628-00&ServiceCd=780&Type=search", "url2": null }, "geometry": { "type": "Point", "coordinates": [ 132.746815800000036, 33.8933788 ] } },
{ "type": "Feature", "properties": { "内容": "デイサービスゆい【地域密着型通所介護】愛媛県松山市馬木町２２５１番地２", "url": "https://www.kaigokensaku.mhlw.go.jp/38/index.php?action_kouhyou_detail_004_kani=true&JigyosyoCd=3870110719-00&ServiceCd=780&Type=search", "url2": "http://yui-cm.wix.com/architect-co-jp" }, "geometry": { "type": "Point", "coordinates": [ 132.745536142327865, 33.891624454764376 ] } },
{ "type": "Feature", "properties": { "内容": "デイサービスセンター和光苑ゆうぐん【地域密着型通所介護】愛媛県松山市雄郡2丁目5-8", "url": "https://www.kaigokensaku.mhlw.go.jp/38/index.php?action_kouhyou_detail_004_kani=true&JigyosyoCd=3870110735-00&ServiceCd=780&Type=search", "url2": "http://wakouen.okoshi-yasu.com/" }, "geometry": { "type": "Point", "coordinates": [ 132.752309392097914, 33.829329190976992 ] } },
{ "type": "Feature", "properties": { "内容": "デイサービスセンターみかん陸号館【地域密着型通所介護】愛媛県松山市西長戸町293-21", "url": "https://www.kaigokensaku.mhlw.go.jp/38/index.php?action_kouhyou_detail_004_kani=true&JigyosyoCd=3870110750-00&ServiceCd=780&Type=search", "url2": "http://rihasta-mikan.com/" }, "geometry": { "type": "Point", "coordinates": [ 132.741466299999956, 33.869136400000016 ] } },
{ "type": "Feature", "properties": { "内容": "通所介護事業所ローズ【地域密着型通所介護】愛媛県松山市藤原町664番1", "url": "https://www.kaigokensaku.mhlw.go.jp/38/index.php?action_kouhyou_detail_004_kani=true&JigyosyoCd=3870110859-00&ServiceCd=780&Type=search", "url2": "http://greenhealth/rose/" }, "geometry": { "type": "Point", "coordinates": [ 132.758369810450745, 33.83348022806539 ] } },
{ "type": "Feature", "properties": { "内容": "デイサービスセンター伊央里【地域密着型通所介護】愛媛県松山市南土居293-4", "url": "https://www.kaigokensaku.mhlw.go.jp/38/index.php?action_kouhyou_detail_004_kani=true&JigyosyoCd=3870110974-00&ServiceCd=780&Type=search", "url2": null }, "geometry": { "type": "Point", "coordinates": [ 132.802075173016448, 33.799708519878656 ] } },
{ "type": "Feature", "properties": { "内容": "リハプライド・南海三津【地域密着型通所介護】愛媛県松山市古三津6丁目12-19佐川ビル　１F", "url": "https://www.kaigokensaku.mhlw.go.jp/38/index.php?action_kouhyou_detail_004_kani=true&JigyosyoCd=3870111089-00&ServiceCd=780&Type=search", "url2": "http://www.rehapride.co.jp/furumitsuroku/" }, "geometry": { "type": "Point", "coordinates": [ 132.7198128, 33.8571205 ] } },
{ "type": "Feature", "properties": { "内容": "デイサービスセンター難波【地域密着型通所介護】愛媛県松山市中通甲898番1", "url": "https://www.kaigokensaku.mhlw.go.jp/38/index.php?action_kouhyou_detail_004_kani=true&JigyosyoCd=3871100461-00&ServiceCd=780&Type=search", "url2": "http://www.anjukai.com" }, "geometry": { "type": "Point", "coordinates": [ 132.791731900000059, 33.9837103 ] } },
{ "type": "Feature", "properties": { "内容": "デイサービスセンターみかん七星【地域密着型通所介護】愛媛県松山市鷹子町284番地1", "url": "https://www.kaigokensaku.mhlw.go.jp/38/index.php?action_kouhyou_detail_004_kani=true&JigyosyoCd=3890101441-00&ServiceCd=780&Type=search", "url2": "http://www.rihasta-mikan.com/" }, "geometry": { "type": "Point", "coordinates": [ 132.815855899999974, 33.8113927 ] } },
{ "type": "Feature", "properties": { "内容": "デイサービスガリラヤ久米【地域密着型通所介護】愛媛県松山市久米窪田町667番地1高齢者総合福祉施設ガリラヤ久米", "url": "https://www.kaigokensaku.mhlw.go.jp/38/index.php?action_kouhyou_detail_004_kani=true&JigyosyoCd=3890101508-00&ServiceCd=780&Type=search", "url2": "https://www.galilaya-ailin.com/" }, "geometry": { "type": "Point", "coordinates": [ 132.813424529399839, 33.805685051222753 ] } },
{ "type": "Feature", "properties": { "内容": "デイサービスセンターみかん　リハビリクラブ【地域密着型通所介護】愛媛県松山市東長戸3丁目4番27号", "url": "https://www.kaigokensaku.mhlw.go.jp/38/index.php?action_kouhyou_detail_004_kani=true&JigyosyoCd=3890101565-00&ServiceCd=780&Type=search", "url2": "http://www.rihasta-mikan.com/" }, "geometry": { "type": "Point", "coordinates": [ 132.748271199999976, 33.8691033 ] } },
{ "type": "Feature", "properties": { "内容": "デイサービスセンターりはらぼ【地域密着型通所介護】愛媛県松山市竹原2丁目1-50エバーグリーン松山", "url": "https://www.kaigokensaku.mhlw.go.jp/38/index.php?action_kouhyou_detail_004_kani=true&JigyosyoCd=3890101607-00&ServiceCd=780&Type=search", "url2": "https://ameblo.jp/hirokikono" }, "geometry": { "type": "Point", "coordinates": [ 132.7529654, 33.8316774 ] } },
{ "type": "Feature", "properties": { "内容": "デイサービスセンターふくすけ【地域密着型通所介護】愛媛県松山市空港通四丁目7番１号", "url": "https://www.kaigokensaku.mhlw.go.jp/38/index.php?action_kouhyou_detail_004_kani=true&JigyosyoCd=3890101722-00&ServiceCd=780&Type=search", "url2": "http://www.mitsuwat.co.jp/fukunokami/" }, "geometry": { "type": "Point", "coordinates": [ 132.734936400000038, 33.8291022 ] } },
{ "type": "Feature", "properties": { "内容": "コンシェリナ松山城北【地域密着型通所介護】愛媛県松山市山越五丁目９番６号", "url": "https://www.kaigokensaku.mhlw.go.jp/38/index.php?action_kouhyou_detail_004_kani=true&JigyosyoCd=3890101755-00&ServiceCd=780&Type=search", "url2": "concierina-mj@solasto.co.jp" }, "geometry": { "type": "Point", "coordinates": [ 132.750572199999965, 33.8597965 ] } },
{ "type": "Feature", "properties": { "内容": "デイサービス　いろり　２号館【地域密着型通所介護】愛媛県松山市中村四丁目8番14号エキサイトビル", "url": "https://www.kaigokensaku.mhlw.go.jp/38/index.php?action_kouhyou_detail_004_kani=true&JigyosyoCd=3890101805-00&ServiceCd=780&Type=search", "url2": "https://www.te-to-te-kaigo.jp" }, "geometry": { "type": "Point", "coordinates": [ 132.776106900000059, 33.8298993 ] } },
{ "type": "Feature", "properties": { "内容": "デイサービスセンター　ハッピー余戸【地域密着型通所介護】愛媛県松山市余戸東２丁目７番１３号", "url": "https://www.kaigokensaku.mhlw.go.jp/38/index.php?action_kouhyou_detail_004_kani=true&JigyosyoCd=3890101987-00&ServiceCd=780&Type=search", "url2": "http://www.carejapan.co.jp/" }, "geometry": { "type": "Point", "coordinates": [ 132.733685799999989, 33.8139991 ] } },
{ "type": "Feature", "properties": { "内容": "デイサービス花へんろ【地域密着型通所介護】愛媛県松山市河野中須賀145番地20", "url": "https://www.kaigokensaku.mhlw.go.jp/38/index.php?action_kouhyou_detail_004_kani=true&JigyosyoCd=3890102027-00&ServiceCd=780&Type=search", "url2": "https://yuyusya.co.jp/hanahenro/" }, "geometry": { "type": "Point", "coordinates": [ 132.770237400000013, 33.9461774 ] } },
{ "type": "Feature", "properties": { "内容": "リハビリデイサービスふふ【地域密着型通所介護】愛媛県松山市樽味２丁目94-1", "url": "https://www.kaigokensaku.mhlw.go.jp/38/index.php?action_kouhyou_detail_004_kani=true&JigyosyoCd=3890102043-00&ServiceCd=780&Type=search", "url2": "http://www.rihasta-mikan.com/" }, "geometry": { "type": "Point", "coordinates": [ 132.791553599999986, 33.8403146 ] } },
{ "type": "Feature", "properties": { "内容": "デイサービスセンターみかん弐号館【地域密着型通所介護】愛媛県松山市樽味2丁目1番7号", "url": "https://www.kaigokensaku.mhlw.go.jp/38/index.php?action_kouhyou_detail_004_kani=true&JigyosyoCd=3890102050-00&ServiceCd=780&Type=search", "url2": "http://www.rihasta-mikan.com/" }, "geometry": { "type": "Point", "coordinates": [ 132.792914278989088, 33.839923723866406 ] } },
{ "type": "Feature", "properties": { "内容": "リハプライド道後【地域密着型通所介護】愛媛県松山市祝谷５丁目２ー１５ベニール２１・１０１", "url": "https://www.kaigokensaku.mhlw.go.jp/38/index.php?action_kouhyou_detail_004_kani=true&JigyosyoCd=3890102100-00&ServiceCd=780&Type=search", "url2": "https://www.rehapride.co.jp/nankai/" }, "geometry": { "type": "Point", "coordinates": [ 132.779811099999989, 33.8574221 ] } },
{ "type": "Feature", "properties": { "内容": "デイサービス笑音【地域密着型通所介護】愛媛県松山市南斉院町935-1", "url": "https://www.kaigokensaku.mhlw.go.jp/38/index.php?action_kouhyou_detail_004_kani=true&JigyosyoCd=3890102126-00&ServiceCd=780&Type=search", "url2": "https://yuyusya.co.jp/" }, "geometry": { "type": "Point", "coordinates": [ 132.731964287944066, 33.833052800293714 ] } },
{ "type": "Feature", "properties": { "内容": "デイサービスさんわ【地域密着型通所介護】愛媛県松山市松ノ木1丁目5-35", "url": "https://www.kaigokensaku.mhlw.go.jp/38/index.php?action_kouhyou_detail_004_kani=true&JigyosyoCd=3870102344-00&ServiceCd=780&Type=search", "url2": "http://www.sanwa-kaigo.com" }, "geometry": { "type": "Point", "coordinates": [ 132.718843786586035, 33.869263188145219 ] } },
{ "type": "Feature", "properties": { "内容": "デイサービス坊っちゃん【地域密着型通所介護】愛媛県松山市梅津寺町乙56-214", "url": "https://www.kaigokensaku.mhlw.go.jp/38/index.php?action_kouhyou_detail_004_kani=true&JigyosyoCd=3870107400-00&ServiceCd=780&Type=search", "url2": "http://www.sumire-group.jp/" }, "geometry": { "type": "Point", "coordinates": [ 132.70717860000002, 33.8777454 ] } },
{ "type": "Feature", "properties": { "内容": "茶話本舗デイサービス畑寺【地域密着型通所介護】愛媛県松山市畑寺町乙852-1", "url": "https://www.kaigokensaku.mhlw.go.jp/38/index.php?action_kouhyou_detail_004_kani=true&JigyosyoCd=3870108564-00&ServiceCd=780&Type=search", "url2": null }, "geometry": { "type": "Point", "coordinates": [ 132.806146099999978, 33.839142 ] } },
{ "type": "Feature", "properties": { "内容": "アクティブ・リハすまいる【地域密着型通所介護】愛媛県松山市天山３丁目9-24", "url": "https://www.kaigokensaku.mhlw.go.jp/38/index.php?action_kouhyou_detail_004_kani=true&JigyosyoCd=3870110222-00&ServiceCd=780&Type=search", "url2": "http://www.aqua-community.jp/" }, "geometry": { "type": "Point", "coordinates": [ 132.775841200000059, 33.8201545 ] } },
{ "type": "Feature", "properties": { "内容": "デイサービスセンターみかん　幸号館【地域密着型通所介護】愛媛県松山市古川南3丁目758-1", "url": "https://www.kaigokensaku.mhlw.go.jp/38/index.php?action_kouhyou_detail_004_kani=true&JigyosyoCd=3870110537-00&ServiceCd=780&Type=search", "url2": "http://rihasta-mikan.com/" }, "geometry": { "type": "Point", "coordinates": [ 132.76470930000005, 33.8055809 ] } },
{ "type": "Feature", "properties": { "内容": "デイサービスセンター　ケアフル朝生田【地域密着型通所介護】愛媛県松山市朝生田町一丁目12番2号サービス付き高齢者向け住宅朝生田あるる館　1階", "url": "https://www.kaigokensaku.mhlw.go.jp/38/index.php?action_kouhyou_detail_004_kani=true&JigyosyoCd=3890101888-00&ServiceCd=780&Type=search", "url2": "http://yamakikai.com/" }, "geometry": { "type": "Point", "coordinates": [ 132.772482335581969, 33.822882158959523 ] } },
{ "type": "Feature", "properties": { "内容": "デイサービス　あんき十人十色【地域密着型通所介護】愛媛県松山市西垣生町1680番地1", "url": "https://www.kaigokensaku.mhlw.go.jp/38/index.php?action_kouhyou_detail_004_kani=true&JigyosyoCd=3890102191-00&ServiceCd=780&Type=search", "url2": "http://anki-m.net/" }, "geometry": { "type": "Point", "coordinates": [ 132.698861800000032, 33.813564800000016 ] } },
{ "type": "Feature", "properties": { "内容": "デイサービスセンター・ゆあーず【地域密着型通所介護】愛媛県松山市東方町甲1291番地１", "url": "https://www.kaigokensaku.mhlw.go.jp/38/index.php?action_kouhyou_detail_004_kani=true&JigyosyoCd=3870106113-00&ServiceCd=780&Type=search", "url2": "http://yours-care.jp/" }, "geometry": { "type": "Point", "coordinates": [ 132.818919723278782, 33.769591034314161 ] } },
{ "type": "Feature", "properties": { "内容": "デイサービス　かしま【地域密着型通所介護】愛媛県松山市苞木甲２００番地", "url": "https://www.kaigokensaku.mhlw.go.jp/38/index.php?action_kouhyou_detail_004_kani=true&JigyosyoCd=3870108671-00&ServiceCd=780&Type=search", "url2": "http://www.taitofukushikai.jp/" }, "geometry": { "type": "Point", "coordinates": [ 132.776042227677891, 33.941177296145291 ] } },
{ "type": "Feature", "properties": { "内容": "デイサービスセンター　笑歩会　保免【地域密着型通所介護】愛媛県松山市保免中一丁目9番15号", "url": "https://www.kaigokensaku.mhlw.go.jp/38/index.php?action_kouhyou_detail_004_kani=true&JigyosyoCd=3870110495-00&ServiceCd=780&Type=search", "url2": "http://shouhokai.jp/" }, "geometry": { "type": "Point", "coordinates": [ 132.748293900000021, 33.8191593 ] } },
{ "type": "Feature", "properties": { "内容": "デイサービスてんこう【地域密着型通所介護】愛媛県松山市南斎院町1338番地105", "url": "https://www.kaigokensaku.mhlw.go.jp/38/index.php?action_kouhyou_detail_004_kani=true&JigyosyoCd=3890101391-00&ServiceCd=780&Type=search", "url2": null }, "geometry": { "type": "Point", "coordinates": [ 132.73085889999993, 33.8437781 ] } },
{ "type": "Feature", "properties": { "内容": "機能訓練デイサービスかわぐち元氣堂【地域密着型通所介護】愛媛県松山市富久町102番地１", "url": "https://www.kaigokensaku.mhlw.go.jp/38/index.php?action_kouhyou_detail_004_kani=true&JigyosyoCd=3890102019-00&ServiceCd=780&Type=search", "url2": null }, "geometry": { "type": "Point", "coordinates": [ 132.7320603, 33.8228494 ] } },
{ "type": "Feature", "properties": { "内容": "リハプライド　かどた【地域密着型通所介護】愛媛県松山市水泥町100-2", "url": "https://www.kaigokensaku.mhlw.go.jp/38/index.php?action_kouhyou_detail_004_kani=true&JigyosyoCd=3890101623-00&ServiceCd=780&Type=search", "url2": "https://www.rehapride.co.jp/kadota/" }, "geometry": { "type": "Point", "coordinates": [ 132.8290945, 33.7989743 ] } },
{ "type": "Feature", "properties": { "内容": "リハビリデイサービス芽杏【地域密着型通所介護】愛媛県松山市馬木町291-1", "url": "https://www.kaigokensaku.mhlw.go.jp/38/index.php?action_kouhyou_detail_004_kani=true&JigyosyoCd=3890102266-00&ServiceCd=780&Type=search", "url2": "http://www.rihasta-mikan.com" }, "geometry": { "type": "Point", "coordinates": [ 132.743599263893174, 33.889924566238079 ] } },
{ "type": "Feature", "properties": { "内容": "デイサービス廣寿苑【地域密着型通所介護】愛媛県今治市高橋甲1142-1廣寿苑", "url": "https://www.kaigokensaku.mhlw.go.jp/38/index.php?action_kouhyou_detail_004_kani=true&JigyosyoCd=3870202185-00&ServiceCd=780&Type=search", "url2": null }, "geometry": { "type": "Point", "coordinates": [ 132.993104974181506, 34.067913368140282 ] } },
{ "type": "Feature", "properties": { "内容": "ウェルすまいる【地域密着型通所介護】愛媛県今治市恵美須町2-2-1", "url": "https://www.kaigokensaku.mhlw.go.jp/38/index.php?action_kouhyou_detail_004_kani=true&JigyosyoCd=3870201344-00&ServiceCd=780&Type=search", "url2": "http://www.welcare.ne.jp/" }, "geometry": { "type": "Point", "coordinates": [ 133.005347799999981, 34.0662929 ] } },
{ "type": "Feature", "properties": { "内容": "デイサービスよしの【地域密着型通所介護】愛媛県今治市黄金町一丁目9番地2サービス付き高齢者向け住宅よしの内2階", "url": "https://www.kaigokensaku.mhlw.go.jp/38/index.php?action_kouhyou_detail_004_kani=true&JigyosyoCd=3890200631-00&ServiceCd=780&Type=search", "url2": null }, "geometry": { "type": "Point", "coordinates": [ 133.003031400000026, 34.065738 ] } },
{ "type": "Feature", "properties": { "内容": "デイサービス湯ノ浦レンガ亭【地域密着型通所介護】愛媛県今治市湯ノ浦40", "url": "https://www.kaigokensaku.mhlw.go.jp/38/index.php?action_kouhyou_detail_004_kani=true&JigyosyoCd=3890200623-00&ServiceCd=780&Type=search", "url2": null }, "geometry": { "type": "Point", "coordinates": [ 133.051503683467104, 33.994601923467791 ] } },
{ "type": "Feature", "properties": { "内容": "デイサービスセンターみどりの郷【地域密着型通所介護】愛媛県今治市上徳甲１１０番地１", "url": "https://www.kaigokensaku.mhlw.go.jp/38/index.php?action_kouhyou_detail_004_kani=true&JigyosyoCd=3870200312-00&ServiceCd=780&Type=search", "url2": "https://www.kiharabyouin.jp/midori/" }, "geometry": { "type": "Point", "coordinates": [ 133.0145824, 34.0400992 ] } },
{ "type": "Feature", "properties": { "内容": "ふれあい【地域密着型通所介護】愛媛県今治市常盤町8丁目4-31", "url": "https://www.kaigokensaku.mhlw.go.jp/38/index.php?action_kouhyou_detail_004_kani=true&JigyosyoCd=3870200775-00&ServiceCd=780&Type=search", "url2": "http://www.hp-yamauchi.or.jp" }, "geometry": { "type": "Point", "coordinates": [ 132.986094399999956, 34.0541184 ] } },
{ "type": "Feature", "properties": { "内容": "アクティブライフ　デイサービスハウス夢【地域密着型通所介護】愛媛県今治市阿方甲１８３－１", "url": "https://www.kaigokensaku.mhlw.go.jp/38/index.php?action_kouhyou_detail_004_kani=true&JigyosyoCd=3870201245-00&ServiceCd=780&Type=search", "url2": null }, "geometry": { "type": "Point", "coordinates": [ 132.973551164373362, 34.061982118496033 ] } },
{ "type": "Feature", "properties": { "内容": "デイサービスセンターはなみずき【地域密着型通所介護】愛媛県今治市伯方町北浦甲2458番地", "url": "https://www.kaigokensaku.mhlw.go.jp/38/index.php?action_kouhyou_detail_004_kani=true&JigyosyoCd=3870201666-00&ServiceCd=780&Type=search", "url2": null }, "geometry": { "type": "Point", "coordinates": [ 133.094229, 34.2298773 ] } },
{ "type": "Feature", "properties": { "内容": "ときわデイサービス【地域密着型通所介護】愛媛県今治市中日吉町」2-1-35", "url": "https://www.kaigokensaku.mhlw.go.jp/38/index.php?action_kouhyou_detail_004_kani=true&JigyosyoCd=3870201922-00&ServiceCd=780&Type=search", "url2": null }, "geometry": { "type": "Point", "coordinates": [ 132.99162739999997, 34.0594705 ] } },
{ "type": "Feature", "properties": { "内容": "リハビリデイサービス　じんの【地域密着型通所介護】愛媛県今治市阿方甲４４１番地６", "url": "https://www.kaigokensaku.mhlw.go.jp/38/index.php?action_kouhyou_detail_004_kani=true&JigyosyoCd=3870202052-00&ServiceCd=780&Type=search", "url2": null }, "geometry": { "type": "Point", "coordinates": [ 132.966965375563063, 34.064670152125302 ] } },
{ "type": "Feature", "properties": { "内容": "ハーフデイリハビリステーション晃誠【地域密着型通所介護】愛媛県今治市美須賀３丁目3-2アビタ’31", "url": "https://www.kaigokensaku.mhlw.go.jp/38/index.php?action_kouhyou_detail_004_kani=true&JigyosyoCd=3870202201-00&ServiceCd=780&Type=search", "url2": "http://activevision.co.jp" }, "geometry": { "type": "Point", "coordinates": [ 133.011165130671088, 34.060696276874154 ] } },
{ "type": "Feature", "properties": { "内容": "高齢者福祉施設げんき室屋町の家　　デイサービスぽかぽか【地域密着型通所介護】愛媛県今治市室屋町5丁目3-6", "url": "https://www.kaigokensaku.mhlw.go.jp/38/index.php?action_kouhyou_detail_004_kani=true&JigyosyoCd=3870202268-00&ServiceCd=780&Type=search", "url2": "http://www.ehime-med.or.jp/infomation/coop.html" }, "geometry": { "type": "Point", "coordinates": [ 132.997429399999987, 34.0729693 ] } },
{ "type": "Feature", "properties": { "内容": "いよ路サロン【地域密着型通所介護】愛媛県今治市鯉池町１丁目２番２２号", "url": "https://www.kaigokensaku.mhlw.go.jp/38/index.php?action_kouhyou_detail_004_kani=true&JigyosyoCd=3870202276-00&ServiceCd=780&Type=search", "url2": "http://care-net.biz/38/iyoji/" }, "geometry": { "type": "Point", "coordinates": [ 132.988102700000013, 34.0533713 ] } },
{ "type": "Feature", "properties": { "内容": "通所介護事業所おあしす中央【地域密着型通所介護】愛媛県今治市八町西3丁目3番35号", "url": "https://www.kaigokensaku.mhlw.go.jp/38/index.php?action_kouhyou_detail_004_kani=true&JigyosyoCd=3870202292-00&ServiceCd=780&Type=search", "url2": "http://www.oasis-care.jp/" }, "geometry": { "type": "Point", "coordinates": [ 132.99078540000005, 34.0441588 ] } },
{ "type": "Feature", "properties": { "内容": "デイサービス　みのり【地域密着型通所介護】愛媛県今治市上徳甲717-1", "url": "https://www.kaigokensaku.mhlw.go.jp/38/index.php?action_kouhyou_detail_004_kani=true&JigyosyoCd=3870202326-00&ServiceCd=780&Type=search", "url2": null }, "geometry": { "type": "Point", "coordinates": [ 133.012982513803877, 34.0396288009212 ] } },
{ "type": "Feature", "properties": { "内容": "今治市社協介護サービスセンター関前【地域密着型通所介護】愛媛県今治市関前岡村甲２５２５-１今治市関前高齢者生活福祉センター", "url": "https://www.kaigokensaku.mhlw.go.jp/38/index.php?action_kouhyou_detail_004_kani=true&JigyosyoCd=3890200441-00&ServiceCd=780&Type=search", "url2": "http://www.imabari-shakyo.jp" }, "geometry": { "type": "Point", "coordinates": [ 132.890434828094499, 34.184887475202984 ] } },
{ "type": "Feature", "properties": { "内容": "デイサービスはなび【地域密着型通所介護】愛媛県今治市美須賀町4丁目1番22号デイサービスはなび", "url": "https://www.kaigokensaku.mhlw.go.jp/38/index.php?action_kouhyou_detail_004_kani=true&JigyosyoCd=3890200458-00&ServiceCd=780&Type=search", "url2": "http://www.yuyusya.co.jp/" }, "geometry": { "type": "Point", "coordinates": [ 133.012159360188292, 34.059548448863197 ] } },
{ "type": "Feature", "properties": { "内容": "リハプライド武田脳神経外科【地域密着型通所介護】愛媛県今治市旭町3-3-31", "url": "https://www.kaigokensaku.mhlw.go.jp/38/index.php?action_kouhyou_detail_004_kani=true&JigyosyoCd=3890200490-00&ServiceCd=780&Type=search", "url2": "http://rehapride.co.jp/takedanoushinkeigeka/" }, "geometry": { "type": "Point", "coordinates": [ 133.002469228776107, 34.060579947007149 ] } },
{ "type": "Feature", "properties": { "内容": "デイサービス　リハビリベース多喜力【地域密着型通所介護】愛媛県今治市波方町樋口甲2158番地6", "url": "https://www.kaigokensaku.mhlw.go.jp/38/index.php?action_kouhyou_detail_004_kani=true&JigyosyoCd=3890200557-00&ServiceCd=780&Type=search", "url2": "https://www.takiryoku.com" }, "geometry": { "type": "Point", "coordinates": [ 132.958740600000056, 34.102575670855259 ] } },
{ "type": "Feature", "properties": { "内容": "ﾃﾞｲサービス愛【地域密着型通所介護】愛媛県今治市東鳥生町1丁目6番7号", "url": "https://www.kaigokensaku.mhlw.go.jp/38/index.php?action_kouhyou_detail_004_kani=true&JigyosyoCd=3890200581-00&ServiceCd=780&Type=search", "url2": null }, "geometry": { "type": "Point", "coordinates": [ 133.01785940000002, 34.0580267 ] } },
{ "type": "Feature", "properties": { "内容": "デイサービス縁～えにし～【地域密着型通所介護】愛媛県今治市上徳甲465-8", "url": "https://www.kaigokensaku.mhlw.go.jp/38/index.php?action_kouhyou_detail_004_kani=true&JigyosyoCd=3890200615-00&ServiceCd=780&Type=search", "url2": "http://ds-enishi.jp" }, "geometry": { "type": "Point", "coordinates": [ 133.018607800000041, 34.0365572 ] } },
{ "type": "Feature", "properties": { "内容": "デイサービスセンターオリーブ【地域密着型通所介護】愛媛県今治市大西町紺原甲８２８番地１", "url": "https://www.kaigokensaku.mhlw.go.jp/38/index.php?action_kouhyou_detail_004_kani=true&JigyosyoCd=3890200698-00&ServiceCd=780&Type=search", "url2": "https://oonishiclinic.com" }, "geometry": { "type": "Point", "coordinates": [ 132.938358, 34.066967 ] } },
{ "type": "Feature", "properties": { "内容": "デイサービスたんぽぽ【地域密着型通所介護】愛媛県今治市桜井4丁目6番52号ハートウォーミングライフ志々満内", "url": "https://www.kaigokensaku.mhlw.go.jp/38/index.php?action_kouhyou_detail_004_kani=true&JigyosyoCd=3890200730-00&ServiceCd=780&Type=search", "url2": "https://heartwarming.jp" }, "geometry": { "type": "Point", "coordinates": [ 133.040284899999989, 34.0166764 ] } },
{ "type": "Feature", "properties": { "内容": "デイサービスはまなす【地域密着型通所介護】愛媛県今治市伯方町木浦甲1226-3", "url": "https://www.kaigokensaku.mhlw.go.jp/38/index.php?action_kouhyou_detail_004_kani=true&JigyosyoCd=3890200748-00&ServiceCd=780&Type=search", "url2": null }, "geometry": { "type": "Point", "coordinates": [ 133.113750900000014, 34.2043743 ] } },
{ "type": "Feature", "properties": { "内容": "デイサービス　リーフガーデンあさくら【地域密着型通所介護】愛媛県今治市朝倉下乙102番2", "url": "https://www.kaigokensaku.mhlw.go.jp/38/index.php?action_kouhyou_detail_004_kani=true&JigyosyoCd=3890200755-00&ServiceCd=780&Type=search", "url2": "http://www.hirose-youseikai.org" }, "geometry": { "type": "Point", "coordinates": [ 133.0054615, 34.0011922 ] } },
{ "type": "Feature", "properties": { "内容": "リハビリデイサービス和香【地域密着型通所介護】愛媛県今治市波方町波方甲2620-1", "url": "https://www.kaigokensaku.mhlw.go.jp/38/index.php?action_kouhyou_detail_004_kani=true&JigyosyoCd=3870202169-00&ServiceCd=780&Type=search", "url2": null }, "geometry": { "type": "Point", "coordinates": [ 132.952042389796475, 34.125448523457017 ] } },
{ "type": "Feature", "properties": { "内容": "デイサービスいろは【地域密着型通所介護】愛媛県今治市延喜甲１３３", "url": "https://www.kaigokensaku.mhlw.go.jp/38/index.php?action_kouhyou_detail_004_kani=true&JigyosyoCd=3870202250-00&ServiceCd=780&Type=search", "url2": null }, "geometry": { "type": "Point", "coordinates": [ 132.960741399999961, 34.0666921 ] } },
{ "type": "Feature", "properties": { "内容": "デイサービスめぐちゃん【地域密着型通所介護】愛媛県今治市上徳甲396-5", "url": "https://www.kaigokensaku.mhlw.go.jp/38/index.php?action_kouhyou_detail_004_kani=true&JigyosyoCd=3870202300-00&ServiceCd=780&Type=search", "url2": null }, "geometry": { "type": "Point", "coordinates": [ 133.014839438859838, 34.034429335537325 ] } },
{ "type": "Feature", "properties": { "内容": "機能訓練特化型デイサービスまいか【地域密着型通所介護】愛媛県今治市別名194-1", "url": "https://www.kaigokensaku.mhlw.go.jp/38/index.php?action_kouhyou_detail_004_kani=true&JigyosyoCd=3890200532-00&ServiceCd=780&Type=search", "url2": null }, "geometry": { "type": "Point", "coordinates": [ 132.97777880000001, 34.0427766 ] } },
{ "type": "Feature", "properties": { "内容": "デイサービスつくし【地域密着型通所介護】愛媛県今治市立花町4丁目5番地26号", "url": "https://www.kaigokensaku.mhlw.go.jp/38/index.php?action_kouhyou_detail_004_kani=true&JigyosyoCd=3890200565-00&ServiceCd=780&Type=search", "url2": null }, "geometry": { "type": "Point", "coordinates": [ 132.999669199999971, 34.047737800000043 ] } },
{ "type": "Feature", "properties": { "内容": "機能訓練サービス　ゆず【地域密着型通所介護】愛媛県今治市片山2-5-28ヴィラクォーレ101", "url": "https://www.kaigokensaku.mhlw.go.jp/38/index.php?action_kouhyou_detail_004_kani=true&JigyosyoCd=3890200607-00&ServiceCd=780&Type=search", "url2": "https://kabuyuzu.com" }, "geometry": { "type": "Point", "coordinates": [ 132.980817600000023, 34.0513047 ] } },
{ "type": "Feature", "properties": { "内容": "ＪＡおちいまばりデイサービスセンター元気伯方【地域密着型通所介護】愛媛県今治市伯方町叶浦甲1666-4", "url": "https://www.kaigokensaku.mhlw.go.jp/38/index.php?action_kouhyou_detail_004_kani=true&JigyosyoCd=3890200797-00&ServiceCd=780&Type=search", "url2": "https://www.ja-ochiima.or.jp/business/ja-fukushi/" }, "geometry": { "type": "Point", "coordinates": [ 133.073786399999989, 34.206998 ] } },
{ "type": "Feature", "properties": { "内容": "デイサービス愛顔【地域密着型通所介護】愛媛県宇和島市津島町高田甲2016", "url": "https://www.kaigokensaku.mhlw.go.jp/38/index.php?action_kouhyou_detail_004_kani=true&JigyosyoCd=3870301995-00&ServiceCd=780&Type=search", "url2": "http://kibou-e.jp/egao-house/" }, "geometry": { "type": "Point", "coordinates": [ 132.524340299999949, 33.1446871 ] } },
{ "type": "Feature", "properties": { "内容": "有限会社ひだまりの会　地域密着型通所介護事業所ながぼり【地域密着型通所介護】愛媛県宇和島市長堀3丁目8-6", "url": "https://www.kaigokensaku.mhlw.go.jp/38/index.php?action_kouhyou_detail_004_kani=true&JigyosyoCd=3890300209-00&ServiceCd=780&Type=search", "url2": "https://hidamari6200.com" }, "geometry": { "type": "Point", "coordinates": [ 132.551442, 33.207167 ] } },
{ "type": "Feature", "properties": { "内容": "デイサービスセンター　未来まるお【地域密着型通所介護】愛媛県宇和島市丸穂町１丁目９番３０号", "url": "https://www.kaigokensaku.mhlw.go.jp/38/index.php?action_kouhyou_detail_004_kani=true&JigyosyoCd=3870301409-00&ServiceCd=780&Type=search", "url2": "http//www.mirai-uwajima.com/" }, "geometry": { "type": "Point", "coordinates": [ 132.580569500000024, 33.2232184 ] } },
{ "type": "Feature", "properties": { "内容": "デイサービスセンター　あいか【地域密着型通所介護】愛媛県宇和島市高串2番耕地191番地1", "url": "https://www.kaigokensaku.mhlw.go.jp/38/index.php?action_kouhyou_detail_004_kani=true&JigyosyoCd=3870301201-00&ServiceCd=780&Type=search", "url2": null }, "geometry": { "type": "Point", "coordinates": [ 132.571420399999965, 33.2443966 ] } },
{ "type": "Feature", "properties": { "内容": "通所介護事業所おひさま【地域密着型通所介護】愛媛県宇和島市三間町大内123番地1通所介護事業所・宅老所　おひさま", "url": "https://www.kaigokensaku.mhlw.go.jp/38/index.php?action_kouhyou_detail_004_kani=true&JigyosyoCd=3870300955-00&ServiceCd=780&Type=search", "url2": null }, "geometry": { "type": "Point", "coordinates": [ 132.645157810450769, 33.286074024125234 ] } },
{ "type": "Feature", "properties": { "内容": "地域密着型通所介護事業所ますほの里【地域密着型通所介護】愛媛県宇和島市津島町高田甲2920-1", "url": "https://www.kaigokensaku.mhlw.go.jp/38/index.php?action_kouhyou_detail_004_kani=true&JigyosyoCd=3870301003-00&ServiceCd=780&Type=search", "url2": null }, "geometry": { "type": "Point", "coordinates": [ 132.524424, 33.1305664 ] } },
{ "type": "Feature", "properties": { "内容": "デイサービス紙ふうせん【地域密着型通所介護】愛媛県宇和島市三間町成家845番地デイサービス紙ふうせん", "url": "https://www.kaigokensaku.mhlw.go.jp/38/index.php?action_kouhyou_detail_004_kani=true&JigyosyoCd=3870301029-00&ServiceCd=780&Type=search", "url2": "https://angelhouse.co.jp" }, "geometry": { "type": "Point", "coordinates": [ 132.5935445, 33.2964275 ] } },
{ "type": "Feature", "properties": { "内容": "社会福祉法人　正和会　デイサービスセンターやすらぎ【地域密着型通所介護】愛媛県宇和島市蛤95番地3", "url": "https://www.kaigokensaku.mhlw.go.jp/38/index.php?action_kouhyou_detail_004_kani=true&JigyosyoCd=3870301078-00&ServiceCd=780&Type=search", "url2": "http://shouwakai.jp/" }, "geometry": { "type": "Point", "coordinates": [ 132.533156599999984, 33.2285031 ] } },
{ "type": "Feature", "properties": { "内容": "デイサービス　くつろぎの庭【地域密着型通所介護】愛媛県宇和島市伊吹町689", "url": "https://www.kaigokensaku.mhlw.go.jp/38/index.php?action_kouhyou_detail_004_kani=true&JigyosyoCd=3870301284-00&ServiceCd=780&Type=search", "url2": null }, "geometry": { "type": "Point", "coordinates": [ 132.573195199999986, 33.2339283 ] } },
{ "type": "Feature", "properties": { "内容": "デイサービス　えん【地域密着型通所介護】愛媛県宇和島市丸之内２－１－７２F", "url": "https://www.kaigokensaku.mhlw.go.jp/38/index.php?action_kouhyou_detail_004_kani=true&JigyosyoCd=3870301516-00&ServiceCd=780&Type=search", "url2": "http://cc-uwajima.jp" }, "geometry": { "type": "Point", "coordinates": [ 132.565021169311507, 33.216952354480789 ] } },
{ "type": "Feature", "properties": { "内容": "デイサービスぼちぼち【地域密着型通所介護】高串3番耕地359番1", "url": "https://www.kaigokensaku.mhlw.go.jp/38/index.php?action_kouhyou_detail_004_kani=true&JigyosyoCd=3870301789-00&ServiceCd=780&Type=search", "url2": "https://www.big-advance.site/c/150/1434" }, "geometry": { "type": "Point", "coordinates": [ 132.565332500000068, 33.2653743 ] } },
{ "type": "Feature", "properties": { "内容": "デイサ－ビスひまわり【地域密着型通所介護】明倫町５丁目５番１３号明倫ビル", "url": "https://www.kaigokensaku.mhlw.go.jp/38/index.php?action_kouhyou_detail_004_kani=true&JigyosyoCd=3870301821-00&ServiceCd=780&Type=search", "url2": null }, "geometry": { "type": "Point", "coordinates": [ 132.556592352493226, 33.217801498931806 ] } },
{ "type": "Feature", "properties": { "内容": "通所介護　　すみれ【地域密着型通所介護】愛媛県宇和島市伊吹町甲３６７番地１サービス付き高齢者向け住宅　すみれ", "url": "https://www.kaigokensaku.mhlw.go.jp/38/index.php?action_kouhyou_detail_004_kani=true&JigyosyoCd=3870301888-00&ServiceCd=780&Type=search", "url2": null }, "geometry": { "type": "Point", "coordinates": [ 132.578358203041063, 33.235443533283899 ] } },
{ "type": "Feature", "properties": { "内容": "通所介護　丸三【地域密着型通所介護】愛媛県宇和島市天神町4-5", "url": "https://www.kaigokensaku.mhlw.go.jp/38/index.php?action_kouhyou_detail_004_kani=true&JigyosyoCd=3890300274-00&ServiceCd=780&Type=search", "url2": null }, "geometry": { "type": "Point", "coordinates": [ 132.569931274621553, 33.226541966471444 ] } },
{ "type": "Feature", "properties": { "内容": "デイホーム土屋　宇和島【地域密着型通所介護】愛媛県宇和島市保田甲1916-1", "url": "https://www.kaigokensaku.mhlw.go.jp/38/index.php?action_kouhyou_detail_004_kani=true&JigyosyoCd=3890300290-00&ServiceCd=780&Type=search", "url2": "https://day-tsuchiya.com/day-uwajima/" }, "geometry": { "type": "Point", "coordinates": [ 132.541029426838492, 33.185813304047272 ] } },
{ "type": "Feature", "properties": { "内容": "ほっとステーションきらり【地域密着型通所介護】三間町黒井地1594－23", "url": "https://www.kaigokensaku.mhlw.go.jp/38/index.php?action_kouhyou_detail_004_kani=true&JigyosyoCd=3870302001-00&ServiceCd=780&Type=search", "url2": null }, "geometry": { "type": "Point", "coordinates": [ 132.599532400000044, 33.3066266 ] } },
{ "type": "Feature", "properties": { "内容": "デイサービスセンター海【地域密着型通所介護】愛媛県宇和島市吉田町立間尻甲１９３１番地", "url": "https://www.kaigokensaku.mhlw.go.jp/38/index.php?action_kouhyou_detail_004_kani=true&JigyosyoCd=3870301763-00&ServiceCd=780&Type=search", "url2": null }, "geometry": { "type": "Point", "coordinates": [ 132.537303738067664, 33.278517137755578 ] } },
{ "type": "Feature", "properties": { "内容": "デイサービスＡＲＲＩＢＡ【地域密着型通所介護】愛媛県八幡浜市保内町宮内1-324", "url": "https://www.kaigokensaku.mhlw.go.jp/38/index.php?action_kouhyou_detail_004_kani=true&JigyosyoCd=3873700276-00&ServiceCd=780&Type=search", "url2": null }, "geometry": { "type": "Point", "coordinates": [ 132.400139800000034, 33.483934 ] } },
{ "type": "Feature", "properties": { "内容": "デイサービスあったかいご【地域密着型通所介護】愛媛県八幡浜市産業通353-1", "url": "https://www.kaigokensaku.mhlw.go.jp/38/index.php?action_kouhyou_detail_004_kani=true&JigyosyoCd=3870400722-00&ServiceCd=780&Type=search", "url2": null }, "geometry": { "type": "Point", "coordinates": [ 132.432138500000065, 33.45315750000001 ] } },
{ "type": "Feature", "properties": { "内容": "デイサービス　オレンジハート【地域密着型通所介護】愛媛県八幡浜市保内町宮内１番耕地１００番１", "url": "https://www.kaigokensaku.mhlw.go.jp/38/index.php?action_kouhyou_detail_004_kani=true&JigyosyoCd=3870400755-00&ServiceCd=780&Type=search", "url2": "https://orenji-ha-to.wixsite.com/website" }, "geometry": { "type": "Point", "coordinates": [ 132.401516218446318, 33.482423032052935 ] } },
{ "type": "Feature", "properties": { "内容": "デイサービスあったかいご二番館【地域密着型通所介護】愛媛県八幡浜市産業通353-1", "url": "https://www.kaigokensaku.mhlw.go.jp/38/index.php?action_kouhyou_detail_004_kani=true&JigyosyoCd=3870400763-00&ServiceCd=780&Type=search", "url2": null }, "geometry": { "type": "Point", "coordinates": [ 132.432138500000065, 33.4531575 ] } },
{ "type": "Feature", "properties": { "内容": "デイサービス　ようなるデイ【地域密着型通所介護】愛媛県八幡浜市大平1番耕地779番地5", "url": "https://www.kaigokensaku.mhlw.go.jp/38/index.php?action_kouhyou_detail_004_kani=true&JigyosyoCd=3870400920-00&ServiceCd=780&Type=search", "url2": "https://care-net.biz/38/younaru/" }, "geometry": { "type": "Point", "coordinates": [ 132.425851008459347, 33.466830374003074 ] } },
{ "type": "Feature", "properties": { "内容": "デイサービスセンター　WellStudio　笑【地域密着型通所介護】愛媛県八幡浜市保内町宮内２番耕地７８番地１", "url": "https://www.kaigokensaku.mhlw.go.jp/38/index.php?action_kouhyou_detail_004_kani=true&JigyosyoCd=3870400938-00&ServiceCd=780&Type=search", "url2": null }, "geometry": { "type": "Point", "coordinates": [ 132.398519745755038, 33.48611735387184 ] } },
{ "type": "Feature", "properties": { "内容": "有限会社　タカハシ　デイサービスセンター　ももたろう【地域密着型通所介護】愛媛県八幡浜市天神通2丁目1510-53", "url": "https://www.kaigokensaku.mhlw.go.jp/38/index.php?action_kouhyou_detail_004_kani=true&JigyosyoCd=3870400961-00&ServiceCd=780&Type=search", "url2": null }, "geometry": { "type": "Point", "coordinates": [ 132.419907735026527, 33.459246612804826 ] } },
{ "type": "Feature", "properties": { "内容": "デイサービスセンター日土のめぐみ【地域密着型通所介護】愛媛県八幡浜市日土町2番耕地2番41", "url": "https://www.kaigokensaku.mhlw.go.jp/38/index.php?action_kouhyou_detail_004_kani=true&JigyosyoCd=3870400664-00&ServiceCd=780&Type=search", "url2": null }, "geometry": { "type": "Point", "coordinates": [ 132.413992272247356, 33.49047509351243 ] } },
{ "type": "Feature", "properties": { "内容": "デイサービス中の茶屋【地域密着型通所介護】愛媛県新居浜市西の土居町二丁目８番２１号", "url": "https://www.kaigokensaku.mhlw.go.jp/38/index.php?action_kouhyou_detail_004_kani=true&JigyosyoCd=3870501818-00&ServiceCd=780&Type=search", "url2": "http://ochayanosato.jp/" }, "geometry": { "type": "Point", "coordinates": [ 133.274918101852421, 33.949799090795416 ] } },
{ "type": "Feature", "properties": { "内容": "カミングケアステーション【地域密着型通所介護】新居浜市政枝町2丁目3番32号", "url": "https://www.kaigokensaku.mhlw.go.jp/38/index.php?action_kouhyou_detail_004_kani=true&JigyosyoCd=3870500752-00&ServiceCd=780&Type=search", "url2": "https://www.haginodai.co.jp/" }, "geometry": { "type": "Point", "coordinates": [ 133.268343, 33.9327894 ] } },
{ "type": "Feature", "properties": { "内容": "デイサービス竹トンボ【地域密着型通所介護】愛媛県新居浜市落神町3番11号", "url": "https://www.kaigokensaku.mhlw.go.jp/38/index.php?action_kouhyou_detail_004_kani=true&JigyosyoCd=3870501610-00&ServiceCd=780&Type=search", "url2": "https://care-net.biz/38/taketonbo/" }, "geometry": { "type": "Point", "coordinates": [ 133.324021799999969, 33.9675168 ] } },
{ "type": "Feature", "properties": { "内容": "デイサービスセンターお茶屋【地域密着型通所介護】愛媛県新居浜市西の土居町2-8-23", "url": "https://www.kaigokensaku.mhlw.go.jp/38/index.php?action_kouhyou_detail_004_kani=true&JigyosyoCd=3870501685-00&ServiceCd=780&Type=search", "url2": "http://ochayanosato.jp/" }, "geometry": { "type": "Point", "coordinates": [ 133.273859462565639, 33.949978149921442 ] } },
{ "type": "Feature", "properties": { "内容": "ひろ【地域密着型通所介護】愛媛県新居浜市土橋一丁目4番40号", "url": "https://www.kaigokensaku.mhlw.go.jp/38/index.php?action_kouhyou_detail_004_kani=true&JigyosyoCd=3870501701-00&ServiceCd=780&Type=search", "url2": null }, "geometry": { "type": "Point", "coordinates": [ 133.288304892065412, 33.935917450786341 ] } },
{ "type": "Feature", "properties": { "内容": "デイサービス　いずみかわ【地域密着型通所介護】愛媛県新居浜市瀬戸町1-2", "url": "https://www.kaigokensaku.mhlw.go.jp/38/index.php?action_kouhyou_detail_004_kani=true&JigyosyoCd=3870501867-00&ServiceCd=780&Type=search", "url2": "http://www.ehime-med.or.jp/" }, "geometry": { "type": "Point", "coordinates": [ 133.2964356, 33.9454439 ] } },
{ "type": "Feature", "properties": { "内容": "デイサービス花園【地域密着型通所介護】愛媛県新居浜市高木町３番３４号", "url": "https://www.kaigokensaku.mhlw.go.jp/38/index.php?action_kouhyou_detail_004_kani=true&JigyosyoCd=3870502220-00&ServiceCd=780&Type=search", "url2": "https://care-net.biz/38/ownsdream/" }, "geometry": { "type": "Point", "coordinates": [ 133.285985452593962, 33.951831756144117 ] } },
{ "type": "Feature", "properties": { "内容": "リハステージ郷【地域密着型通所介護】愛媛県新居浜市清住町１－３６", "url": "https://www.kaigokensaku.mhlw.go.jp/38/index.php?action_kouhyou_detail_004_kani=true&JigyosyoCd=3870502444-00&ServiceCd=780&Type=search", "url2": "https://www.suiyoukai.jp/" }, "geometry": { "type": "Point", "coordinates": [ 133.310934300000014, 33.9607426 ] } },
{ "type": "Feature", "properties": { "内容": "あすなろ北内　チヨの里【地域密着型通所介護】愛媛県新居浜市北内町1丁目2番26号", "url": "https://www.kaigokensaku.mhlw.go.jp/38/index.php?action_kouhyou_detail_004_kani=true&JigyosyoCd=3890500527-00&ServiceCd=780&Type=search", "url2": "http://www.yuyusya.co.jp/" }, "geometry": { "type": "Point", "coordinates": [ 133.307234, 33.9339204 ] } },
{ "type": "Feature", "properties": { "内容": "介護予防運動デイサービス　リハサロン船木【地域密着型通所介護】愛媛県新居浜市船木4047番地4", "url": "https://www.kaigokensaku.mhlw.go.jp/38/index.php?action_kouhyou_detail_004_kani=true&JigyosyoCd=3890500543-00&ServiceCd=780&Type=search", "url2": null }, "geometry": { "type": "Point", "coordinates": [ 133.325887, 33.9286982 ] } },
{ "type": "Feature", "properties": { "内容": "歩行特化型通所介護事業所GoPark【地域密着型通所介護】愛媛県新居浜市郷三丁目１６番３５号", "url": "https://www.kaigokensaku.mhlw.go.jp/38/index.php?action_kouhyou_detail_004_kani=true&JigyosyoCd=3890500584-00&ServiceCd=780&Type=search", "url2": "https://gopark2.wixsite.com/gopark" }, "geometry": { "type": "Point", "coordinates": [ 133.309997399999986, 33.961819100000014 ] } },
{ "type": "Feature", "properties": { "内容": "デイサービスじゃがいも【地域密着型通所介護】愛媛県新居浜市田の上1丁目13番42号", "url": "https://www.kaigokensaku.mhlw.go.jp/38/index.php?action_kouhyou_detail_004_kani=true&JigyosyoCd=3890500592-00&ServiceCd=780&Type=search", "url2": "https://jagaimoday.com/" }, "geometry": { "type": "Point", "coordinates": [ 133.3156011, 33.9700902 ] } },
{ "type": "Feature", "properties": { "内容": "デイサービスのんびりさん【地域密着型通所介護】愛媛県新居浜市桜木町8番37号", "url": "https://www.kaigokensaku.mhlw.go.jp/38/index.php?action_kouhyou_detail_004_kani=true&JigyosyoCd=3870501131-00&ServiceCd=780&Type=search", "url2": "http://niihama-mcoop.or.jp" }, "geometry": { "type": "Point", "coordinates": [ 133.299422, 33.9672002 ] } },
{ "type": "Feature", "properties": { "内容": "ファイトえひめ【地域密着型通所介護】新居浜市西の土居町１－３－２８東京ネバーランドビル", "url": "https://www.kaigokensaku.mhlw.go.jp/38/index.php?action_kouhyou_detail_004_kani=true&JigyosyoCd=3870501883-00&ServiceCd=780&Type=search", "url2": "http://tn-ehime.co.jp" }, "geometry": { "type": "Point", "coordinates": [ 133.280931600000031, 33.950934799999985 ] } },
{ "type": "Feature", "properties": { "内容": "さわやか新居浜館デイサービスセンター【地域密着型通所介護】愛媛県新居浜市東田３丁目乙11-77さわやか新居浜館", "url": "https://www.kaigokensaku.mhlw.go.jp/38/index.php?action_kouhyou_detail_004_kani=true&JigyosyoCd=3890500618-00&ServiceCd=780&Type=search", "url2": "http://niihamakan.sawayakaclub.jp" }, "geometry": { "type": "Point", "coordinates": [ 133.3219398, 33.9448901 ] } },
{ "type": "Feature", "properties": { "内容": "通所介護水車の家【地域密着型通所介護】愛媛県西条市周布494番地1", "url": "https://www.kaigokensaku.mhlw.go.jp/38/index.php?action_kouhyou_detail_004_kani=true&JigyosyoCd=3870600784-00&ServiceCd=780&Type=search", "url2": null }, "geometry": { "type": "Point", "coordinates": [ 133.076782399999956, 33.9278319 ] } },
{ "type": "Feature", "properties": { "内容": "デイサービスセンター　こうゆう庵【地域密着型通所介護】愛媛県西条市丹原町寺尾甲31番地1", "url": "https://www.kaigokensaku.mhlw.go.jp/38/index.php?action_kouhyou_detail_004_kani=true&JigyosyoCd=3870600974-00&ServiceCd=780&Type=search", "url2": null }, "geometry": { "type": "Point", "coordinates": [ 133.042441300000064, 33.8611659 ] } },
{ "type": "Feature", "properties": { "内容": "通所介護杜の家【地域密着型通所介護】愛媛県西条市朔日市892番地", "url": "https://www.kaigokensaku.mhlw.go.jp/38/index.php?action_kouhyou_detail_004_kani=true&JigyosyoCd=3870601063-00&ServiceCd=780&Type=search", "url2": null }, "geometry": { "type": "Point", "coordinates": [ 133.177833095076039, 33.929791528404088 ] } },
{ "type": "Feature", "properties": { "内容": "デイサービスセンターわが家【地域密着型通所介護】愛媛県西条市黒瀬乙820-7", "url": "https://www.kaigokensaku.mhlw.go.jp/38/index.php?action_kouhyou_detail_004_kani=true&JigyosyoCd=3870601360-00&ServiceCd=780&Type=search", "url2": "http://wa-ga-ya.jp/" }, "geometry": { "type": "Point", "coordinates": [ 133.171706699999959, 33.8851222 ] } },
{ "type": "Feature", "properties": { "内容": "ユーモア【地域密着型通所介護】愛媛県西条市丹原町久妙寺甲548番地", "url": "https://www.kaigokensaku.mhlw.go.jp/38/index.php?action_kouhyou_detail_004_kani=true&JigyosyoCd=3890600475-00&ServiceCd=780&Type=search", "url2": null }, "geometry": { "type": "Point", "coordinates": [ 133.048633499999966, 33.906784099999982 ] } },
{ "type": "Feature", "properties": { "内容": "通所介護フルーツの家【地域密着型通所介護】愛媛県西条市喜多川792番地1", "url": "https://www.kaigokensaku.mhlw.go.jp/38/index.php?action_kouhyou_detail_004_kani=true&JigyosyoCd=3870600370-00&ServiceCd=780&Type=search", "url2": "https://angel-call.co.jp/" }, "geometry": { "type": "Point", "coordinates": [ 133.170246697006178, 33.924888145761784 ] } },
{ "type": "Feature", "properties": { "内容": "デイサービス　多賀の里【地域密着型通所介護】愛媛県西条市北条231番地1", "url": "https://www.kaigokensaku.mhlw.go.jp/38/index.php?action_kouhyou_detail_004_kani=true&JigyosyoCd=3870600727-00&ServiceCd=780&Type=search", "url2": "http://www.jcomm-care.co.jp" }, "geometry": { "type": "Point", "coordinates": [ 133.091552900000011, 33.925307600000011 ] } },
{ "type": "Feature", "properties": { "内容": "デイサービスセンター丹原の郷【地域密着型通所介護】愛媛県西条市丹原町池田1267-1", "url": "https://www.kaigokensaku.mhlw.go.jp/38/index.php?action_kouhyou_detail_004_kani=true&JigyosyoCd=3870600743-00&ServiceCd=780&Type=search", "url2": "http://jcomm-care.co.jp" }, "geometry": { "type": "Point", "coordinates": [ 133.056084100000021, 33.9070643 ] } },
{ "type": "Feature", "properties": { "内容": "デイホームきて民家【地域密着型通所介護】愛媛県西条市新市575-1", "url": "https://www.kaigokensaku.mhlw.go.jp/38/index.php?action_kouhyou_detail_004_kani=true&JigyosyoCd=3870600800-00&ServiceCd=780&Type=search", "url2": "http://www.kiteminka.com/　　※www.facebook.com/kiteminka《日頃の状況）" }, "geometry": { "type": "Point", "coordinates": [ 133.060142773508119, 33.934518131247501 ] } },
{ "type": "Feature", "properties": { "内容": "デイサービスセンター池さん【地域密着型通所介護】愛媛県西条市小松町南川甲236番地5", "url": "https://www.kaigokensaku.mhlw.go.jp/38/index.php?action_kouhyou_detail_004_kani=true&JigyosyoCd=3870600875-00&ServiceCd=780&Type=search", "url2": "https://ike3.amebaownd.com/" }, "geometry": { "type": "Point", "coordinates": [ 133.0978579, 33.8954251 ] } },
{ "type": "Feature", "properties": { "内容": "デイサービスセンタター千代の家【地域密着型通所介護】愛媛県西条市丹原町今井116-1", "url": "https://www.kaigokensaku.mhlw.go.jp/38/index.php?action_kouhyou_detail_004_kani=true&JigyosyoCd=3870600990-00&ServiceCd=780&Type=search", "url2": null }, "geometry": { "type": "Point", "coordinates": [ 133.057675499999959, 33.8992541 ] } },
{ "type": "Feature", "properties": { "内容": "シグナルケアステーション【地域密着型通所介護】西条市北条４６９－６", "url": "https://www.kaigokensaku.mhlw.go.jp/38/index.php?action_kouhyou_detail_004_kani=true&JigyosyoCd=3870601006-00&ServiceCd=780&Type=search", "url2": null }, "geometry": { "type": "Point", "coordinates": [ 133.0971022, 33.9242857 ] } },
{ "type": "Feature", "properties": { "内容": "通所介護事業所　大頭の池さん【地域密着型通所介護】愛媛県西条市小松町大頭甲４８８番地１１", "url": "https://www.kaigokensaku.mhlw.go.jp/38/index.php?action_kouhyou_detail_004_kani=true&JigyosyoCd=3870601311-00&ServiceCd=780&Type=search", "url2": "https://ike3.amebaownd.com/" }, "geometry": { "type": "Point", "coordinates": [ 133.0750243, 33.8811507 ] } },
{ "type": "Feature", "properties": { "内容": "デイサービスセンター　虹【地域密着型通所介護】愛媛県西条市石田564-5", "url": "https://www.kaigokensaku.mhlw.go.jp/38/index.php?action_kouhyou_detail_004_kani=true&JigyosyoCd=3870601329-00&ServiceCd=780&Type=search", "url2": "http://www.rainbowflower-saijo.com/" }, "geometry": { "type": "Point", "coordinates": [ 133.091462555686917, 33.913291207501487 ] } },
{ "type": "Feature", "properties": { "内容": "JAえひめ未来デイサービスセンターみずほの里【地域密着型通所介護】愛媛県西条市禎瑞1033番地", "url": "https://www.kaigokensaku.mhlw.go.jp/38/index.php?action_kouhyou_detail_004_kani=true&JigyosyoCd=3870601337-00&ServiceCd=780&Type=search", "url2": "http://ja-ehimemirai.or.jp" }, "geometry": { "type": "Point", "coordinates": [ 133.147733, 33.9162127 ] } },
{ "type": "Feature", "properties": { "内容": "デイサービスたいよう【地域密着型通所介護】愛媛県西条市喜多川452-1", "url": "https://www.kaigokensaku.mhlw.go.jp/38/index.php?action_kouhyou_detail_004_kani=true&JigyosyoCd=3870601444-00&ServiceCd=780&Type=search", "url2": null }, "geometry": { "type": "Point", "coordinates": [ 133.173145200000022, 33.917966 ] } },
{ "type": "Feature", "properties": { "内容": "フィットネス型デイサービスセンター　煌き【地域密着型通所介護】愛媛県西条市三津屋南7番地7Ｋ＆Ｔ-Ⅲ　1階", "url": "https://www.kaigokensaku.mhlw.go.jp/38/index.php?action_kouhyou_detail_004_kani=true&JigyosyoCd=3870601451-00&ServiceCd=780&Type=search", "url2": "http://www.rainbowflower-saijo.com/" }, "geometry": { "type": "Point", "coordinates": [ 133.0899114, 33.9333094 ] } },
{ "type": "Feature", "properties": { "内容": "デイサービスセンター　空【地域密着型通所介護】愛媛県西条市三芳1047番地1", "url": "https://www.kaigokensaku.mhlw.go.jp/38/index.php?action_kouhyou_detail_004_kani=true&JigyosyoCd=3890600335-00&ServiceCd=780&Type=search", "url2": null }, "geometry": { "type": "Point", "coordinates": [ 133.061828800000058, 33.9534983 ] } },
{ "type": "Feature", "properties": { "内容": "フィットネス型デイサービスセンター太陽と月【地域密着型通所介護】愛媛県西条市壬生川650-1", "url": "https://www.kaigokensaku.mhlw.go.jp/38/index.php?action_kouhyou_detail_004_kani=true&JigyosyoCd=3890600400-00&ServiceCd=780&Type=search", "url2": "http://www.rainbowflower-saijo.com" }, "geometry": { "type": "Point", "coordinates": [ 133.0829376, 33.9397891 ] } },
{ "type": "Feature", "properties": { "内容": "デイサービスセンター愛出合【地域密着型通所介護】愛媛県西条市丹原町池田243番地3", "url": "https://www.kaigokensaku.mhlw.go.jp/38/index.php?action_kouhyou_detail_004_kani=true&JigyosyoCd=3890600418-00&ServiceCd=780&Type=search", "url2": "https://dayservice-shin.com/daycareService" }, "geometry": { "type": "Point", "coordinates": [ 133.0715186, 33.9161605 ] } },
{ "type": "Feature", "properties": { "内容": "らいふてらす　SUNWALK【地域密着型通所介護】愛媛県西条市河原津甲496番地", "url": "https://www.kaigokensaku.mhlw.go.jp/38/index.php?action_kouhyou_detail_004_kani=true&JigyosyoCd=3890600467-00&ServiceCd=780&Type=search", "url2": "https://sunwalk-nposaijo.my.canva.site/" }, "geometry": { "type": "Point", "coordinates": [ 133.061175366950607, 33.96479773772122 ] } },
{ "type": "Feature", "properties": { "内容": "デイサービスセンター夢の里【地域密着型通所介護】愛媛県大洲市阿蔵字フカ井甲758番地10", "url": "https://www.kaigokensaku.mhlw.go.jp/38/index.php?action_kouhyou_detail_004_kani=true&JigyosyoCd=3870700816-00&ServiceCd=780&Type=search", "url2": null }, "geometry": { "type": "Point", "coordinates": [ 132.528361755619812, 33.510002015922808 ] } },
{ "type": "Feature", "properties": { "内容": "デイサービス　香寿【地域密着型通所介護】中村853-1", "url": "https://www.kaigokensaku.mhlw.go.jp/38/index.php?action_kouhyou_detail_004_kani=true&JigyosyoCd=3870700725-00&ServiceCd=780&Type=search", "url2": "https://www.facebook.com/deisabisukazu" }, "geometry": { "type": "Point", "coordinates": [ 132.544890405995346, 33.512778166215654 ] } },
{ "type": "Feature", "properties": { "内容": "デイサービス　花【地域密着型通所介護】愛媛県大洲市菅田町菅田甲934番地", "url": "https://www.kaigokensaku.mhlw.go.jp/38/index.php?action_kouhyou_detail_004_kani=true&JigyosyoCd=3870700774-00&ServiceCd=780&Type=search", "url2": null }, "geometry": { "type": "Point", "coordinates": [ 132.58825, 33.51506 ] } },
{ "type": "Feature", "properties": { "内容": "大洲市社会福祉協議会デイサービスセンター若宮【地域密着型通所介護】愛媛県大洲市若宮625番地の4", "url": "https://www.kaigokensaku.mhlw.go.jp/38/index.php?action_kouhyou_detail_004_kani=true&JigyosyoCd=3870700410-00&ServiceCd=780&Type=search", "url2": null }, "geometry": { "type": "Point", "coordinates": [ 132.548872, 33.5195477 ] } },
{ "type": "Feature", "properties": { "内容": "デイサービスひかり【地域密着型通所介護】愛媛県大洲市東大洲１３３９番地７デイサービスひかり", "url": "https://www.kaigokensaku.mhlw.go.jp/38/index.php?action_kouhyou_detail_004_kani=true&JigyosyoCd=3870700642-00&ServiceCd=780&Type=search", "url2": null }, "geometry": { "type": "Point", "coordinates": [ 132.569978499999934, 33.5308275 ] } },
{ "type": "Feature", "properties": { "内容": "デイサービス新谷の家【地域密着型通所介護】愛媛県大洲市新谷甲３１８番地", "url": "https://www.kaigokensaku.mhlw.go.jp/38/index.php?action_kouhyou_detail_004_kani=true&JigyosyoCd=3870700717-00&ServiceCd=780&Type=search", "url2": "http://www.medica-site.com/shisetsu_detail.php?recid=765" }, "geometry": { "type": "Point", "coordinates": [ 132.59565689127237, 33.536979290659659 ] } },
{ "type": "Feature", "properties": { "内容": "清祥会ひまわり【地域密着型通所介護】愛媛県大洲市柴甲595番地1", "url": "https://www.kaigokensaku.mhlw.go.jp/38/index.php?action_kouhyou_detail_004_kani=true&JigyosyoCd=3870700857-00&ServiceCd=780&Type=search", "url2": "http//:seishoukai-himawari.com/index.htmi" }, "geometry": { "type": "Point", "coordinates": [ 132.520542699999964, 33.5775686 ] } },
{ "type": "Feature", "properties": { "内容": "デイサービスいずみ【地域密着型通所介護】愛媛県大洲市長浜町出海乙4番地", "url": "https://www.kaigokensaku.mhlw.go.jp/38/index.php?action_kouhyou_detail_004_kani=true&JigyosyoCd=3870700865-00&ServiceCd=780&Type=search", "url2": null }, "geometry": { "type": "Point", "coordinates": [ 132.434034017860427, 33.557022472283727 ] } },
{ "type": "Feature", "properties": { "内容": "デイサービス施設　かわかみ荘【地域密着型通所介護】愛媛県大洲市肱川町山鳥坂2800番地", "url": "https://www.kaigokensaku.mhlw.go.jp/38/index.php?action_kouhyou_detail_004_kani=true&JigyosyoCd=3873600187-00&ServiceCd=780&Type=search", "url2": "https://kawakamisou.com" }, "geometry": { "type": "Point", "coordinates": [ 132.711754499999984, 33.4785675 ] } },
{ "type": "Feature", "properties": { "内容": "デイサービス四つ葉【地域密着型通所介護】愛媛県大洲市北只489番地7", "url": "https://www.kaigokensaku.mhlw.go.jp/38/index.php?action_kouhyou_detail_004_kani=true&JigyosyoCd=3890700143-00&ServiceCd=780&Type=search", "url2": null }, "geometry": { "type": "Point", "coordinates": [ 132.542666700000041, 33.4895591 ] } },
{ "type": "Feature", "properties": { "内容": "デイサービス三線の家【地域密着型通所介護】愛媛県大洲市菅田町菅田甲2445番地", "url": "https://www.kaigokensaku.mhlw.go.jp/38/index.php?action_kouhyou_detail_004_kani=true&JigyosyoCd=3890700176-00&ServiceCd=780&Type=search", "url2": null }, "geometry": { "type": "Point", "coordinates": [ 132.580224412361105, 33.507052330674078 ] } },
{ "type": "Feature", "properties": { "内容": "デイサービス夢と希望【地域密着型通所介護】愛媛県大洲市新谷甲３１９番地１", "url": "https://www.kaigokensaku.mhlw.go.jp/38/index.php?action_kouhyou_detail_004_kani=true&JigyosyoCd=3890700200-00&ServiceCd=780&Type=search", "url2": null }, "geometry": { "type": "Point", "coordinates": [ 132.604862200000014, 33.5282131 ] } },
{ "type": "Feature", "properties": { "内容": "大洲市社会福祉協議会　デイサービスセンター長浜【地域密着型通所介護】愛媛県大洲市柴甲1402-3", "url": "https://www.kaigokensaku.mhlw.go.jp/38/index.php?action_kouhyou_detail_004_kani=true&JigyosyoCd=3890700226-00&ServiceCd=780&Type=search", "url2": null }, "geometry": { "type": "Point", "coordinates": [ 132.518661835009766, 33.575394937130106 ] } },
{ "type": "Feature", "properties": { "内容": "デイサービスセンターふだかけ【地域密着型通所介護】愛媛県大洲市野佐来479番地特別養護老人ホーム札掛の里", "url": "https://www.kaigokensaku.mhlw.go.jp/38/index.php?action_kouhyou_detail_004_kani=true&JigyosyoCd=3890700119-00&ServiceCd=780&Type=search", "url2": "https://fudakakenosato.wixsite.com/fudakake" }, "geometry": { "type": "Point", "coordinates": [ 132.5451233, 33.4682369 ] } },
{ "type": "Feature", "properties": { "内容": "デイサービス大樹の母里【地域密着型通所介護】大洲市阿蔵甲1961番地4", "url": "https://www.kaigokensaku.mhlw.go.jp/38/index.php?action_kouhyou_detail_004_kani=true&JigyosyoCd=3890700192-00&ServiceCd=780&Type=search", "url2": null }, "geometry": { "type": "Point", "coordinates": [ 132.539522422090158, 33.522850039347965 ] } },
{ "type": "Feature", "properties": { "内容": "宅老所ほほえみ【地域密着型通所介護】愛媛県伊予市大平乙215-9", "url": "https://www.kaigokensaku.mhlw.go.jp/38/index.php?action_kouhyou_detail_004_kani=true&JigyosyoCd=3871000315-00&ServiceCd=780&Type=search", "url2": null }, "geometry": { "type": "Point", "coordinates": [ 132.710670400000026, 33.7114378 ] } },
{ "type": "Feature", "properties": { "内容": "デイサービスごしき【地域密着型通所介護】愛媛県伊予市米湊736-3", "url": "https://www.kaigokensaku.mhlw.go.jp/38/index.php?action_kouhyou_detail_004_kani=true&JigyosyoCd=3871000471-00&ServiceCd=780&Type=search", "url2": null }, "geometry": { "type": "Point", "coordinates": [ 132.704406899999981, 33.7579181 ] } },
{ "type": "Feature", "properties": { "内容": "指定通所介護事業所　野中【地域密着型通所介護】愛媛県伊予市中山町出渕3番耕地21番地", "url": "https://www.kaigokensaku.mhlw.go.jp/38/index.php?action_kouhyou_detail_004_kani=true&JigyosyoCd=3871000497-00&ServiceCd=780&Type=search", "url2": "http://www.koubaien-b.jp/" }, "geometry": { "type": "Point", "coordinates": [ 132.710379699999976, 33.6405568 ] } },
{ "type": "Feature", "properties": { "内容": "デイサービス　あいらんど上野【地域密着型通所介護】愛媛県伊予市上野1267番地", "url": "https://www.kaigokensaku.mhlw.go.jp/38/index.php?action_kouhyou_detail_004_kani=true&JigyosyoCd=3871000679-00&ServiceCd=780&Type=search", "url2": null }, "geometry": { "type": "Point", "coordinates": [ 132.7517517, 33.7756195 ] } },
{ "type": "Feature", "properties": { "内容": "指定通所介護事業所　佐礼谷【地域密着型通所介護】愛媛県伊予市中山町佐礼谷甲1121番地１", "url": "https://www.kaigokensaku.mhlw.go.jp/38/index.php?action_kouhyou_detail_004_kani=true&JigyosyoCd=3873500387-00&ServiceCd=780&Type=search", "url2": "http://www.koubaien-b.jp/" }, "geometry": { "type": "Point", "coordinates": [ 132.720825188150485, 33.6822822637385 ] } },
{ "type": "Feature", "properties": { "内容": "宅老所かざぐるま【地域密着型通所介護】愛媛県伊予市灘町22番地", "url": "https://www.kaigokensaku.mhlw.go.jp/38/index.php?action_kouhyou_detail_004_kani=true&JigyosyoCd=3891000113-00&ServiceCd=780&Type=search", "url2": null }, "geometry": { "type": "Point", "coordinates": [ 132.702132255819691, 33.758848027275171 ] } },
{ "type": "Feature", "properties": { "内容": "リビングデイ　陽だまりの家【地域密着型通所介護】愛媛県伊予市下吾川1411番地1", "url": "https://www.kaigokensaku.mhlw.go.jp/38/index.php?action_kouhyou_detail_004_kani=true&JigyosyoCd=3871000661-00&ServiceCd=780&Type=search", "url2": "www.npo-ls-ai.com" }, "geometry": { "type": "Point", "coordinates": [ 132.704223500000012, 33.7651922 ] } },
{ "type": "Feature", "properties": { "内容": "デイサービス元気いっぱい【地域密着型通所介護】愛媛県四国中央市寒川町4154", "url": "https://www.kaigokensaku.mhlw.go.jp/38/index.php?action_kouhyou_detail_004_kani=true&JigyosyoCd=3871301051-00&ServiceCd=780&Type=search", "url2": "https://www.genki5081.com/" }, "geometry": { "type": "Point", "coordinates": [ 133.5003312, 33.9653811 ] } },
{ "type": "Feature", "properties": { "内容": "元気デイサービスまんなか【地域密着型通所介護】愛媛県四国中央市上柏町7番地3", "url": "https://www.kaigokensaku.mhlw.go.jp/38/index.php?action_kouhyou_detail_004_kani=true&JigyosyoCd=3871300616-00&ServiceCd=780&Type=search", "url2": "https://suzuran-kaigo.net/" }, "geometry": { "type": "Point", "coordinates": [ 133.555939, 33.9832074 ] } },
{ "type": "Feature", "properties": { "内容": "ディサービス　かざみどり【地域密着型通所介護】愛媛県四国中央市妻鳥町980番地1森商第2ビル　1F", "url": "https://www.kaigokensaku.mhlw.go.jp/38/index.php?action_kouhyou_detail_004_kani=true&JigyosyoCd=3871300996-00&ServiceCd=780&Type=search", "url2": null }, "geometry": { "type": "Point", "coordinates": [ 133.572156599999971, 33.9955306 ] } },
{ "type": "Feature", "properties": { "内容": "すきっぷリハビリデイサービスセンター【地域密着型通所介護】愛媛県四国中央市土居町土居252-1", "url": "https://www.kaigokensaku.mhlw.go.jp/38/index.php?action_kouhyou_detail_004_kani=true&JigyosyoCd=3891300380-00&ServiceCd=780&Type=search", "url2": null }, "geometry": { "type": "Point", "coordinates": [ 133.4297764, 33.962714 ] } },
{ "type": "Feature", "properties": { "内容": "デイサービスセンターレオナ【地域密着型通所介護】愛媛県四国中央市金生町下分1423", "url": "https://www.kaigokensaku.mhlw.go.jp/38/index.php?action_kouhyou_detail_004_kani=true&JigyosyoCd=3870800194-00&ServiceCd=780&Type=search", "url2": "http://www2.patt.gr.jp/~leona" }, "geometry": { "type": "Point", "coordinates": [ 133.582013700000061, 34.0003299 ] } },
{ "type": "Feature", "properties": { "内容": "四国中央市新宮デイサービスセンター【地域密着型通所介護】愛媛県四国中央市新宮町新宮50番地", "url": "https://www.kaigokensaku.mhlw.go.jp/38/index.php?action_kouhyou_detail_004_kani=true&JigyosyoCd=3871300079-00&ServiceCd=780&Type=search", "url2": "http://www.sikochu-syakyo.jp/" }, "geometry": { "type": "Point", "coordinates": [ 133.639841700000034, 33.9474474 ] } },
{ "type": "Feature", "properties": { "内容": "デイサービスのぞみ【地域密着型通所介護】愛媛県四国中央市土居町入野970番地", "url": "https://www.kaigokensaku.mhlw.go.jp/38/index.php?action_kouhyou_detail_004_kani=true&JigyosyoCd=3871300384-00&ServiceCd=780&Type=search", "url2": "http://matsukaze-hp.com" }, "geometry": { "type": "Point", "coordinates": [ 133.421702800000048, 33.9557466 ] } },
{ "type": "Feature", "properties": { "内容": "デイサービス喜楽【地域密着型通所介護】愛媛県四国中央市川之江町1887-9", "url": "https://www.kaigokensaku.mhlw.go.jp/38/index.php?action_kouhyou_detail_004_kani=true&JigyosyoCd=3871300749-00&ServiceCd=780&Type=search", "url2": "http://home.cosmostv.jp/kiraku/" }, "geometry": { "type": "Point", "coordinates": [ 133.574350500000037, 34.0118867 ] } },
{ "type": "Feature", "properties": { "内容": "一般型通所介護いしかわ【地域密着型通所介護】愛媛県四国中央市上分町738-2", "url": "https://www.kaigokensaku.mhlw.go.jp/38/index.php?action_kouhyou_detail_004_kani=true&JigyosyoCd=3871300772-00&ServiceCd=780&Type=search", "url2": "https://kenkou-kai.jp/" }, "geometry": { "type": "Point", "coordinates": [ 133.589682499999981, 33.9914729 ] } },
{ "type": "Feature", "properties": { "内容": "ケアスタジオ　ココロココ【地域密着型通所介護】愛媛県四国中央市妻鳥町１０１２－３サンライズⅡ　１階", "url": "https://www.kaigokensaku.mhlw.go.jp/38/index.php?action_kouhyou_detail_004_kani=true&JigyosyoCd=3871300822-00&ServiceCd=780&Type=search", "url2": null }, "geometry": { "type": "Point", "coordinates": [ 133.572733809227458, 33.996728840112674 ] } },
{ "type": "Feature", "properties": { "内容": "ディサービス愛【地域密着型通所介護】愛媛県四国中央市土居町上野乙１５６－2", "url": "https://www.kaigokensaku.mhlw.go.jp/38/index.php?action_kouhyou_detail_004_kani=true&JigyosyoCd=3871300905-00&ServiceCd=780&Type=search", "url2": null }, "geometry": { "type": "Point", "coordinates": [ 133.386990299999979, 33.943542099999981 ] } },
{ "type": "Feature", "properties": { "内容": "デイサービスなごみ【地域密着型通所介護】愛媛県四国中央市土居町小林1205", "url": "https://www.kaigokensaku.mhlw.go.jp/38/index.php?action_kouhyou_detail_004_kani=true&JigyosyoCd=3871300988-00&ServiceCd=780&Type=search", "url2": "https://www.nagomi.dd8.jp" }, "geometry": { "type": "Point", "coordinates": [ 133.435718, 33.9580994 ] } },
{ "type": "Feature", "properties": { "内容": "リハビリデイサービスきらり【地域密着型通所介護】愛媛県四国中央市村松町629番地1", "url": "https://www.kaigokensaku.mhlw.go.jp/38/index.php?action_kouhyou_detail_004_kani=true&JigyosyoCd=3871301119-00&ServiceCd=780&Type=search", "url2": "https://rsc60210.amebaownd.com/" }, "geometry": { "type": "Point", "coordinates": [ 133.557327594431285, 33.989918149539861 ] } },
{ "type": "Feature", "properties": { "内容": "デイサービスセンターリハスタジオWell【地域密着型通所介護】愛媛県四国中央市三島金子１丁目４番６号", "url": "https://www.kaigokensaku.mhlw.go.jp/38/index.php?action_kouhyou_detail_004_kani=true&JigyosyoCd=3891300273-00&ServiceCd=780&Type=search", "url2": "https://www.takemura-sekkotsu.com/company" }, "geometry": { "type": "Point", "coordinates": [ 133.5375977, 33.981232299999981 ] } },
{ "type": "Feature", "properties": { "内容": "リハプライドシンシア【地域密着型通所介護】愛媛県四国中央市金生町山田井乙18番3", "url": "https://www.kaigokensaku.mhlw.go.jp/38/index.php?action_kouhyou_detail_004_kani=true&JigyosyoCd=3891300281-00&ServiceCd=780&Type=search", "url2": "http://rehapride.co.jp/shinshiamendori/" }, "geometry": { "type": "Point", "coordinates": [ 133.589100636631287, 34.006768142963146 ] } },
{ "type": "Feature", "properties": { "内容": "かざみどり三島【地域密着型通所介護】愛媛県四国中央市中之庄町625-4", "url": "https://www.kaigokensaku.mhlw.go.jp/38/index.php?action_kouhyou_detail_004_kani=true&JigyosyoCd=3891300315-00&ServiceCd=780&Type=search", "url2": null }, "geometry": { "type": "Point", "coordinates": [ 133.535550400000034, 33.9743042 ] } },
{ "type": "Feature", "properties": { "内容": "デイサービスセンター煌き【地域密着型通所介護】愛媛県四国中央市中曾根町1257番地", "url": "https://www.kaigokensaku.mhlw.go.jp/38/index.php?action_kouhyou_detail_004_kani=true&JigyosyoCd=3891300349-00&ServiceCd=780&Type=search", "url2": "http://www.kirameki-uma.com" }, "geometry": { "type": "Point", "coordinates": [ 133.550570611639387, 33.972944656617919 ] } },
{ "type": "Feature", "properties": { "内容": "まごころはうす　かまやん【地域密着型通所介護】愛媛県四国中央市川之江町1660番地8", "url": "https://www.kaigokensaku.mhlw.go.jp/38/index.php?action_kouhyou_detail_004_kani=true&JigyosyoCd=3871300723-00&ServiceCd=780&Type=search", "url2": "https://www.instagram.com/kamayan2017/" }, "geometry": { "type": "Point", "coordinates": [ 133.574153823073658, 34.014329248950048 ] } },
{ "type": "Feature", "properties": { "内容": "デイ・サービスセンター「むらまつ」【地域密着型通所介護】愛媛県四国中央市村松町７８１番地１", "url": "https://www.kaigokensaku.mhlw.go.jp/38/index.php?action_kouhyou_detail_004_kani=true&JigyosyoCd=3871300871-00&ServiceCd=780&Type=search", "url2": "https://kenkou-kai.jp/" }, "geometry": { "type": "Point", "coordinates": [ 133.558876150926153, 33.993509258185497 ] } },
{ "type": "Feature", "properties": { "内容": "ＪＡうまデイサービスセンターあったか荘三島【地域密着型通所介護】中之庄町1684-4", "url": "https://www.kaigokensaku.mhlw.go.jp/38/index.php?action_kouhyou_detail_004_kani=true&JigyosyoCd=3891300463-00&ServiceCd=780&Type=search", "url2": null }, "geometry": { "type": "Point", "coordinates": [ 133.5310323, 33.9797314 ] } },
{ "type": "Feature", "properties": { "内容": "共楽園【地域密着型通所介護】愛媛県四国中央市寒川町1792番地2", "url": "https://www.kaigokensaku.mhlw.go.jp/38/index.php?action_kouhyou_detail_004_kani=true&JigyosyoCd=3891300448-00&ServiceCd=780&Type=search", "url2": "https://iyo-fsk.com" }, "geometry": { "type": "Point", "coordinates": [ 133.5168951, 33.9636533 ] } },
{ "type": "Feature", "properties": { "内容": "デイサービスねんりん【地域密着型通所介護】愛媛県四国中央市中曽根町2207-1", "url": "https://www.kaigokensaku.mhlw.go.jp/38/index.php?action_kouhyou_detail_004_kani=true&JigyosyoCd=3891300364-00&ServiceCd=780&Type=search", "url2": "http://www.nenrin-support.com/service02/" }, "geometry": { "type": "Point", "coordinates": [ 133.5558883, 33.9647985 ] } },
{ "type": "Feature", "properties": { "内容": "デイサービス元気いっぱい【地域密着型通所介護】愛媛県四国中央市寒川町4154番地", "url": "https://www.kaigokensaku.mhlw.go.jp/38/index.php?action_kouhyou_detail_004_kani=true&JigyosyoCd=3891300455-00&ServiceCd=780&Type=search", "url2": null }, "geometry": { "type": "Point", "coordinates": [ 133.5004037, 33.9654142 ] } },
{ "type": "Feature", "properties": { "内容": "明浜デイサービスセンター【地域密着型通所介護】愛媛県西予市明浜町狩浜2-1177番地", "url": "https://www.kaigokensaku.mhlw.go.jp/38/index.php?action_kouhyou_detail_004_kani=true&JigyosyoCd=3871400440-00&ServiceCd=780&Type=search", "url2": "http://www.seiyofukushi.com" }, "geometry": { "type": "Point", "coordinates": [ 132.465639976057446, 33.321130100840051 ] } },
{ "type": "Feature", "properties": { "内容": "デイサービスセンターだんだん三瓶【地域密着型通所介護】愛媛県西予市三瓶町垣生丙11番地1", "url": "https://www.kaigokensaku.mhlw.go.jp/38/index.php?action_kouhyou_detail_004_kani=true&JigyosyoCd=3891400131-00&ServiceCd=780&Type=search", "url2": null }, "geometry": { "type": "Point", "coordinates": [ 132.410774800000013, 33.384723 ] } },
{ "type": "Feature", "properties": { "内容": "デイサービスセンターまほろば【地域密着型通所介護】愛媛県西予市三瓶町朝立2-1-7", "url": "https://www.kaigokensaku.mhlw.go.jp/38/index.php?action_kouhyou_detail_004_kani=true&JigyosyoCd=3891400172-00&ServiceCd=780&Type=search", "url2": null }, "geometry": { "type": "Point", "coordinates": [ 132.4255801, 33.3847046 ] } },
{ "type": "Feature", "properties": { "内容": "あんしんの家【地域密着型通所介護】愛媛県西予市宇和町さくら1番地82", "url": "https://www.kaigokensaku.mhlw.go.jp/38/index.php?action_kouhyou_detail_004_kani=true&JigyosyoCd=3871400218-00&ServiceCd=780&Type=search", "url2": "http://www.seiyofukushi.com/jigyou01/index.html#a14" }, "geometry": { "type": "Point", "coordinates": [ 132.525404699999967, 33.3745466 ] } },
{ "type": "Feature", "properties": { "内容": "デイサービスセンター皆楽園【地域密着型通所介護】愛媛県西予市三瓶町皆江2598-1", "url": "https://www.kaigokensaku.mhlw.go.jp/38/index.php?action_kouhyou_detail_004_kani=true&JigyosyoCd=3871400374-00&ServiceCd=780&Type=search", "url2": "http://www.seiyofukushi.com/" }, "geometry": { "type": "Point", "coordinates": [ 132.411467499999958, 33.3483991 ] } },
{ "type": "Feature", "properties": { "内容": "ＪＡ東宇和デイサービス稔の郷清沢【地域密着型通所介護】愛媛県西予市宇和町清沢1042", "url": "https://www.kaigokensaku.mhlw.go.jp/38/index.php?action_kouhyou_detail_004_kani=true&JigyosyoCd=3871400572-00&ServiceCd=780&Type=search", "url2": null }, "geometry": { "type": "Point", "coordinates": [ 132.490993500000059, 33.3887328 ] } },
{ "type": "Feature", "properties": { "内容": "ディサービス　あしからげんき【地域密着型通所介護】愛媛県西予市野村町野村2号109番地1", "url": "https://www.kaigokensaku.mhlw.go.jp/38/index.php?action_kouhyou_detail_004_kani=true&JigyosyoCd=3871400663-00&ServiceCd=780&Type=search", "url2": "https://r.goope.jp/turukame-asikara/about" }, "geometry": { "type": "Point", "coordinates": [ 132.650255609848045, 33.380327411455362 ] } },
{ "type": "Feature", "properties": { "内容": "デイサービスセンターこはるの里【地域密着型通所介護】愛媛県西予市明浜町俵津4-45", "url": "https://www.kaigokensaku.mhlw.go.jp/38/index.php?action_kouhyou_detail_004_kani=true&JigyosyoCd=3891400123-00&ServiceCd=780&Type=search", "url2": "http://www.care-net.biz/38/hyakushouikki/" }, "geometry": { "type": "Point", "coordinates": [ 132.487938, 33.3292936 ] } },
{ "type": "Feature", "properties": { "内容": "デイサービス　のんびり家【地域密着型通所介護】愛媛県西予市宇和町野田45番地", "url": "https://www.kaigokensaku.mhlw.go.jp/38/index.php?action_kouhyou_detail_004_kani=true&JigyosyoCd=3891400149-00&ServiceCd=780&Type=search", "url2": "https://daynonbiriya.wixsite.com/website" }, "geometry": { "type": "Point", "coordinates": [ 132.4883285, 33.3590045 ] } },
{ "type": "Feature", "properties": { "内容": "通所介護事業所惣川高齢者生活福祉センター【地域密着型通所介護】愛媛県西予市野村町舟戸2097番地", "url": "https://www.kaigokensaku.mhlw.go.jp/38/index.php?action_kouhyou_detail_004_kani=true&JigyosyoCd=3873800225-00&ServiceCd=780&Type=search", "url2": "https://noshiro-f.jp/" }, "geometry": { "type": "Point", "coordinates": [ 132.7709486, 33.457595 ] } },
{ "type": "Feature", "properties": { "内容": "ななほし中川【地域密着型通所介護】愛媛県西予市宇和町田苗真土１９９４番地１", "url": "https://www.kaigokensaku.mhlw.go.jp/38/index.php?action_kouhyou_detail_004_kani=true&JigyosyoCd=3871400556-00&ServiceCd=780&Type=search", "url2": "http://www.seiyoｆukushi.com/" }, "geometry": { "type": "Point", "coordinates": [ 132.507526399999961, 33.399763100000015 ] } },
{ "type": "Feature", "properties": { "内容": "デイサービスコンフォール【地域密着型通所介護】愛媛県東温市志津川南5丁目1番地9コンフォール志津川", "url": "https://www.kaigokensaku.mhlw.go.jp/38/index.php?action_kouhyou_detail_004_kani=true&JigyosyoCd=3871500165-00&ServiceCd=780&Type=search", "url2": null }, "geometry": { "type": "Point", "coordinates": [ 132.876912833877753, 33.80127148315399 ] } },
{ "type": "Feature", "properties": { "内容": "デイサービス　アルモ【地域密着型通所介護】愛媛県東温市見奈良811番地1シニアライフセンター", "url": "https://www.kaigokensaku.mhlw.go.jp/38/index.php?action_kouhyou_detail_004_kani=true&JigyosyoCd=3871500207-00&ServiceCd=780&Type=search", "url2": "http://muguet-slc.com/" }, "geometry": { "type": "Point", "coordinates": [ 132.876973641625227, 33.795483940921464 ] } },
{ "type": "Feature", "properties": { "内容": "リハプライド　とうおん【地域密着型通所介護】志津川121番地2", "url": "https://www.kaigokensaku.mhlw.go.jp/38/index.php?action_kouhyou_detail_004_kani=true&JigyosyoCd=3871500231-00&ServiceCd=780&Type=search", "url2": "http://www.rehapride.co.jp/toon/" }, "geometry": { "type": "Point", "coordinates": [ 132.878137299999906, 33.8055722 ] } },
{ "type": "Feature", "properties": { "内容": "上島町魚島デイサービスセンター【地域密着型通所介護】愛媛県越智郡上島町魚島一番耕地1367番地2", "url": "https://www.kaigokensaku.mhlw.go.jp/38/index.php?action_kouhyou_detail_004_kani=true&JigyosyoCd=3873200863-00&ServiceCd=780&Type=search", "url2": null }, "geometry": { "type": "Point", "coordinates": [ 133.320496100000014, 34.1774982 ] } },
{ "type": "Feature", "properties": { "内容": "上島町社協生名通所介護事業所【地域密着型通所介護】愛媛県越智郡上島町生名2133番地3上島町生名デイサービスセンター", "url": "https://www.kaigokensaku.mhlw.go.jp/38/index.php?action_kouhyou_detail_004_kani=true&JigyosyoCd=3873200913-00&ServiceCd=780&Type=search", "url2": "https://www.kamijima-shakyo.or.jp/" }, "geometry": { "type": "Point", "coordinates": [ 133.176452599999948, 34.2799004 ] } },
{ "type": "Feature", "properties": { "内容": "上島町社協岩城通所介護事業所【地域密着型通所介護】愛媛県越智郡上島町岩城2239番地", "url": "https://www.kaigokensaku.mhlw.go.jp/38/index.php?action_kouhyou_detail_004_kani=true&JigyosyoCd=3873200921-00&ServiceCd=780&Type=search", "url2": "https://www.kamijima-shakyo.or.jp/" }, "geometry": { "type": "Point", "coordinates": [ 133.141865700000039, 34.2482635 ] } },
{ "type": "Feature", "properties": { "内容": "上島町社協弓削通所介護事業所【地域密着型通所介護】愛媛県越智郡上島町弓削上弓削１９０７番地１", "url": "https://www.kaigokensaku.mhlw.go.jp/38/index.php?action_kouhyou_detail_004_kani=true&JigyosyoCd=3873200996-00&ServiceCd=780&Type=search", "url2": "https://www.kamijima-shakyo.or.jp/" }, "geometry": { "type": "Point", "coordinates": [ 133.210867199999939, 34.2796163 ] } },
{ "type": "Feature", "properties": { "内容": "デイサービスはっぴい横丁【地域密着型通所介護】愛媛県越智郡上島町弓削下弓削４６０番地株式会社幸福丸", "url": "https://www.kaigokensaku.mhlw.go.jp/38/index.php?action_kouhyou_detail_004_kani=true&JigyosyoCd=3873201002-00&ServiceCd=780&Type=search", "url2": null }, "geometry": { "type": "Point", "coordinates": [ 133.20725839021307, 34.257375928390125 ] } },
{ "type": "Feature", "properties": { "内容": "デイサービス　すまいる【地域密着型通所介護】愛媛県越智郡上島町生名508番地", "url": "https://www.kaigokensaku.mhlw.go.jp/38/index.php?action_kouhyou_detail_004_kani=true&JigyosyoCd=3893200042-00&ServiceCd=780&Type=search", "url2": null }, "geometry": { "type": "Point", "coordinates": [ 133.184274432655343, 34.267479325037179 ] } },
{ "type": "Feature", "properties": { "内容": "デイサービスセンターおもご【地域密着型通所介護】愛媛県上浮穴郡久万高原町渋草2310番地おもご高齢者生活支援ハウス", "url": "https://www.kaigokensaku.mhlw.go.jp/38/index.php?action_kouhyou_detail_004_kani=true&JigyosyoCd=3873400414-00&ServiceCd=780&Type=search", "url2": "http://www.kumakougen-shakyo.or.jp/" }, "geometry": { "type": "Point", "coordinates": [ 133.033252600000054, 33.688162699999985 ] } },
{ "type": "Feature", "properties": { "内容": "美川デイサービスセンター【地域密着型通所介護】愛媛県上浮穴郡久万高原町上黒岩2920番地1", "url": "https://www.kaigokensaku.mhlw.go.jp/38/index.php?action_kouhyou_detail_004_kani=true&JigyosyoCd=3893400055-00&ServiceCd=780&Type=search", "url2": "http://www.kumakougen-shakyo.or.jp" }, "geometry": { "type": "Point", "coordinates": [ 132.976330499999989, 33.6144018 ] } },
{ "type": "Feature", "properties": { "内容": "有限会社デイサービスさくら【地域密着型通所介護】愛媛県伊予郡松前町大字恵久美546番地6", "url": "https://www.kaigokensaku.mhlw.go.jp/38/index.php?action_kouhyou_detail_004_kani=true&JigyosyoCd=3873500809-00&ServiceCd=780&Type=search", "url2": null }, "geometry": { "type": "Point", "coordinates": [ 132.72685679999995, 33.7948893 ] } },
{ "type": "Feature", "properties": { "内容": "デイサービスセンターかおり【地域密着型通所介護】愛媛県伊予郡松前町筒井1579番地1", "url": "https://www.kaigokensaku.mhlw.go.jp/38/index.php?action_kouhyou_detail_004_kani=true&JigyosyoCd=3873500981-00&ServiceCd=780&Type=search", "url2": "https://kirari01.com/" }, "geometry": { "type": "Point", "coordinates": [ 132.701526199999989, 33.7920862 ] } },
{ "type": "Feature", "properties": { "内容": "リハプライド・アルバ有明【地域密着型通所介護】愛媛県伊予郡松前町上高柳259番地1", "url": "https://www.kaigokensaku.mhlw.go.jp/38/index.php?action_kouhyou_detail_004_kani=true&JigyosyoCd=3893500128-00&ServiceCd=780&Type=search", "url2": "http://www.matuno-cl.com" }, "geometry": { "type": "Point", "coordinates": [ 132.735002935581946, 33.798266507122555 ] } },
{ "type": "Feature", "properties": { "内容": "デイサービスセンター福家えびす店【地域密着型通所介護】愛媛県伊予郡松前町大字浜420番地2", "url": "https://www.kaigokensaku.mhlw.go.jp/38/index.php?action_kouhyou_detail_004_kani=true&JigyosyoCd=3893500136-00&ServiceCd=780&Type=search", "url2": null }, "geometry": { "type": "Point", "coordinates": [ 132.702700048685074, 33.789030513414367 ] } },
{ "type": "Feature", "properties": { "内容": "デイサービス施設　神南荘【地域密着型通所介護】愛媛県喜多郡内子町五十崎甲839番地", "url": "https://www.kaigokensaku.mhlw.go.jp/38/index.php?action_kouhyou_detail_004_kani=true&JigyosyoCd=3873600153-00&ServiceCd=780&Type=search", "url2": "https://kannansou.server-shared.com/" }, "geometry": { "type": "Point", "coordinates": [ 132.654294344705221, 33.531250198451581 ] } },
{ "type": "Feature", "properties": { "内容": "デイサービス施設みどり苑【地域密着型通所介護】愛媛県喜多郡内子町立山4740番地1", "url": "https://www.kaigokensaku.mhlw.go.jp/38/index.php?action_kouhyou_detail_004_kani=true&JigyosyoCd=3893600076-00&ServiceCd=780&Type=search", "url2": "http://userweb.u-broad.jp/ozukita-midori" }, "geometry": { "type": "Point", "coordinates": [ 132.672145300000011, 33.5914344 ] } },
{ "type": "Feature", "properties": { "内容": "内子町老人デイサービスセンターたんぽぽ【地域密着型通所介護】愛媛県喜多郡内子町五十崎甲945番地3", "url": "https://www.kaigokensaku.mhlw.go.jp/38/index.php?action_kouhyou_detail_004_kani=true&JigyosyoCd=3873600443-00&ServiceCd=780&Type=search", "url2": null }, "geometry": { "type": "Point", "coordinates": [ 132.654798600000049, 33.53506 ] } },
{ "type": "Feature", "properties": { "内容": "指定通所介護事業所済生会小田デイサービスセンター緑風荘【地域密着型通所介護】愛媛県喜多郡内子町小田１４９番地1", "url": "https://www.kaigokensaku.mhlw.go.jp/38/index.php?action_kouhyou_detail_004_kani=true&JigyosyoCd=3873400174-00&ServiceCd=780&Type=search", "url2": "http://ryokuhusou.com" }, "geometry": { "type": "Point", "coordinates": [ 132.8042021, 33.567929 ] } },
{ "type": "Feature", "properties": { "内容": "デイサービス施設古城園【地域密着型通所介護】愛媛県北宇和郡松野町大字豊岡4598番地第1", "url": "https://www.kaigokensaku.mhlw.go.jp/38/index.php?action_kouhyou_detail_004_kani=true&JigyosyoCd=3873900231-00&ServiceCd=780&Type=search", "url2": null }, "geometry": { "type": "Point", "coordinates": [ 132.704549300000053, 33.2226341 ] } },
{ "type": "Feature", "properties": { "内容": "デイサービス施設ひろみ奈良の里【地域密着型通所介護】愛媛県北宇和郡鬼北町大字奈良2067番地", "url": "https://www.kaigokensaku.mhlw.go.jp/38/index.php?action_kouhyou_detail_004_kani=true&JigyosyoCd=3873900397-00&ServiceCd=780&Type=search", "url2": "https://www.nanpu.or.jp/" }, "geometry": { "type": "Point", "coordinates": [ 132.657425500000045, 33.2512321 ] } },
{ "type": "Feature", "properties": { "内容": "デイホームよしふじ【地域密着型通所介護】愛媛県北宇和郡鬼北町大字東仲1016,1019番地", "url": "https://www.kaigokensaku.mhlw.go.jp/38/index.php?action_kouhyou_detail_004_kani=true&JigyosyoCd=3873900744-00&ServiceCd=780&Type=search", "url2": "http://www.care-village.jp/" }, "geometry": { "type": "Point", "coordinates": [ 132.654131399999983, 33.2676967 ] } },
{ "type": "Feature", "properties": { "内容": "デイサービス山茶花【地域密着型通所介護】北宇和郡鬼北町大字清延９３３番地１", "url": "https://www.kaigokensaku.mhlw.go.jp/38/index.php?action_kouhyou_detail_004_kani=true&JigyosyoCd=3873900850-00&ServiceCd=780&Type=search", "url2": null }, "geometry": { "type": "Point", "coordinates": [ 132.672546399999987, 33.2579012 ] } },
{ "type": "Feature", "properties": { "内容": "デイサービスおれんじ【地域密着型通所介護】愛媛県北宇和郡鬼北町大字国遠1440番地1", "url": "https://www.kaigokensaku.mhlw.go.jp/38/index.php?action_kouhyou_detail_004_kani=true&JigyosyoCd=3873900892-00&ServiceCd=780&Type=search", "url2": null }, "geometry": { "type": "Point", "coordinates": [ 132.682946479762251, 33.260405302240756 ] } },
{ "type": "Feature", "properties": { "内容": "もも太郎【地域密着型通所介護】愛媛県北宇和郡鬼北町大字近永３５３番地１", "url": "https://www.kaigokensaku.mhlw.go.jp/38/index.php?action_kouhyou_detail_004_kani=true&JigyosyoCd=3873900926-00&ServiceCd=780&Type=search", "url2": "https://kihoku-momotaro.jp/" }, "geometry": { "type": "Point", "coordinates": [ 132.671993599999951, 33.256862400000017 ] } },
{ "type": "Feature", "properties": { "内容": "デイサービス施設一本松荘【地域密着型通所介護】愛媛県南宇和郡愛南町中川1438番地1", "url": "https://www.kaigokensaku.mhlw.go.jp/38/index.php?action_kouhyou_detail_004_kani=true&JigyosyoCd=3874000239-00&ServiceCd=780&Type=search", "url2": "http://www.nanpu.or.jp/" }, "geometry": { "type": "Point", "coordinates": [ 132.6448418, 32.9566424 ] } },
{ "type": "Feature", "properties": { "内容": "デイサービス施設城辺みしま荘【地域密着型通所介護】愛媛県南宇和郡愛南町城辺乙561番地", "url": "https://www.kaigokensaku.mhlw.go.jp/38/index.php?action_kouhyou_detail_004_kani=true&JigyosyoCd=3874000247-00&ServiceCd=780&Type=search", "url2": null }, "geometry": { "type": "Point", "coordinates": [ 132.578268900000012, 32.9637832 ] } },
{ "type": "Feature", "properties": { "内容": "デイサービス施設柏寿園【地域密着型通所介護】愛媛県南宇和郡愛南町柏1542番地1", "url": "https://www.kaigokensaku.mhlw.go.jp/38/index.php?action_kouhyou_detail_004_kani=true&JigyosyoCd=3874000338-00&ServiceCd=780&Type=search", "url2": "https://www.nanpu.or.jp/gyosei/tokuyo.html" }, "geometry": { "type": "Point", "coordinates": [ 132.50468079999996, 33.0227204 ] } },
{ "type": "Feature", "properties": { "内容": "愛南町社協指定通所介護事業所【地域密着型通所介護】愛媛県南宇和郡愛南町樫月212番1", "url": "https://www.kaigokensaku.mhlw.go.jp/38/index.php?action_kouhyou_detail_004_kani=true&JigyosyoCd=3874000502-00&ServiceCd=780&Type=search", "url2": "http://www.ainan-shakyo.or.jp/" }, "geometry": { "type": "Point", "coordinates": [ 132.517134599999963, 32.9521025 ] } },
{ "type": "Feature", "properties": { "内容": "リハプライド・愛南【地域密着型通所介護】愛媛県南宇和郡愛南町城辺甲2575番地4", "url": "https://www.kaigokensaku.mhlw.go.jp/38/index.php?action_kouhyou_detail_004_kani=true&JigyosyoCd=3874000783-00&ServiceCd=780&Type=search", "url2": null }, "geometry": { "type": "Point", "coordinates": [ 132.585865300000023, 32.9624698 ] } },
{ "type": "Feature", "properties": { "内容": "デイサービスセンターハピネス【地域密着型通所介護】愛媛県南宇和郡愛南町緑甲697-1", "url": "https://www.kaigokensaku.mhlw.go.jp/38/index.php?action_kouhyou_detail_004_kani=true&JigyosyoCd=3874000791-00&ServiceCd=780&Type=search", "url2": null }, "geometry": { "type": "Point", "coordinates": [ 132.608446700000059, 32.9765558 ] } },
{ "type": "Feature", "properties": { "内容": "指定通所介護事業所　あいなんの里【地域密着型通所介護】愛媛県南宇和郡愛南町城辺甲211番地3", "url": "https://www.kaigokensaku.mhlw.go.jp/38/index.php?action_kouhyou_detail_004_kani=true&JigyosyoCd=3874000619-00&ServiceCd=780&Type=search", "url2": null }, "geometry": { "type": "Point", "coordinates": [ 132.570611800000052, 32.9588723 ] } },
{ "type": "Feature", "properties": { "内容": "デイサービス　諏訪の杜【地域密着型通所介護】愛媛県南宇和郡愛南町城辺甲2060番地１", "url": "https://www.kaigokensaku.mhlw.go.jp/38/index.php?action_kouhyou_detail_004_kani=true&JigyosyoCd=3874000692-00&ServiceCd=780&Type=search", "url2": null }, "geometry": { "type": "Point", "coordinates": [ 132.580988199999979, 32.9600616 ] } }
]
}
