{
"type": "FeatureCollection",
"name": "geo_38_訪問看護",
"crs": { "type": "name", "properties": { "name": "urn:ogc:def:crs:OGC:1.3:CRS84" } },
"features": [
{ "type": "Feature", "properties": { "内容": "医療法人社団　樹人会　北条病院【訪問看護】松山市河野中須賀288番地5", "url": "https://www.kaigokensaku.mhlw.go.jp/38/index.php?action_kouhyou_detail_004_kani=true&JigyosyoCd=3811110141-00&ServiceCd=130&Type=search", "url2": "https://www.hojo-hosp.jp/" }, "geometry": { "type": "Point", "coordinates": [ 132.769550900000013, 33.9464716 ] } },
{ "type": "Feature", "properties": { "内容": "訪問看護ステーション　まいぺーす【訪問看護】愛媛県松山市古三津5丁目6-22", "url": "https://www.kaigokensaku.mhlw.go.jp/38/index.php?action_kouhyou_detail_004_kani=true&JigyosyoCd=3860192651-00&ServiceCd=130&Type=search", "url2": "http://www.fukumoto-c.com/index.html" }, "geometry": { "type": "Point", "coordinates": [ 132.7275439, 33.8552427 ] } },
{ "type": "Feature", "properties": { "内容": "訪問看護ステーション松山市医師会【訪問看護】愛媛県松山市柳井町2丁目85番地", "url": "https://www.kaigokensaku.mhlw.go.jp/38/index.php?action_kouhyou_detail_004_kani=true&JigyosyoCd=3860190341-00&ServiceCd=130&Type=search", "url2": "https://www.matsuyama.ehime.med.or.jp/services/houmon_d.html" }, "geometry": { "type": "Point", "coordinates": [ 132.768438899999978, 33.8326916 ] } },
{ "type": "Feature", "properties": { "内容": "訪問看護ステーション「たちばな」【訪問看護】愛媛県松山市立花五丁目１番53号", "url": "https://www.kaigokensaku.mhlw.go.jp/38/index.php?action_kouhyou_detail_004_kani=true&JigyosyoCd=3860190788-00&ServiceCd=130&Type=search", "url2": "http://www.mhca.jp/" }, "geometry": { "type": "Point", "coordinates": [ 132.772019199999932, 33.8274896 ] } },
{ "type": "Feature", "properties": { "内容": "訪問看護ステーション　もものは【訪問看護】愛媛県松山市萱町五丁目10番地20", "url": "https://www.kaigokensaku.mhlw.go.jp/38/index.php?action_kouhyou_detail_004_kani=true&JigyosyoCd=3860192925-00&ServiceCd=130&Type=search", "url2": "jcare.xyz" }, "geometry": { "type": "Point", "coordinates": [ 132.7565121, 33.8506363 ] } },
{ "type": "Feature", "properties": { "内容": "訪問看護ステーションきさらぎ【訪問看護】愛媛県松山市余戸南五丁目5番21号", "url": "https://www.kaigokensaku.mhlw.go.jp/38/index.php?action_kouhyou_detail_004_kani=true&JigyosyoCd=3860192933-00&ServiceCd=130&Type=search", "url2": null }, "geometry": { "type": "Point", "coordinates": [ 132.7256154, 33.8088981 ] } },
{ "type": "Feature", "properties": { "内容": "医療法人　東西会　訪問看護ステーション千舟【訪問看護】愛媛県松山市千舟町6丁目4-9", "url": "https://www.kaigokensaku.mhlw.go.jp/38/index.php?action_kouhyou_detail_004_kani=true&JigyosyoCd=3860192982-00&ServiceCd=130&Type=search", "url2": null }, "geometry": { "type": "Point", "coordinates": [ 132.759003799999988, 33.8370303 ] } },
{ "type": "Feature", "properties": { "内容": "訪問看護ステーションせとか【訪問看護】祝谷町一丁目6‐10", "url": "https://www.kaigokensaku.mhlw.go.jp/38/index.php?action_kouhyou_detail_004_kani=true&JigyosyoCd=3860193022-00&ServiceCd=130&Type=search", "url2": "http://www.herzcaresetoka.com/" }, "geometry": { "type": "Point", "coordinates": [ 132.7838233, 33.8550829 ] } },
{ "type": "Feature", "properties": { "内容": "真光会　訪問看護ステーション　てくてく【訪問看護】愛媛県松山市南高井町1491", "url": "https://www.kaigokensaku.mhlw.go.jp/38/index.php?action_kouhyou_detail_004_kani=true&JigyosyoCd=3860192842-00&ServiceCd=130&Type=search", "url2": null }, "geometry": { "type": "Point", "coordinates": [ 132.8028755, 33.7948336 ] } },
{ "type": "Feature", "properties": { "内容": "カナ訪問看護サービス【訪問看護】愛媛県松山市北井門二丁目３－１２", "url": "https://www.kaigokensaku.mhlw.go.jp/38/index.php?action_kouhyou_detail_004_kani=true&JigyosyoCd=3860192172-00&ServiceCd=130&Type=search", "url2": "https://sites.google.com/view/kana-station/" }, "geometry": { "type": "Point", "coordinates": [ 132.782162800000037, 33.8021873 ] } },
{ "type": "Feature", "properties": { "内容": "訪問看護ステーションまわりみち【訪問看護】愛媛県松山市東野5丁目5-8", "url": "https://www.kaigokensaku.mhlw.go.jp/38/index.php?action_kouhyou_detail_004_kani=true&JigyosyoCd=3860192206-00&ServiceCd=130&Type=search", "url2": "https://www.mawarimiti.com" }, "geometry": { "type": "Point", "coordinates": [ 132.799306492676834, 33.839518218668871 ] } },
{ "type": "Feature", "properties": { "内容": "訪問看護ステーション　るま【訪問看護】愛媛県松山市春美町2番19号", "url": "https://www.kaigokensaku.mhlw.go.jp/38/index.php?action_kouhyou_detail_004_kani=true&JigyosyoCd=3860192271-00&ServiceCd=130&Type=search", "url2": null }, "geometry": { "type": "Point", "coordinates": [ 132.723183894651925, 33.869688774649021 ] } },
{ "type": "Feature", "properties": { "内容": "さくら診療所訪問看護事業所【訪問看護】愛媛県松山市高井町728番地3", "url": "https://www.kaigokensaku.mhlw.go.jp/38/index.php?action_kouhyou_detail_004_kani=true&JigyosyoCd=3810115976-00&ServiceCd=130&Type=search", "url2": "http://www.sakura-shinryojo.jp" }, "geometry": { "type": "Point", "coordinates": [ 132.813431400000013, 33.7981835 ] } },
{ "type": "Feature", "properties": { "内容": "訪問看護ステーションかりん【訪問看護】愛媛県松山市森松町107-1", "url": "https://www.kaigokensaku.mhlw.go.jp/38/index.php?action_kouhyou_detail_004_kani=true&JigyosyoCd=3860191596-00&ServiceCd=130&Type=search", "url2": "http://www.homenursing-karin.co.jp" }, "geometry": { "type": "Point", "coordinates": [ 132.796720099999987, 33.7908438 ] } },
{ "type": "Feature", "properties": { "内容": "訪問看護ステーションこころ【訪問看護】愛媛県松山市畑寺3丁目8-38", "url": "https://www.kaigokensaku.mhlw.go.jp/38/index.php?action_kouhyou_detail_004_kani=true&JigyosyoCd=3860193048-00&ServiceCd=130&Type=search", "url2": "http://cocoro-hokan.com" }, "geometry": { "type": "Point", "coordinates": [ 132.7973012, 33.8284545 ] } },
{ "type": "Feature", "properties": { "内容": "訪問看護ステーション　バディ【訪問看護】愛媛県松山市北久米町667", "url": "https://www.kaigokensaku.mhlw.go.jp/38/index.php?action_kouhyou_detail_004_kani=true&JigyosyoCd=3860193097-00&ServiceCd=130&Type=search", "url2": null }, "geometry": { "type": "Point", "coordinates": [ 132.795134932217707, 33.818020650596061 ] } },
{ "type": "Feature", "properties": { "内容": "セノーテ訪問看護愛媛松山ステーション【訪問看護】愛媛県松山市南江戸2丁目1番18号Credointeminamiedo101号室", "url": "https://www.kaigokensaku.mhlw.go.jp/38/index.php?action_kouhyou_detail_004_kani=true&JigyosyoCd=3860193139-00&ServiceCd=130&Type=search", "url2": "https://www.bgmgroup.co.jp" }, "geometry": { "type": "Point", "coordinates": [ 132.7483782, 33.8349543 ] } },
{ "type": "Feature", "properties": { "内容": "訪問看護ステーションめぐり愛【訪問看護】愛媛県松山市南久米町686－19番地メゾン・ド・白ばら102号", "url": "https://www.kaigokensaku.mhlw.go.jp/38/index.php?action_kouhyou_detail_004_kani=true&JigyosyoCd=3860193147-00&ServiceCd=130&Type=search", "url2": null }, "geometry": { "type": "Point", "coordinates": [ 132.8037567, 33.8119895 ] } },
{ "type": "Feature", "properties": { "内容": "訪問看護ステーションえひめ地球号！【訪問看護】愛媛県松山市石手四丁目10番44号", "url": "https://www.kaigokensaku.mhlw.go.jp/38/index.php?action_kouhyou_detail_004_kani=true&JigyosyoCd=3860192560-00&ServiceCd=130&Type=search", "url2": "https://www.shinenkai.or.jp/" }, "geometry": { "type": "Point", "coordinates": [ 132.792421, 33.8458908 ] } },
{ "type": "Feature", "properties": { "内容": "訪問看護ステーションいちばん星【訪問看護】愛媛県松山市小栗6丁目8-32", "url": "https://www.kaigokensaku.mhlw.go.jp/38/index.php?action_kouhyou_detail_004_kani=true&JigyosyoCd=3860193055-00&ServiceCd=130&Type=search", "url2": "https://1banboshi.my.canva.site/" }, "geometry": { "type": "Point", "coordinates": [ 132.756771937573234, 33.827721773366484 ] } },
{ "type": "Feature", "properties": { "内容": "訪問看護ステーションてとめ【訪問看護】愛媛県松山市六軒家町3-42ハローコートMM602号", "url": "https://www.kaigokensaku.mhlw.go.jp/38/index.php?action_kouhyou_detail_004_kani=true&JigyosyoCd=3860193188-00&ServiceCd=130&Type=search", "url2": "https://248-t.com" }, "geometry": { "type": "Point", "coordinates": [ 132.7487789, 33.8521432 ] } },
{ "type": "Feature", "properties": { "内容": "ステラステーション【訪問看護】愛媛県松山市祇園町1番37号ロイヤルコートⅡ101号室", "url": "https://www.kaigokensaku.mhlw.go.jp/38/index.php?action_kouhyou_detail_004_kani=true&JigyosyoCd=3860192826-00&ServiceCd=130&Type=search", "url2": "http://greenhealth.jp/" }, "geometry": { "type": "Point", "coordinates": [ 132.7742993, 33.8279184 ] } },
{ "type": "Feature", "properties": { "内容": "訪問看護ステーショアスレ【訪問看護】愛媛県松山市西石井１丁目１番３０号", "url": "https://www.kaigokensaku.mhlw.go.jp/38/index.php?action_kouhyou_detail_004_kani=true&JigyosyoCd=3860193121-00&ServiceCd=130&Type=search", "url2": "https://care-life-energy.jp/" }, "geometry": { "type": "Point", "coordinates": [ 132.774796900000013, 33.8163469 ] } },
{ "type": "Feature", "properties": { "内容": "医療法人　中川病院【訪問看護】愛媛県松山市南梅本町甲58番地", "url": "https://www.kaigokensaku.mhlw.go.jp/38/index.php?action_kouhyou_detail_004_kani=true&JigyosyoCd=3810111025-00&ServiceCd=130&Type=search", "url2": "https://www.nakagawa-hp.jp" }, "geometry": { "type": "Point", "coordinates": [ 132.836157800000024, 33.8013353 ] } },
{ "type": "Feature", "properties": { "内容": "訪問看護ステーションゆうわ【訪問看護】愛媛県松山市富久町360番地１", "url": "https://www.kaigokensaku.mhlw.go.jp/38/index.php?action_kouhyou_detail_004_kani=true&JigyosyoCd=3810111561-00&ServiceCd=130&Type=search", "url2": "http://www.yu-wakai.or.jp/" }, "geometry": { "type": "Point", "coordinates": [ 132.726991, 33.8219148 ] } },
{ "type": "Feature", "properties": { "内容": "訪問看護ステーションベテル【訪問看護】愛媛県松山市祝谷6丁目1229", "url": "https://www.kaigokensaku.mhlw.go.jp/38/index.php?action_kouhyou_detail_004_kani=true&JigyosyoCd=3860190002-00&ServiceCd=130&Type=search", "url2": "https://www.bethel.or.jp" }, "geometry": { "type": "Point", "coordinates": [ 132.772928158852238, 33.863672192564032 ] } },
{ "type": "Feature", "properties": { "内容": "東松山訪問看護ステーション【訪問看護】愛媛県松山市南土居町70番地4", "url": "https://www.kaigokensaku.mhlw.go.jp/38/index.php?action_kouhyou_detail_004_kani=true&JigyosyoCd=3860190036-00&ServiceCd=130&Type=search", "url2": "http://www.jikyoukai.or.jp/" }, "geometry": { "type": "Point", "coordinates": [ 132.806434442050175, 33.800131990464159 ] } },
{ "type": "Feature", "properties": { "内容": "済生会松山訪問看護ステーション【訪問看護】愛媛県松山市山西町846-1", "url": "https://www.kaigokensaku.mhlw.go.jp/38/index.php?action_kouhyou_detail_004_kani=true&JigyosyoCd=3860190093-00&ServiceCd=130&Type=search", "url2": "saimatsu-houmon.com" }, "geometry": { "type": "Point", "coordinates": [ 132.721920449290479, 33.851381412094497 ] } },
{ "type": "Feature", "properties": { "内容": "訪問看護ステーション愛媛【訪問看護】愛媛県松山市道後町2丁目11－14", "url": "https://www.kaigokensaku.mhlw.go.jp/38/index.php?action_kouhyou_detail_004_kani=true&JigyosyoCd=3860190135-00&ServiceCd=130&Type=search", "url2": "https://www.nursing-ehime.or.jp/" }, "geometry": { "type": "Point", "coordinates": [ 132.782046, 33.8496122 ] } },
{ "type": "Feature", "properties": { "内容": "訪問看護ステーションミネルワ【訪問看護】愛媛県松山市高岡町302番地2", "url": "https://www.kaigokensaku.mhlw.go.jp/38/index.php?action_kouhyou_detail_004_kani=true&JigyosyoCd=3860190150-00&ServiceCd=130&Type=search", "url2": "http://www.mineruwa.jp/" }, "geometry": { "type": "Point", "coordinates": [ 132.722281899999984, 33.8264354 ] } },
{ "type": "Feature", "properties": { "内容": "訪問看護リハビリステーションあい【訪問看護】愛媛県松山市六軒家町4-16TSビル2階", "url": "https://www.kaigokensaku.mhlw.go.jp/38/index.php?action_kouhyou_detail_004_kani=true&JigyosyoCd=3860190168-00&ServiceCd=130&Type=search", "url2": "http://dojinkai.jp/" }, "geometry": { "type": "Point", "coordinates": [ 132.75249681193398, 33.851488892020441 ] } },
{ "type": "Feature", "properties": { "内容": "南高井訪問看護ステーション【訪問看護】愛媛県松山市南高井町320-1", "url": "https://www.kaigokensaku.mhlw.go.jp/38/index.php?action_kouhyou_detail_004_kani=true&JigyosyoCd=3860190192-00&ServiceCd=130&Type=search", "url2": "http://www.tensinkai.or.jp" }, "geometry": { "type": "Point", "coordinates": [ 132.824575500000037, 33.7880282 ] } },
{ "type": "Feature", "properties": { "内容": "訪問看護ステーション　たかのこ館【訪問看護】愛媛県松山市鷹子町527-1", "url": "https://www.kaigokensaku.mhlw.go.jp/38/index.php?action_kouhyou_detail_004_kani=true&JigyosyoCd=3860190226-00&ServiceCd=130&Type=search", "url2": "https://takanoko-hsp.jp/takanokokan/casestudy.html" }, "geometry": { "type": "Point", "coordinates": [ 132.81493439999997, 33.8136753 ] } },
{ "type": "Feature", "properties": { "内容": "訪問看護ステーションたんぽぽ【訪問看護】愛媛県松山市来住町1091-1", "url": "https://www.kaigokensaku.mhlw.go.jp/38/index.php?action_kouhyou_detail_004_kani=true&JigyosyoCd=3860190317-00&ServiceCd=130&Type=search", "url2": "http://www.ehime-med.or.jp" }, "geometry": { "type": "Point", "coordinates": [ 132.798375, 33.8086813 ] } },
{ "type": "Feature", "properties": { "内容": "訪問看護ステーション『さだもと』【訪問看護】愛媛県松山市竹原町1丁目4番地2", "url": "https://www.kaigokensaku.mhlw.go.jp/38/index.php?action_kouhyou_detail_004_kani=true&JigyosyoCd=3860190382-00&ServiceCd=130&Type=search", "url2": "sadamoto-hsp.jp" }, "geometry": { "type": "Point", "coordinates": [ 132.754842899999971, 33.833355 ] } },
{ "type": "Feature", "properties": { "内容": "訪問看護ステ－ションみさわ【訪問看護】愛媛県松山市美沢一丁目10番38号", "url": "https://www.kaigokensaku.mhlw.go.jp/38/index.php?action_kouhyou_detail_004_kani=true&JigyosyoCd=3860190572-00&ServiceCd=130&Type=search", "url2": "https://www.souseikai.jp/" }, "geometry": { "type": "Point", "coordinates": [ 132.7507766, 33.8510444 ] } },
{ "type": "Feature", "properties": { "内容": "訪問看護ステーション天山【訪問看護】愛媛県松山市天山二丁目3番30号", "url": "https://www.kaigokensaku.mhlw.go.jp/38/index.php?action_kouhyou_detail_004_kani=true&JigyosyoCd=3860190648-00&ServiceCd=130&Type=search", "url2": "http://www.junpu.or.jp/amayamahp/kaigo_hoken/kaigo_service/houmon_kango_station/" }, "geometry": { "type": "Point", "coordinates": [ 132.777954799999947, 33.8192824 ] } },
{ "type": "Feature", "properties": { "内容": "訪問看護ステーションほのか【訪問看護】愛媛県松山市朝生田町七丁目13番28号", "url": "https://www.kaigokensaku.mhlw.go.jp/38/index.php?action_kouhyou_detail_004_kani=true&JigyosyoCd=3860190655-00&ServiceCd=130&Type=search", "url2": "http://www.cross-service.co.jp" }, "geometry": { "type": "Point", "coordinates": [ 132.761623200000031, 33.8201568 ] } },
{ "type": "Feature", "properties": { "内容": "アシストジャパン訪問看護ステーション【訪問看護】愛媛県松山市南高井町1817番地1", "url": "https://www.kaigokensaku.mhlw.go.jp/38/index.php?action_kouhyou_detail_004_kani=true&JigyosyoCd=3860190739-00&ServiceCd=130&Type=search", "url2": "http://www.assistjapan.com/" }, "geometry": { "type": "Point", "coordinates": [ 132.806285399999979, 33.790386 ] } },
{ "type": "Feature", "properties": { "内容": "訪問看護ステーションコスモス【訪問看護】愛媛県松山市別府町444番1", "url": "https://www.kaigokensaku.mhlw.go.jp/38/index.php?action_kouhyou_detail_004_kani=true&JigyosyoCd=3860190911-00&ServiceCd=130&Type=search", "url2": "http://www.tampopo-clinic.com" }, "geometry": { "type": "Point", "coordinates": [ 132.7226541, 33.8443361 ] } },
{ "type": "Feature", "properties": { "内容": "愛媛リハビリ訪問看護ステーション【訪問看護】愛媛県松山市中野町３６６番地1", "url": "https://www.kaigokensaku.mhlw.go.jp/38/index.php?action_kouhyou_detail_004_kani=true&JigyosyoCd=3860190945-00&ServiceCd=130&Type=search", "url2": "ehime-rehab.co.jp" }, "geometry": { "type": "Point", "coordinates": [ 132.82654717642518, 33.778569937084079 ] } },
{ "type": "Feature", "properties": { "内容": "訪問看護ステーションみかん【訪問看護】愛媛県松山市久万ノ台1206番地2", "url": "https://www.kaigokensaku.mhlw.go.jp/38/index.php?action_kouhyou_detail_004_kani=true&JigyosyoCd=3860191075-00&ServiceCd=130&Type=search", "url2": "http://www.rihasta-mikan.com/" }, "geometry": { "type": "Point", "coordinates": [ 132.744033309756446, 33.85786029615889 ] } },
{ "type": "Feature", "properties": { "内容": "ユアーズ・ケア訪問看護ステーション【訪問看護】愛媛県松山市東方町甲1291番地1", "url": "https://www.kaigokensaku.mhlw.go.jp/38/index.php?action_kouhyou_detail_004_kani=true&JigyosyoCd=3860191117-00&ServiceCd=130&Type=search", "url2": "http://yours-care.jp/" }, "geometry": { "type": "Point", "coordinates": [ 132.819102113491795, 33.769591034313883 ] } },
{ "type": "Feature", "properties": { "内容": "訪問看護ステーション　かなで【訪問看護】愛媛県松山市古川北二丁目13番3号", "url": "https://www.kaigokensaku.mhlw.go.jp/38/index.php?action_kouhyou_detail_004_kani=true&JigyosyoCd=3860191224-00&ServiceCd=130&Type=search", "url2": "http://www.kanade-st.jp" }, "geometry": { "type": "Point", "coordinates": [ 132.764053699999977, 33.8127883 ] } },
{ "type": "Feature", "properties": { "内容": "セントケア訪問看護ステーション松山【訪問看護】愛媛県松山市古三津2丁目20-1", "url": "https://www.kaigokensaku.mhlw.go.jp/38/index.php?action_kouhyou_detail_004_kani=true&JigyosyoCd=3860191273-00&ServiceCd=130&Type=search", "url2": null }, "geometry": { "type": "Point", "coordinates": [ 132.728007466910469, 33.860912452024913 ] } },
{ "type": "Feature", "properties": { "内容": "訪問看護ステーションアルク【訪問看護】愛媛県松山市小坂４丁目３番２０号　Luft小坂１F", "url": "https://www.kaigokensaku.mhlw.go.jp/38/index.php?action_kouhyou_detail_004_kani=true&JigyosyoCd=3860191323-00&ServiceCd=130&Type=search", "url2": "https://ixio.ltd/" }, "geometry": { "type": "Point", "coordinates": [ 132.78145383010235, 33.827636596026991 ] } },
{ "type": "Feature", "properties": { "内容": "訪問看護ステーションてとて【訪問看護】愛媛県松山市来住町1057番地1", "url": "https://www.kaigokensaku.mhlw.go.jp/38/index.php?action_kouhyou_detail_004_kani=true&JigyosyoCd=3860191331-00&ServiceCd=130&Type=search", "url2": "http://www.cross-service.co.jp" }, "geometry": { "type": "Point", "coordinates": [ 132.798191699999961, 33.8037957 ] } },
{ "type": "Feature", "properties": { "内容": "訪問看護ステーション　アップル【訪問看護】愛媛県松山市古三津四丁目625番地春風館", "url": "https://www.kaigokensaku.mhlw.go.jp/38/index.php?action_kouhyou_detail_004_kani=true&JigyosyoCd=3860191398-00&ServiceCd=130&Type=search", "url2": "http://www.mitsuseikei.jp/apple/" }, "geometry": { "type": "Point", "coordinates": [ 132.73045060000004, 33.8554322 ] } },
{ "type": "Feature", "properties": { "内容": "訪問看護ステーションゆい【訪問看護】愛媛県松山市馬木町2251番地2", "url": "https://www.kaigokensaku.mhlw.go.jp/38/index.php?action_kouhyou_detail_004_kani=true&JigyosyoCd=3860191422-00&ServiceCd=130&Type=search", "url2": "http://yui-cm.wix.com/architect-co-jp" }, "geometry": { "type": "Point", "coordinates": [ 132.745552240245075, 33.89163666572415 ] } },
{ "type": "Feature", "properties": { "内容": "訪問看護ステーション　安信【訪問看護】愛媛県松山市山越2丁目10-11グランシェル101", "url": "https://www.kaigokensaku.mhlw.go.jp/38/index.php?action_kouhyou_detail_004_kani=true&JigyosyoCd=3860191612-00&ServiceCd=130&Type=search", "url2": "https://m-anshin.com/" }, "geometry": { "type": "Point", "coordinates": [ 132.753492140767719, 33.860528492711232 ] } },
{ "type": "Feature", "properties": { "内容": "絆プラス訪問看護ステーション【訪問看護】愛媛県松山市谷町63-1", "url": "https://www.kaigokensaku.mhlw.go.jp/38/index.php?action_kouhyou_detail_004_kani=true&JigyosyoCd=3860191687-00&ServiceCd=130&Type=search", "url2": null }, "geometry": { "type": "Point", "coordinates": [ 132.75187649999998, 33.8765611 ] } },
{ "type": "Feature", "properties": { "内容": "訪問看護ステーション　きずな【訪問看護】愛媛県松山市保免西１丁目３番９号グレースハイツ保免301", "url": "https://www.kaigokensaku.mhlw.go.jp/38/index.php?action_kouhyou_detail_004_kani=true&JigyosyoCd=3860191729-00&ServiceCd=130&Type=search", "url2": null }, "geometry": { "type": "Point", "coordinates": [ 132.744821900000034, 33.8168123 ] } },
{ "type": "Feature", "properties": { "内容": "訪問看護ステーションひなたぼっこ【訪問看護】愛媛県松山市平井町甲3250-5", "url": "https://www.kaigokensaku.mhlw.go.jp/38/index.php?action_kouhyou_detail_004_kani=true&JigyosyoCd=3860191752-00&ServiceCd=130&Type=search", "url2": "https://jvnf.or.jp/hinatabokko/" }, "geometry": { "type": "Point", "coordinates": [ 132.819087244613712, 33.807293321358401 ] } },
{ "type": "Feature", "properties": { "内容": "訪問看護ステーションMMCフレンド【訪問看護】愛媛県松山市湯渡町3-18", "url": "https://www.kaigokensaku.mhlw.go.jp/38/index.php?action_kouhyou_detail_004_kani=true&JigyosyoCd=3860191778-00&ServiceCd=130&Type=search", "url2": "https://mmcdreamservice.jimdo.com/" }, "geometry": { "type": "Point", "coordinates": [ 132.7831486, 33.8394079 ] } },
{ "type": "Feature", "properties": { "内容": "あなぶきケアサービス松山訪問看護事業所【訪問看護】愛媛県松山市久万ノ台1217番地アルファリビング松山久万の台", "url": "https://www.kaigokensaku.mhlw.go.jp/38/index.php?action_kouhyou_detail_004_kani=true&JigyosyoCd=3860191836-00&ServiceCd=130&Type=search", "url2": "http://www.anabuki-medical.jp" }, "geometry": { "type": "Point", "coordinates": [ 132.74405757398813, 33.856908859599983 ] } },
{ "type": "Feature", "properties": { "内容": "訪問看護ステーションみちくさ【訪問看護】愛媛県松山市祝谷2丁目10-19", "url": "https://www.kaigokensaku.mhlw.go.jp/38/index.php?action_kouhyou_detail_004_kani=true&JigyosyoCd=3860191919-00&ServiceCd=130&Type=search", "url2": "http://hot-michikusa.com" }, "geometry": { "type": "Point", "coordinates": [ 132.780318299999948, 33.855467 ] } },
{ "type": "Feature", "properties": { "内容": "訪問看護ステーション青い鳥【訪問看護】愛媛県松山市大手町1丁目13番地12チェリー大手町ビル202号室", "url": "https://www.kaigokensaku.mhlw.go.jp/38/index.php?action_kouhyou_detail_004_kani=true&JigyosyoCd=3860191927-00&ServiceCd=130&Type=search", "url2": "sen053.wixsite.com/aoitorisite" }, "geometry": { "type": "Point", "coordinates": [ 132.756715712897517, 33.84033655221662 ] } },
{ "type": "Feature", "properties": { "内容": "訪問看護ステーション365【訪問看護】愛媛県松山市今在家一丁目11番7号", "url": "https://www.kaigokensaku.mhlw.go.jp/38/index.php?action_kouhyou_detail_004_kani=true&JigyosyoCd=3860191992-00&ServiceCd=130&Type=search", "url2": "http://houkan365.wixsite.com/mn365" }, "geometry": { "type": "Point", "coordinates": [ 132.791085686508154, 33.809923868162763 ] } },
{ "type": "Feature", "properties": { "内容": "訪問看護ステーションまめ【訪問看護】愛媛県松山市清水町二丁目21番地3Luft清水町2Ｆ", "url": "https://www.kaigokensaku.mhlw.go.jp/38/index.php?action_kouhyou_detail_004_kani=true&JigyosyoCd=3860192073-00&ServiceCd=130&Type=search", "url2": "https//ixio.ltd/mame/" }, "geometry": { "type": "Point", "coordinates": [ 132.763876, 33.8509738 ] } },
{ "type": "Feature", "properties": { "内容": "訪問看護ステーションケアライン松山【訪問看護】愛媛県松山市樽味4丁目12番18号ケアステーション樽味　１階", "url": "https://www.kaigokensaku.mhlw.go.jp/38/index.php?action_kouhyou_detail_004_kani=true&JigyosyoCd=3860192099-00&ServiceCd=130&Type=search", "url2": "http://care-line.co.jp/" }, "geometry": { "type": "Point", "coordinates": [ 132.788427299999967, 33.8394416 ] } },
{ "type": "Feature", "properties": { "内容": "訪問看護ステーション　りん【訪問看護】愛媛県松山市緑町二丁目3番地6", "url": "https://www.kaigokensaku.mhlw.go.jp/38/index.php?action_kouhyou_detail_004_kani=true&JigyosyoCd=3860192107-00&ServiceCd=130&Type=search", "url2": "https://www.medi-full.com/" }, "geometry": { "type": "Point", "coordinates": [ 132.768611977909814, 33.846365503169871 ] } },
{ "type": "Feature", "properties": { "内容": "訪問看護ステーション　愛音【訪問看護】愛媛県中村1丁目1-25カーサ衣舞101号", "url": "https://www.kaigokensaku.mhlw.go.jp/38/index.php?action_kouhyou_detail_004_kani=true&JigyosyoCd=3860192149-00&ServiceCd=130&Type=search", "url2": "https://www.aine-kaigo.com/" }, "geometry": { "type": "Point", "coordinates": [ 132.776753072834254, 33.834405505276088 ] } },
{ "type": "Feature", "properties": { "内容": "ダイヤサービス【訪問看護】愛媛県松山市中村2-7-23", "url": "https://www.kaigokensaku.mhlw.go.jp/38/index.php?action_kouhyou_detail_004_kani=true&JigyosyoCd=3860192255-00&ServiceCd=130&Type=search", "url2": "https://daiyaservice.co.jp/" }, "geometry": { "type": "Point", "coordinates": [ 132.773082275236419, 33.830661698606626 ] } },
{ "type": "Feature", "properties": { "内容": "訪問看護ステーションたね【訪問看護】愛媛県松山市松ノ木1丁目1番3号ＣＡＮＰＬＡＺＡ大森101", "url": "https://www.kaigokensaku.mhlw.go.jp/38/index.php?action_kouhyou_detail_004_kani=true&JigyosyoCd=3860192289-00&ServiceCd=130&Type=search", "url2": "https://www.emi-terrace.com/" }, "geometry": { "type": "Point", "coordinates": [ 132.721909699999969, 33.870159 ] } },
{ "type": "Feature", "properties": { "内容": "訪問看護ステーション　ミルフィーユ【訪問看護】愛媛県松山市松ノ木2丁目696-7", "url": "https://www.kaigokensaku.mhlw.go.jp/38/index.php?action_kouhyou_detail_004_kani=true&JigyosyoCd=3860192339-00&ServiceCd=130&Type=search", "url2": null }, "geometry": { "type": "Point", "coordinates": [ 132.720639099999971, 33.8716424 ] } },
{ "type": "Feature", "properties": { "内容": "訪問看護ステーションまごの手【訪問看護】愛媛県松山市中村3丁目1番48号", "url": "https://www.kaigokensaku.mhlw.go.jp/38/index.php?action_kouhyou_detail_004_kani=true&JigyosyoCd=3860192370-00&ServiceCd=130&Type=search", "url2": "http://www.magonote-suisei.jp" }, "geometry": { "type": "Point", "coordinates": [ 132.7793014, 33.8311679 ] } },
{ "type": "Feature", "properties": { "内容": "訪問看護ステーションむすび【訪問看護】愛媛県松山市古川南２丁目４番１６号阿爽ビル１０５号", "url": "https://www.kaigokensaku.mhlw.go.jp/38/index.php?action_kouhyou_detail_004_kani=true&JigyosyoCd=3860192388-00&ServiceCd=130&Type=search", "url2": "https://sites.google.com/view/kabunemu/訪問看護ステーションむすび" }, "geometry": { "type": "Point", "coordinates": [ 132.766857499640281, 33.806456462700915 ] } },
{ "type": "Feature", "properties": { "内容": "訪問看護ステーション　えん【訪問看護】愛媛県松山市井門町764番地1", "url": "https://www.kaigokensaku.mhlw.go.jp/38/index.php?action_kouhyou_detail_004_kani=true&JigyosyoCd=3860192446-00&ServiceCd=130&Type=search", "url2": null }, "geometry": { "type": "Point", "coordinates": [ 132.779014210248164, 33.799420788888121 ] } },
{ "type": "Feature", "properties": { "内容": "訪問看護ステーションパプリカ【訪問看護】愛媛県松山市余戸南５丁目１３番９号", "url": "https://www.kaigokensaku.mhlw.go.jp/38/index.php?action_kouhyou_detail_004_kani=true&JigyosyoCd=3860192453-00&ServiceCd=130&Type=search", "url2": "https://ehimepaprika.org/messenger.html#paprika" }, "geometry": { "type": "Point", "coordinates": [ 132.725383599999986, 33.810601 ] } },
{ "type": "Feature", "properties": { "内容": "訪問看護ステーションほわいと【訪問看護】愛媛県松山市中村3丁目1-9", "url": "https://www.kaigokensaku.mhlw.go.jp/38/index.php?action_kouhyou_detail_004_kani=true&JigyosyoCd=3860192529-00&ServiceCd=130&Type=search", "url2": "https://www.kaigohowaito.jp/" }, "geometry": { "type": "Point", "coordinates": [ 132.7786326, 33.8300606 ] } },
{ "type": "Feature", "properties": { "内容": "アユーラ訪問看護ステーション【訪問看護】愛媛県松山市日の出町10‐80", "url": "https://www.kaigokensaku.mhlw.go.jp/38/index.php?action_kouhyou_detail_004_kani=true&JigyosyoCd=3860192610-00&ServiceCd=130&Type=search", "url2": "http://ayurastation-matsuyama.jp" }, "geometry": { "type": "Point", "coordinates": [ 132.783746, 33.8377973 ] } },
{ "type": "Feature", "properties": { "内容": "訪問看護ステーションすえひろ【訪問看護】愛媛県松山市三町1丁目8番5-3号", "url": "https://www.kaigokensaku.mhlw.go.jp/38/index.php?action_kouhyou_detail_004_kani=true&JigyosyoCd=3860192669-00&ServiceCd=130&Type=search", "url2": null }, "geometry": { "type": "Point", "coordinates": [ 132.792899229338303, 33.828360030889002 ] } },
{ "type": "Feature", "properties": { "内容": "訪問看護ステーション晴れ色【訪問看護】愛媛県松山市東垣生町176‐11", "url": "https://www.kaigokensaku.mhlw.go.jp/38/index.php?action_kouhyou_detail_004_kani=true&JigyosyoCd=3860192727-00&ServiceCd=130&Type=search", "url2": "https://matsuyama.mypl.net/shop/00000369380/" }, "geometry": { "type": "Point", "coordinates": [ 132.714700599999986, 33.8129519 ] } },
{ "type": "Feature", "properties": { "内容": "せせらぎリハビリ訪問看護ステーション【訪問看護】愛媛県松山市平和通1丁目5番地36", "url": "https://www.kaigokensaku.mhlw.go.jp/38/index.php?action_kouhyou_detail_004_kani=true&JigyosyoCd=3860192735-00&ServiceCd=130&Type=search", "url2": null }, "geometry": { "type": "Point", "coordinates": [ 132.773734100000013, 33.8478794 ] } },
{ "type": "Feature", "properties": { "内容": "訪問看護ステーションあんず【訪問看護】愛媛県松山市針田町128番地1", "url": "https://www.kaigokensaku.mhlw.go.jp/38/index.php?action_kouhyou_detail_004_kani=true&JigyosyoCd=3860192750-00&ServiceCd=130&Type=search", "url2": "https://yuyusya.co.jp/" }, "geometry": { "type": "Point", "coordinates": [ 132.734802855186473, 33.823719823487295 ] } },
{ "type": "Feature", "properties": { "内容": "ホームナーシングゆう【訪問看護】愛媛県松山市宮西一丁目5番27号宮西Ｋ’ｓビル302", "url": "https://www.kaigokensaku.mhlw.go.jp/38/index.php?action_kouhyou_detail_004_kani=true&JigyosyoCd=3860192784-00&ServiceCd=130&Type=search", "url2": "https://hp.kaipoke.biz/dwy/info.html" }, "geometry": { "type": "Point", "coordinates": [ 132.7524497, 33.8462612 ] } },
{ "type": "Feature", "properties": { "内容": "あらいぶ訪問看護リハビリステーション【訪問看護】愛媛県松山市小坂５丁目７－１０アングルファーストビル２階南", "url": "https://www.kaigokensaku.mhlw.go.jp/38/index.php?action_kouhyou_detail_004_kani=true&JigyosyoCd=3860192867-00&ServiceCd=130&Type=search", "url2": null }, "geometry": { "type": "Point", "coordinates": [ 132.7800182, 33.8249302 ] } },
{ "type": "Feature", "properties": { "内容": "指定訪問看護ステーションおくじま【訪問看護】愛媛県松山市道後町二丁目2番1号", "url": "https://www.kaigokensaku.mhlw.go.jp/38/index.php?action_kouhyou_detail_004_kani=true&JigyosyoCd=3860192891-00&ServiceCd=130&Type=search", "url2": "http://www.okujima-hospital.com/" }, "geometry": { "type": "Point", "coordinates": [ 132.782682425131213, 33.847886611960085 ] } },
{ "type": "Feature", "properties": { "内容": "伊予訪問看護ステーション【訪問看護】愛媛県松山市余戸東1丁目11-38", "url": "https://www.kaigokensaku.mhlw.go.jp/38/index.php?action_kouhyou_detail_004_kani=true&JigyosyoCd=3861090029-00&ServiceCd=130&Type=search", "url2": "http://www.iyohp.jp" }, "geometry": { "type": "Point", "coordinates": [ 132.739653173332954, 33.815438193710193 ] } },
{ "type": "Feature", "properties": { "内容": "訪問看護ステーションほうじょう【訪問看護】愛媛県松山市北条辻773-8", "url": "https://www.kaigokensaku.mhlw.go.jp/38/index.php?action_kouhyou_detail_004_kani=true&JigyosyoCd=3861190852-00&ServiceCd=130&Type=search", "url2": "http://www.lnt.jp" }, "geometry": { "type": "Point", "coordinates": [ 132.776427900000044, 33.9668928 ] } },
{ "type": "Feature", "properties": { "内容": "医療法人社団慈生会　訪問看護ステーションふれあい【訪問看護】愛媛県松山市松末2丁目19番36号", "url": "https://www.kaigokensaku.mhlw.go.jp/38/index.php?action_kouhyou_detail_004_kani=true&JigyosyoCd=3860190259-00&ServiceCd=130&Type=search", "url2": "https://joto-hspital.jp" }, "geometry": { "type": "Point", "coordinates": [ 132.788223199999948, 33.8270373 ] } },
{ "type": "Feature", "properties": { "内容": "指定訪問看護ステーション　リブ【訪問看護】愛媛県松山市西長戸町961－1松本ビル　103号", "url": "https://www.kaigokensaku.mhlw.go.jp/38/index.php?action_kouhyou_detail_004_kani=true&JigyosyoCd=3860191158-00&ServiceCd=130&Type=search", "url2": null }, "geometry": { "type": "Point", "coordinates": [ 132.741205199999968, 33.8669034 ] } },
{ "type": "Feature", "properties": { "内容": "訪問看護ステーション　ポラリス【訪問看護】愛媛県松山市枝松5丁目6番48号第3井上ビル1F東号室", "url": "https://www.kaigokensaku.mhlw.go.jp/38/index.php?action_kouhyou_detail_004_kani=true&JigyosyoCd=3860191307-00&ServiceCd=130&Type=search", "url2": "http://houkan-sakura.sakura.ne.jp/" }, "geometry": { "type": "Point", "coordinates": [ 132.785093698102742, 33.828030522425571 ] } },
{ "type": "Feature", "properties": { "内容": "訪問看護ステーションおひさま【訪問看護】愛媛県松山市水泥町860", "url": "https://www.kaigokensaku.mhlw.go.jp/38/index.php?action_kouhyou_detail_004_kani=true&JigyosyoCd=3860191539-00&ServiceCd=130&Type=search", "url2": "https://www.ohisama-kango.com/nursing" }, "geometry": { "type": "Point", "coordinates": [ 132.833940168492603, 33.806123645518149 ] } },
{ "type": "Feature", "properties": { "内容": "ベストケア訪問看護ステーション【訪問看護】愛媛県松山市中村二丁目７番３３号", "url": "https://www.kaigokensaku.mhlw.go.jp/38/index.php?action_kouhyou_detail_004_kani=true&JigyosyoCd=3860191737-00&ServiceCd=130&Type=search", "url2": "http://www.best-care.jp/" }, "geometry": { "type": "Point", "coordinates": [ 132.777924100000064, 33.833028 ] } },
{ "type": "Feature", "properties": { "内容": "訪問看護ステーション蒼空【訪問看護】愛媛県松山市堀江町甲864-100", "url": "https://www.kaigokensaku.mhlw.go.jp/38/index.php?action_kouhyou_detail_004_kani=true&JigyosyoCd=3860192123-00&ServiceCd=130&Type=search", "url2": null }, "geometry": { "type": "Point", "coordinates": [ 132.743197, 33.89797 ] } },
{ "type": "Feature", "properties": { "内容": "訪問看護ステーションいまる【訪問看護】愛媛県松山市東石井六丁目5番12号グランドハイム東石井102号室", "url": "https://www.kaigokensaku.mhlw.go.jp/38/index.php?action_kouhyou_detail_004_kani=true&JigyosyoCd=3860192164-00&ServiceCd=130&Type=search", "url2": "https://www.imaru-egao.co.jp/" }, "geometry": { "type": "Point", "coordinates": [ 132.777462480754025, 33.810454078950755 ] } },
{ "type": "Feature", "properties": { "内容": "訪問看護ステーションさんさん【訪問看護】愛媛県松山市南江戸5丁目3番9", "url": "https://www.kaigokensaku.mhlw.go.jp/38/index.php?action_kouhyou_detail_004_kani=true&JigyosyoCd=3860192412-00&ServiceCd=130&Type=search", "url2": null }, "geometry": { "type": "Point", "coordinates": [ 132.7464799, 33.8416273 ] } },
{ "type": "Feature", "properties": { "内容": "訪問看護ステーションともの家【訪問看護】愛媛県松山市溝辺町甲５６２ー１", "url": "https://www.kaigokensaku.mhlw.go.jp/38/index.php?action_kouhyou_detail_004_kani=true&JigyosyoCd=3860192693-00&ServiceCd=130&Type=search", "url2": "http://www.tomo-home.jp" }, "geometry": { "type": "Point", "coordinates": [ 132.8082521, 33.8517765 ] } },
{ "type": "Feature", "properties": { "内容": "訪問看護ステーション　あかりば【訪問看護】愛媛県松山市朝生田町四丁目10番30号てくのビル2階", "url": "https://www.kaigokensaku.mhlw.go.jp/38/index.php?action_kouhyou_detail_004_kani=true&JigyosyoCd=3860192743-00&ServiceCd=130&Type=search", "url2": "https://amber-mast.github.io/akariba/" }, "geometry": { "type": "Point", "coordinates": [ 132.7652895, 33.8246005 ] } },
{ "type": "Feature", "properties": { "内容": "訪問看護ステーションkira【訪問看護】松山市北条辻20番地6田辺医院臨床研究棟2階", "url": "https://www.kaigokensaku.mhlw.go.jp/38/index.php?action_kouhyou_detail_004_kani=true&JigyosyoCd=3860192768-00&ServiceCd=130&Type=search", "url2": "http://hp.kaipoke.biz/zyn/" }, "geometry": { "type": "Point", "coordinates": [ 132.778546300629046, 33.976295082044651 ] } },
{ "type": "Feature", "properties": { "内容": "訪問看護ステーションふくのかみ【訪問看護】愛媛県松山市空港通4丁目７番2号", "url": "https://www.kaigokensaku.mhlw.go.jp/38/index.php?action_kouhyou_detail_004_kani=true&JigyosyoCd=3860192941-00&ServiceCd=130&Type=search", "url2": "https://www.mitsuwat.co.jp/fukunokami/" }, "geometry": { "type": "Point", "coordinates": [ 132.734979099999975, 33.8289889 ] } },
{ "type": "Feature", "properties": { "内容": "訪問看護ステーション和楽【訪問看護】愛媛県松山市清水町1丁目9-13", "url": "https://www.kaigokensaku.mhlw.go.jp/38/index.php?action_kouhyou_detail_004_kani=true&JigyosyoCd=3860192990-00&ServiceCd=130&Type=search", "url2": "https://waraku-houkan.com/" }, "geometry": { "type": "Point", "coordinates": [ 137.0018819, 36.7416082 ] } },
{ "type": "Feature", "properties": { "内容": "おひさま訪問看護リハビリステーション【訪問看護】愛媛県松山市小栗６丁目１番２２号第２白石ビル２階西", "url": "https://www.kaigokensaku.mhlw.go.jp/38/index.php?action_kouhyou_detail_004_kani=true&JigyosyoCd=3860193089-00&ServiceCd=130&Type=search", "url2": "https://fm-canvas.com/" }, "geometry": { "type": "Point", "coordinates": [ 132.756123900000034, 33.826040320318597 ] } },
{ "type": "Feature", "properties": { "内容": "ケアステーションあえる【訪問看護】愛媛県松山馬木町３０４番地６", "url": "https://www.kaigokensaku.mhlw.go.jp/38/index.php?action_kouhyou_detail_004_kani=true&JigyosyoCd=3860191604-00&ServiceCd=130&Type=search", "url2": null }, "geometry": { "type": "Point", "coordinates": [ 132.741366494303861, 33.891272087359781 ] } },
{ "type": "Feature", "properties": { "内容": "訪問看護ステーション　かがやき松山【訪問看護】愛媛県松山市西石井6丁目12番27号", "url": "https://www.kaigokensaku.mhlw.go.jp/38/index.php?action_kouhyou_detail_004_kani=true&JigyosyoCd=3860192362-00&ServiceCd=130&Type=search", "url2": null }, "geometry": { "type": "Point", "coordinates": [ 132.7745472, 33.8148419 ] } },
{ "type": "Feature", "properties": { "内容": "訪問看護ステーション　プリンス【訪問看護】愛媛県松山市朝生田町１丁目１５番１号ナーシングホーム朝生田", "url": "https://www.kaigokensaku.mhlw.go.jp/38/index.php?action_kouhyou_detail_004_kani=true&JigyosyoCd=3860192487-00&ServiceCd=130&Type=search", "url2": "care-life-energy.jp" }, "geometry": { "type": "Point", "coordinates": [ 132.771839300000011, 33.8238149 ] } },
{ "type": "Feature", "properties": { "内容": "訪問看護ステーション恩おくり【訪問看護】愛媛県松山市吉藤5丁目1-14", "url": "https://www.kaigokensaku.mhlw.go.jp/38/index.php?action_kouhyou_detail_004_kani=true&JigyosyoCd=3860192537-00&ServiceCd=130&Type=search", "url2": null }, "geometry": { "type": "Point", "coordinates": [ 132.760710900000021, 33.872181 ] } },
{ "type": "Feature", "properties": { "内容": "ドリーム・サポート訪問看護ステーション【訪問看護】愛媛県松山市南久米町549－1EASTⅡ3階北", "url": "https://www.kaigokensaku.mhlw.go.jp/38/index.php?action_kouhyou_detail_004_kani=true&JigyosyoCd=3860191364-00&ServiceCd=130&Type=search", "url2": "http://www.dream-sp.net/" }, "geometry": { "type": "Point", "coordinates": [ 132.797279756550324, 33.812291930778677 ] } },
{ "type": "Feature", "properties": { "内容": "訪問看護ステーション　みらぽけ【訪問看護】桑原3丁目６番１４号", "url": "https://www.kaigokensaku.mhlw.go.jp/38/index.php?action_kouhyou_detail_004_kani=true&JigyosyoCd=3860193360-00&ServiceCd=130&Type=search", "url2": null }, "geometry": { "type": "Point", "coordinates": [ 132.7926765, 33.8347445 ] } },
{ "type": "Feature", "properties": { "内容": "訪問看護ステーション里山どんぐり【訪問看護】松山市愛光町6番3号", "url": "https://www.kaigokensaku.mhlw.go.jp/38/index.php?action_kouhyou_detail_004_kani=true&JigyosyoCd=3860191679-00&ServiceCd=130&Type=search", "url2": "http://satoyama-donguri.com" }, "geometry": { "type": "Point", "coordinates": [ 132.749607200000014, 33.8461672 ] } },
{ "type": "Feature", "properties": { "内容": "訪問看護ステーション　ひかり【訪問看護】愛媛県松山市空港通二丁目18番7号森ビル第８　1階", "url": "https://www.kaigokensaku.mhlw.go.jp/38/index.php?action_kouhyou_detail_004_kani=true&JigyosyoCd=3860191851-00&ServiceCd=130&Type=search", "url2": "www.hikari2015.jp" }, "geometry": { "type": "Point", "coordinates": [ 132.74323067301637, 33.829560683277926 ] } },
{ "type": "Feature", "properties": { "内容": "こころ訪問看護ステーション【訪問看護】愛媛県松山市東方町甲1438-1", "url": "https://www.kaigokensaku.mhlw.go.jp/38/index.php?action_kouhyou_detail_004_kani=true&JigyosyoCd=3860193212-00&ServiceCd=130&Type=search", "url2": null }, "geometry": { "type": "Point", "coordinates": [ 132.819771, 33.7683292 ] } },
{ "type": "Feature", "properties": { "内容": "といろ訪問看護ステーション【訪問看護】古川北二丁目19番23号マンションマツシゲ106号", "url": "https://www.kaigokensaku.mhlw.go.jp/38/index.php?action_kouhyou_detail_004_kani=true&JigyosyoCd=3860193329-00&ServiceCd=130&Type=search", "url2": "https://www.toiro-kango.jp/" }, "geometry": { "type": "Point", "coordinates": [ 132.76274380000001, 33.8134407 ] } },
{ "type": "Feature", "properties": { "内容": "ゆうケア訪問看護ステーション【訪問看護】愛媛県松山市空港通３－９－３３", "url": "https://www.kaigokensaku.mhlw.go.jp/38/index.php?action_kouhyou_detail_004_kani=true&JigyosyoCd=3860193303-00&ServiceCd=130&Type=search", "url2": "www.ehime-yuucare.com/" }, "geometry": { "type": "Point", "coordinates": [ 132.737554499999987, 33.8290351 ] } },
{ "type": "Feature", "properties": { "内容": "LiNK訪問看護ステーション松山【訪問看護】愛媛県松山市北土居5-16-23レジデンスM-1　606号室", "url": "https://www.kaigokensaku.mhlw.go.jp/38/index.php?action_kouhyou_detail_004_kani=true&JigyosyoCd=3860193246-00&ServiceCd=130&Type=search", "url2": null }, "geometry": { "type": "Point", "coordinates": [ 132.778728300000012, 33.8088432 ] } },
{ "type": "Feature", "properties": { "内容": "訪問看護ステーション　なごみ【訪問看護】愛媛県松山市春美町２番１９号", "url": "https://www.kaigokensaku.mhlw.go.jp/38/index.php?action_kouhyou_detail_004_kani=true&JigyosyoCd=3860193279-00&ServiceCd=130&Type=search", "url2": "https://www.nagomi0515.com" }, "geometry": { "type": "Point", "coordinates": [ 132.723150746557621, 33.869534743488899 ] } },
{ "type": "Feature", "properties": { "内容": "医心館訪問看護ステーション松山【訪問看護】愛媛県松山市中央二丁目157番地１", "url": "https://www.kaigokensaku.mhlw.go.jp/38/index.php?action_kouhyou_detail_004_kani=true&JigyosyoCd=3860193337-00&ServiceCd=130&Type=search", "url2": null }, "geometry": { "type": "Point", "coordinates": [ 132.746394, 33.8556428 ] } },
{ "type": "Feature", "properties": { "内容": "訪問看護ステーションひかり　松山東事業所【訪問看護】愛媛県松山市桑原7丁目2-22", "url": "https://www.kaigokensaku.mhlw.go.jp/38/index.php?action_kouhyou_detail_004_kani=true&JigyosyoCd=3860193253-00&ServiceCd=130&Type=search", "url2": "https://www.hikari2015.jp/" }, "geometry": { "type": "Point", "coordinates": [ 132.793446400000022, 33.82995 ] } },
{ "type": "Feature", "properties": { "内容": "ツクイ松山訪問看護ステーション【訪問看護】愛媛県松山市千舟町4-6-1松山フコク生命ビル7階", "url": "https://www.kaigokensaku.mhlw.go.jp/38/index.php?action_kouhyou_detail_004_kani=true&JigyosyoCd=3860192511-00&ServiceCd=130&Type=search", "url2": "https://www.tsukui.net/" }, "geometry": { "type": "Point", "coordinates": [ 132.767658077204089, 33.836981370105555 ] } },
{ "type": "Feature", "properties": { "内容": "訪問看護ステーションぜん【訪問看護】愛媛県松山市中央１丁目１－２１ソレイユ中央２０１", "url": "https://www.kaigokensaku.mhlw.go.jp/38/index.php?action_kouhyou_detail_004_kani=true&JigyosyoCd=3860193345-00&ServiceCd=130&Type=search", "url2": null }, "geometry": { "type": "Point", "coordinates": [ 132.753586399999989, 33.8529059 ] } },
{ "type": "Feature", "properties": { "内容": "訪問看護ステーション　エール【訪問看護】愛媛県松山市東石井六丁目３番３１号セゾン・ド・フローレスA棟２０５号", "url": "https://www.kaigokensaku.mhlw.go.jp/38/index.php?action_kouhyou_detail_004_kani=true&JigyosyoCd=3860193014-00&ServiceCd=130&Type=search", "url2": "https://yell1003.com" }, "geometry": { "type": "Point", "coordinates": [ 132.7764731, 33.8101106 ] } },
{ "type": "Feature", "properties": { "内容": "訪問看護ステーション　新【訪問看護】愛媛県松山市保免上1丁目13-3", "url": "https://www.kaigokensaku.mhlw.go.jp/38/index.php?action_kouhyou_detail_004_kani=true&JigyosyoCd=3860191844-00&ServiceCd=130&Type=search", "url2": "http://www.myojinmaru8698.com" }, "geometry": { "type": "Point", "coordinates": [ 132.75432271990519, 33.818948272553151 ] } },
{ "type": "Feature", "properties": { "内容": "訪問看護ステーション　すまいる訪問看護【訪問看護】愛媛県松山市空港通2丁目13-8リブウェル空港通　併設", "url": "https://www.kaigokensaku.mhlw.go.jp/38/index.php?action_kouhyou_detail_004_kani=true&JigyosyoCd=3860192248-00&ServiceCd=130&Type=search", "url2": null }, "geometry": { "type": "Point", "coordinates": [ 132.741019, 33.828908 ] } },
{ "type": "Feature", "properties": { "内容": "訪問看護ステーション　うさぎの里【訪問看護】愛媛県松山市祇園町１３番６号", "url": "https://www.kaigokensaku.mhlw.go.jp/38/index.php?action_kouhyou_detail_004_kani=true&JigyosyoCd=3860191943-00&ServiceCd=130&Type=search", "url2": "usaginosato.com/" }, "geometry": { "type": "Point", "coordinates": [ 132.774833199999989, 33.8334342 ] } },
{ "type": "Feature", "properties": { "内容": "訪問看護ステーション　つなぐ【訪問看護】愛媛県松山市北土居4丁目19-17タウンコート北土居B棟102号", "url": "https://www.kaigokensaku.mhlw.go.jp/38/index.php?action_kouhyou_detail_004_kani=true&JigyosyoCd=3860192230-00&ServiceCd=130&Type=search", "url2": "http://hp.kaipoke.biz/355/" }, "geometry": { "type": "Point", "coordinates": [ 132.7817589, 33.8075045 ] } },
{ "type": "Feature", "properties": { "内容": "訪問看護ステーション　ひがし野【訪問看護】愛媛県松山市石手2丁目5番11号夢の石手", "url": "https://www.kaigokensaku.mhlw.go.jp/38/index.php?action_kouhyou_detail_004_kani=true&JigyosyoCd=3860193311-00&ServiceCd=130&Type=search", "url2": "https://www.higashino-group.com/" }, "geometry": { "type": "Point", "coordinates": [ 132.797145199999989, 33.8460857 ] } },
{ "type": "Feature", "properties": { "内容": "よつばの在宅　訪問看護ステーション【訪問看護】愛媛県松山市南江戸４丁目３番５３号", "url": "https://www.kaigokensaku.mhlw.go.jp/38/index.php?action_kouhyou_detail_004_kani=true&JigyosyoCd=3860193402-00&ServiceCd=130&Type=search", "url2": "https://yotsuba-heart.jp/zaitaku/houkan/" }, "geometry": { "type": "Point", "coordinates": [ 132.7399366, 33.8366361 ] } },
{ "type": "Feature", "properties": { "内容": "訪問看護ステーションえにし【訪問看護】愛媛県松山市上市1丁目2-12ニック道後101号", "url": "https://www.kaigokensaku.mhlw.go.jp/38/index.php?action_kouhyou_detail_004_kani=true&JigyosyoCd=3860193410-00&ServiceCd=130&Type=search", "url2": null }, "geometry": { "type": "Point", "coordinates": [ 132.7887001, 33.8440284 ] } },
{ "type": "Feature", "properties": { "内容": "訪問看護ステーション　ハピネス椿【訪問看護】愛媛県松山市今在家3丁目9番29号ハピネス椿1F", "url": "https://www.kaigokensaku.mhlw.go.jp/38/index.php?action_kouhyou_detail_004_kani=true&JigyosyoCd=3860192776-00&ServiceCd=130&Type=search", "url2": null }, "geometry": { "type": "Point", "coordinates": [ 132.7937723, 33.8049042 ] } },
{ "type": "Feature", "properties": { "内容": "株式会社　カインドハウス【訪問看護】愛媛県今治市南鳥生町2丁目3番43号", "url": "https://www.kaigokensaku.mhlw.go.jp/38/index.php?action_kouhyou_detail_004_kani=true&JigyosyoCd=3860293004-00&ServiceCd=130&Type=search", "url2": "https://www.kindhouse.jp" }, "geometry": { "type": "Point", "coordinates": [ 133.011044, 34.0528648 ] } },
{ "type": "Feature", "properties": { "内容": "訪問看護ステーション愛【訪問看護】愛媛県今治市東鳥生町1丁目６－７", "url": "https://www.kaigokensaku.mhlw.go.jp/38/index.php?action_kouhyou_detail_004_kani=true&JigyosyoCd=3860292402-00&ServiceCd=130&Type=search", "url2": null }, "geometry": { "type": "Point", "coordinates": [ 133.01785940000002, 34.0580267 ] } },
{ "type": "Feature", "properties": { "内容": "訪問看護ステーションD＆D【訪問看護】愛媛県今治市南大門町1丁目6番地18富士火災今治ビル3階", "url": "https://www.kaigokensaku.mhlw.go.jp/38/index.php?action_kouhyou_detail_004_kani=true&JigyosyoCd=3860292592-00&ServiceCd=130&Type=search", "url2": null }, "geometry": { "type": "Point", "coordinates": [ 132.9963177, 34.0658224 ] } },
{ "type": "Feature", "properties": { "内容": "訪問看護ステーション憩楽【訪問看護】愛媛県今治市郷桜井四丁目６番８２号", "url": "https://www.kaigokensaku.mhlw.go.jp/38/index.php?action_kouhyou_detail_004_kani=true&JigyosyoCd=3860292717-00&ServiceCd=130&Type=search", "url2": null }, "geometry": { "type": "Point", "coordinates": [ 133.0404773, 34.0137385 ] } },
{ "type": "Feature", "properties": { "内容": "NPO法人　ぼちまる【訪問看護】愛媛県今治市山口乙1-3", "url": "https://www.kaigokensaku.mhlw.go.jp/38/index.php?action_kouhyou_detail_004_kani=true&JigyosyoCd=3860293160-00&ServiceCd=130&Type=search", "url2": "bochimaru.com/news/38/" }, "geometry": { "type": "Point", "coordinates": [ 133.0064979, 34.0040217 ] } },
{ "type": "Feature", "properties": { "内容": "広瀬クリニック　訪問看護【訪問看護】愛媛県今治市拝志3番1号", "url": "https://www.kaigokensaku.mhlw.go.jp/38/index.php?action_kouhyou_detail_004_kani=true&JigyosyoCd=3810211213-00&ServiceCd=130&Type=search", "url2": "http://www.hirose-youseikai.org" }, "geometry": { "type": "Point", "coordinates": [ 133.024708299999986, 34.0428302 ] } },
{ "type": "Feature", "properties": { "内容": "医療法人平成会　山内病院【訪問看護】片山3丁目1番40号", "url": "https://www.kaigokensaku.mhlw.go.jp/38/index.php?action_kouhyou_detail_004_kani=true&JigyosyoCd=3810228332-00&ServiceCd=130&Type=search", "url2": "http://hp-yamauchi.or.jp" }, "geometry": { "type": "Point", "coordinates": [ 132.984698752778627, 34.051770405456899 ] } },
{ "type": "Feature", "properties": { "内容": "ひうち園老人訪問看護ステーション【訪問看護】愛媛県　今治市黄金町2丁目2―5", "url": "https://www.kaigokensaku.mhlw.go.jp/38/index.php?action_kouhyou_detail_004_kani=true&JigyosyoCd=3860290067-00&ServiceCd=130&Type=search", "url2": "http://www.yoshino-hospital.or.jp" }, "geometry": { "type": "Point", "coordinates": [ 133.002860032263271, 34.064899148115224 ] } },
{ "type": "Feature", "properties": { "内容": "第一訪問看護ステーションかとれあ【訪問看護】愛媛県今治市北日吉町1丁目19番15号", "url": "https://www.kaigokensaku.mhlw.go.jp/38/index.php?action_kouhyou_detail_004_kani=true&JigyosyoCd=3860290232-00&ServiceCd=130&Type=search", "url2": null }, "geometry": { "type": "Point", "coordinates": [ 132.990905500000054, 34.0648114 ] } },
{ "type": "Feature", "properties": { "内容": "済生会今治訪問看護ステーション【訪問看護】愛媛県今治市北日吉町1丁目7番43号", "url": "https://www.kaigokensaku.mhlw.go.jp/38/index.php?action_kouhyou_detail_004_kani=true&JigyosyoCd=3860290364-00&ServiceCd=130&Type=search", "url2": "http://www.imabari.saiseikai.or.jp/imabari2/" }, "geometry": { "type": "Point", "coordinates": [ 132.988566799999944, 34.0635947 ] } },
{ "type": "Feature", "properties": { "内容": "リハビリ訪問看護ステーション華蓮【訪問看護】愛媛県今治市美須賀町3丁目３－２アビタ’３１", "url": "https://www.kaigokensaku.mhlw.go.jp/38/index.php?action_kouhyou_detail_004_kani=true&JigyosyoCd=3860291586-00&ServiceCd=130&Type=search", "url2": "http://activevision.co.jp/" }, "geometry": { "type": "Point", "coordinates": [ 133.011112340449131, 34.060474305613404 ] } },
{ "type": "Feature", "properties": { "内容": "訪問看護リハビリステーション　すてっぷ【訪問看護】愛媛県今治市立花町三丁目２番３５号", "url": "https://www.kaigokensaku.mhlw.go.jp/38/index.php?action_kouhyou_detail_004_kani=true&JigyosyoCd=3860291636-00&ServiceCd=130&Type=search", "url2": "https://www.step-inc.co.jp" }, "geometry": { "type": "Point", "coordinates": [ 133.0010982, 34.0509445 ] } },
{ "type": "Feature", "properties": { "内容": "訪問看護リハビリステーション葵【訪問看護】愛媛県今治市郷新屋敷町２丁目６番５号", "url": "https://www.kaigokensaku.mhlw.go.jp/38/index.php?action_kouhyou_detail_004_kani=true&JigyosyoCd=3860292634-00&ServiceCd=130&Type=search", "url2": "https://www.ikirukai.or.jp" }, "geometry": { "type": "Point", "coordinates": [ 133.0029575, 34.0432573 ] } },
{ "type": "Feature", "properties": { "内容": "訪問看護ステーションばりなす【訪問看護】愛媛県今治市東門町５丁目１３番地６３号", "url": "https://www.kaigokensaku.mhlw.go.jp/38/index.php?action_kouhyou_detail_004_kani=true&JigyosyoCd=3860292808-00&ServiceCd=130&Type=search", "url2": "https://www.with-love-heart.com/" }, "geometry": { "type": "Point", "coordinates": [ 133.0140683, 34.0599721 ] } },
{ "type": "Feature", "properties": { "内容": "訪問看護いまばり【訪問看護】愛媛県今治市南宝来町２丁目２番地1矢野薬局ビル2階", "url": "https://www.kaigokensaku.mhlw.go.jp/38/index.php?action_kouhyou_detail_004_kani=true&JigyosyoCd=3860292956-00&ServiceCd=130&Type=search", "url2": "https://www.imabari2023.com/" }, "geometry": { "type": "Point", "coordinates": [ 132.999482, 34.0605976 ] } },
{ "type": "Feature", "properties": { "内容": "訪問看護ステーション　すみれ【訪問看護】片山二丁目5番28号ヴィラクオーレ101", "url": "https://www.kaigokensaku.mhlw.go.jp/38/index.php?action_kouhyou_detail_004_kani=true&JigyosyoCd=3860291628-00&ServiceCd=130&Type=search", "url2": "http://care-net.biz/38/sumirekango/" }, "geometry": { "type": "Point", "coordinates": [ 132.980878841733585, 34.051339932698319 ] } },
{ "type": "Feature", "properties": { "内容": "訪問看護ステーションアルク今治【訪問看護】愛媛県今治市北鳥生町四丁目6番15号", "url": "https://www.kaigokensaku.mhlw.go.jp/38/index.php?action_kouhyou_detail_004_kani=true&JigyosyoCd=3860293228-00&ServiceCd=130&Type=search", "url2": "https://ixio.ltd/aluqc_imabari/" }, "geometry": { "type": "Point", "coordinates": [ 133.00546270000001, 34.0520607 ] } },
{ "type": "Feature", "properties": { "内容": "宇和島医師会訪問看護ステーション【訪問看護】愛媛県宇和島市桜町1番50号", "url": "https://www.kaigokensaku.mhlw.go.jp/38/index.php?action_kouhyou_detail_004_kani=true&JigyosyoCd=3860390206-00&ServiceCd=130&Type=search", "url2": "https://uwajima-med.jp/nursing.html" }, "geometry": { "type": "Point", "coordinates": [ 132.564871, 33.2148885 ] } },
{ "type": "Feature", "properties": { "内容": "セントケア訪問看護ステーション宇和島【訪問看護】愛媛県宇和島市伊吹町甲1083－1", "url": "https://www.kaigokensaku.mhlw.go.jp/38/index.php?action_kouhyou_detail_004_kani=true&JigyosyoCd=3860393150-00&ServiceCd=130&Type=search", "url2": null }, "geometry": { "type": "Point", "coordinates": [ 132.570376, 33.2362499 ] } },
{ "type": "Feature", "properties": { "内容": "宇和島市立津島病院【訪問看護】愛媛県宇和島市津島町高田丙15番地", "url": "https://www.kaigokensaku.mhlw.go.jp/38/index.php?action_kouhyou_detail_004_kani=true&JigyosyoCd=3810310494-00&ServiceCd=130&Type=search", "url2": "https://www.city.uwajima.ehime.jp/site/h-tusima/" }, "geometry": { "type": "Point", "coordinates": [ 132.519976121565264, 33.122255068828409 ] } },
{ "type": "Feature", "properties": { "内容": "指定訪問看護ステーションやすらぎの杜【訪問看護】愛媛県宇和島市保田甲1932番地2", "url": "https://www.kaigokensaku.mhlw.go.jp/38/index.php?action_kouhyou_detail_004_kani=true&JigyosyoCd=3860390727-00&ServiceCd=130&Type=search", "url2": "http://shouwakai.jp/" }, "geometry": { "type": "Point", "coordinates": [ 132.542851913630727, 33.184523977628025 ] } },
{ "type": "Feature", "properties": { "内容": "訪問看護ステーションみずき【訪問看護】愛媛県宇和島市川内甲957-4", "url": "https://www.kaigokensaku.mhlw.go.jp/38/index.php?action_kouhyou_detail_004_kani=true&JigyosyoCd=3860391253-00&ServiceCd=130&Type=search", "url2": "mizuki@ia9.itkeeper.ne.jp" }, "geometry": { "type": "Point", "coordinates": [ 132.551047199999971, 33.2051029 ] } },
{ "type": "Feature", "properties": { "内容": "愛ほっと訪問看護ステーション【訪問看護】愛媛県宇和島市佐伯町2丁目3番25号アクティブモア本社ビル", "url": "https://www.kaigokensaku.mhlw.go.jp/38/index.php?action_kouhyou_detail_004_kani=true&JigyosyoCd=3860391261-00&ServiceCd=130&Type=search", "url2": "http://ai-hot.jp/" }, "geometry": { "type": "Point", "coordinates": [ 132.559872711832725, 33.215022843839535 ] } },
{ "type": "Feature", "properties": { "内容": "訪問看護ステーションうわじま【訪問看護】愛媛県宇和島市佐伯町一丁目１番１３号ウチマスビル1Ｆ", "url": "https://www.kaigokensaku.mhlw.go.jp/38/index.php?action_kouhyou_detail_004_kani=true&JigyosyoCd=3860391451-00&ServiceCd=130&Type=search", "url2": "http://houmonkangosute-syonuwajima.com/" }, "geometry": { "type": "Point", "coordinates": [ 132.562271199999941, 33.2153884 ] } },
{ "type": "Feature", "properties": { "内容": "独立行政法人地域医療機能推進機構宇和島病院　附属訪問看護ステーション【訪問看護】愛媛県宇和島市賀古町2丁目1番37号", "url": "https://www.kaigokensaku.mhlw.go.jp/38/index.php?action_kouhyou_detail_004_kani=true&JigyosyoCd=3860391667-00&ServiceCd=130&Type=search", "url2": "http://uwajima.jcho.go.jp/" }, "geometry": { "type": "Point", "coordinates": [ 132.569379392697556, 33.215837777688591 ] } },
{ "type": "Feature", "properties": { "内容": "医療法人徳洲会　宇和島徳洲会訪問看護ステーション【訪問看護】愛媛県宇和島市住吉町2-6-24", "url": "https://www.kaigokensaku.mhlw.go.jp/38/index.php?action_kouhyou_detail_004_kani=true&JigyosyoCd=3860391980-00&ServiceCd=130&Type=search", "url2": "https://www.uwatoku.org/" }, "geometry": { "type": "Point", "coordinates": [ 132.5540052, 33.2289148 ] } },
{ "type": "Feature", "properties": { "内容": "一般社団法人在宅ケアサポートゆらり【訪問看護】愛媛県宇和島市宮下甲８５３番地1", "url": "https://www.kaigokensaku.mhlw.go.jp/38/index.php?action_kouhyou_detail_004_kani=true&JigyosyoCd=3860391568-00&ServiceCd=130&Type=search", "url2": null }, "geometry": { "type": "Point", "coordinates": [ 132.549710403179972, 33.207364462788803 ] } },
{ "type": "Feature", "properties": { "内容": "訪問看護ステーションゆずりは【訪問看護】愛媛県宇和島市祝森甲3081番地1", "url": "https://www.kaigokensaku.mhlw.go.jp/38/index.php?action_kouhyou_detail_004_kani=true&JigyosyoCd=3860391659-00&ServiceCd=130&Type=search", "url2": null }, "geometry": { "type": "Point", "coordinates": [ 132.553156299999955, 33.1709348 ] } },
{ "type": "Feature", "properties": { "内容": "訪問看護ステーション　ここいろ【訪問看護】愛媛県宇和島市寿町2丁目3-21堀川ビル22号", "url": "https://www.kaigokensaku.mhlw.go.jp/38/index.php?action_kouhyou_detail_004_kani=true&JigyosyoCd=3860393036-00&ServiceCd=130&Type=search", "url2": null }, "geometry": { "type": "Point", "coordinates": [ 132.55967729116054, 33.223965938877555 ] } },
{ "type": "Feature", "properties": { "内容": "八幡浜医師会訪問看護ステーション【訪問看護】愛媛県八幡浜市広瀬一丁目7番17号", "url": "https://www.kaigokensaku.mhlw.go.jp/38/index.php?action_kouhyou_detail_004_kani=true&JigyosyoCd=3860490527-00&ServiceCd=130&Type=search", "url2": null }, "geometry": { "type": "Point", "coordinates": [ 132.425927900000033, 33.4556849 ] } },
{ "type": "Feature", "properties": { "内容": "合同会社訪問看護ステーションいまいスマイル【訪問看護】愛媛県八幡浜市八代68番地1", "url": "https://www.kaigokensaku.mhlw.go.jp/38/index.php?action_kouhyou_detail_004_kani=true&JigyosyoCd=3860492549-00&ServiceCd=130&Type=search", "url2": null }, "geometry": { "type": "Point", "coordinates": [ 132.430276600000013, 33.445596194098819 ] } },
{ "type": "Feature", "properties": { "内容": "セントケア訪問看護ステーション八幡浜【訪問看護】愛媛県八幡浜市江戸岡1－8－5マルマビル１階", "url": "https://www.kaigokensaku.mhlw.go.jp/38/index.php?action_kouhyou_detail_004_kani=true&JigyosyoCd=3860492580-00&ServiceCd=130&Type=search", "url2": null }, "geometry": { "type": "Point", "coordinates": [ 132.4341029, 33.4582189 ] } },
{ "type": "Feature", "properties": { "内容": "よつば訪問看護ステーション【訪問看護】愛媛県八幡浜市古町１丁目６番１２号矢野脳神経外科医院内３階", "url": "https://www.kaigokensaku.mhlw.go.jp/38/index.php?action_kouhyou_detail_004_kani=true&JigyosyoCd=3860492184-00&ServiceCd=130&Type=search", "url2": null }, "geometry": { "type": "Point", "coordinates": [ 132.429976, 33.4558402 ] } },
{ "type": "Feature", "properties": { "内容": "ぐんちゅう絆　訪問看護ステーション【訪問看護】1211番地1", "url": "https://www.kaigokensaku.mhlw.go.jp/38/index.php?action_kouhyou_detail_004_kani=true&JigyosyoCd=3861091860-00&ServiceCd=130&Type=search", "url2": null }, "geometry": { "type": "Point", "coordinates": [ 139.296652600000016, 35.6381484 ] } },
{ "type": "Feature", "properties": { "内容": "訪問看護ステーションＳｅｔｓｕｋＯ【訪問看護】愛媛県八幡浜市桧谷一丁目1009番地1", "url": "https://www.kaigokensaku.mhlw.go.jp/38/index.php?action_kouhyou_detail_004_kani=true&JigyosyoCd=3860491350-00&ServiceCd=130&Type=search", "url2": null }, "geometry": { "type": "Point", "coordinates": [ 132.437511060990914, 33.460599510150345 ] } },
{ "type": "Feature", "properties": { "内容": "タートル訪問看護リハステーション【訪問看護】愛媛県新居浜市西の土居町一丁目４の３４", "url": "https://www.kaigokensaku.mhlw.go.jp/38/index.php?action_kouhyou_detail_004_kani=true&JigyosyoCd=3860591886-00&ServiceCd=130&Type=search", "url2": null }, "geometry": { "type": "Point", "coordinates": [ 133.281281600000057, 33.9512015 ] } },
{ "type": "Feature", "properties": { "内容": "セントケア訪問看護ステーションにいはま【訪問看護】愛媛県新居浜市星原町15-47貸店舗1階1号室", "url": "https://www.kaigokensaku.mhlw.go.jp/38/index.php?action_kouhyou_detail_004_kani=true&JigyosyoCd=3860592199-00&ServiceCd=130&Type=search", "url2": null }, "geometry": { "type": "Point", "coordinates": [ 133.3021286, 33.9371309 ] } },
{ "type": "Feature", "properties": { "内容": "訪問看護ステーション　satoiro【訪問看護】新居浜市郷3丁目１６番３９号", "url": "https://www.kaigokensaku.mhlw.go.jp/38/index.php?action_kouhyou_detail_004_kani=true&JigyosyoCd=3860593106-00&ServiceCd=130&Type=search", "url2": null }, "geometry": { "type": "Point", "coordinates": [ 133.3100349, 33.9614972 ] } },
{ "type": "Feature", "properties": { "内容": "訪問看護ステーションこあ【訪問看護】愛媛県新居浜市港町16番35号", "url": "https://www.kaigokensaku.mhlw.go.jp/38/index.php?action_kouhyou_detail_004_kani=true&JigyosyoCd=3860593171-00&ServiceCd=130&Type=search", "url2": null }, "geometry": { "type": "Point", "coordinates": [ 133.280471071307232, 33.971473800749344 ] } },
{ "type": "Feature", "properties": { "内容": "住友別子病院【訪問看護】愛媛県新居浜市王子町3番1号", "url": "https://www.kaigokensaku.mhlw.go.jp/38/index.php?action_kouhyou_detail_004_kani=true&JigyosyoCd=3810510796-00&ServiceCd=130&Type=search", "url2": "https://sbh.gr.jp/index2.php" }, "geometry": { "type": "Point", "coordinates": [ 133.2636205, 33.9532651 ] } },
{ "type": "Feature", "properties": { "内容": "訪問看護ステーション医師会【訪問看護】愛媛県新居浜市庄内町4-7-54", "url": "https://www.kaigokensaku.mhlw.go.jp/38/index.php?action_kouhyou_detail_004_kani=true&JigyosyoCd=3860590078-00&ServiceCd=130&Type=search", "url2": "http://www.niihama-med.or.jp/" }, "geometry": { "type": "Point", "coordinates": [ 133.290211499999941, 33.9506516 ] } },
{ "type": "Feature", "properties": { "内容": "若水訪問看護ステーション【訪問看護】愛媛県新居浜市若水町1丁目7番45号", "url": "https://www.kaigokensaku.mhlw.go.jp/38/index.php?action_kouhyou_detail_004_kani=true&JigyosyoCd=3860590326-00&ServiceCd=130&Type=search", "url2": "http://www.ehime-med.or.jp" }, "geometry": { "type": "Point", "coordinates": [ 133.278729399999946, 33.9662277 ] } },
{ "type": "Feature", "properties": { "内容": "訪問看護ステーションせいきょう【訪問看護】愛媛県新居浜市高津町3-20", "url": "https://www.kaigokensaku.mhlw.go.jp/38/index.php?action_kouhyou_detail_004_kani=true&JigyosyoCd=3860590888-00&ServiceCd=130&Type=search", "url2": "http://www.niihama-mcoop.or.jp/" }, "geometry": { "type": "Point", "coordinates": [ 133.300430300000016, 33.9709331 ] } },
{ "type": "Feature", "properties": { "内容": "訪問看護ステーションはぴねす【訪問看護】若水町二丁目４番３８号", "url": "https://www.kaigokensaku.mhlw.go.jp/38/index.php?action_kouhyou_detail_004_kani=true&JigyosyoCd=3860591431-00&ServiceCd=130&Type=search", "url2": "https://hapinesu.com/medical/" }, "geometry": { "type": "Point", "coordinates": [ 133.279899587296967, 33.96793759247511 ] } },
{ "type": "Feature", "properties": { "内容": "伴野訪問看護ステーション【訪問看護】愛媛県新居浜市船木甲787番地2", "url": "https://www.kaigokensaku.mhlw.go.jp/38/index.php?action_kouhyou_detail_004_kani=true&JigyosyoCd=3860591977-00&ServiceCd=130&Type=search", "url2": null }, "geometry": { "type": "Point", "coordinates": [ 133.348503099999988, 33.943411 ] } },
{ "type": "Feature", "properties": { "内容": "十全訪問看護リハステーション　ずっと【訪問看護】愛媛県　新居浜市　北新町　1番5号", "url": "https://www.kaigokensaku.mhlw.go.jp/38/index.php?action_kouhyou_detail_004_kani=true&JigyosyoCd=3860592009-00&ServiceCd=130&Type=search", "url2": "https://jyuzen.jp/medical/1831.html" }, "geometry": { "type": "Point", "coordinates": [ 133.27312280000001, 33.960047800000019 ] } },
{ "type": "Feature", "properties": { "内容": "訪問看護ステーショントラスト【訪問看護】愛媛県新居浜市西の土居町2丁目13-43新楽ビル２階", "url": "https://www.kaigokensaku.mhlw.go.jp/38/index.php?action_kouhyou_detail_004_kani=true&JigyosyoCd=3860592553-00&ServiceCd=130&Type=search", "url2": "https://www.solamore.jp" }, "geometry": { "type": "Point", "coordinates": [ 133.2800063, 33.9512516 ] } },
{ "type": "Feature", "properties": { "内容": "訪問看護ステーション　ひなた【訪問看護】愛媛県新居浜市東田二丁目1385-1直野ビル２階東", "url": "https://www.kaigokensaku.mhlw.go.jp/38/index.php?action_kouhyou_detail_004_kani=true&JigyosyoCd=3860592579-00&ServiceCd=130&Type=search", "url2": "https://cocolo2020.co.jp/" }, "geometry": { "type": "Point", "coordinates": [ 133.3162519, 33.9440167 ] } },
{ "type": "Feature", "properties": { "内容": "訪問看護ステーション　葵【訪問看護】愛媛県新居浜市坂井町一丁目9番10号", "url": "https://www.kaigokensaku.mhlw.go.jp/38/index.php?action_kouhyou_detail_004_kani=true&JigyosyoCd=3860592918-00&ServiceCd=130&Type=search", "url2": null }, "geometry": { "type": "Point", "coordinates": [ 133.290386280985672, 33.946049075957198 ] } },
{ "type": "Feature", "properties": { "内容": "訪問看護ステーション　メディカルレイズ新居浜【訪問看護】愛媛県新居浜市高木町2番141号アーバンコート高木", "url": "https://www.kaigokensaku.mhlw.go.jp/38/index.php?action_kouhyou_detail_004_kani=true&JigyosyoCd=3860592629-00&ServiceCd=130&Type=search", "url2": "http://izen.co.jp" }, "geometry": { "type": "Point", "coordinates": [ 133.2862929, 33.9535958 ] } },
{ "type": "Feature", "properties": { "内容": "ここモア訪問看護ステーション【訪問看護】愛媛県新居浜市高田2丁目5-63", "url": "https://www.kaigokensaku.mhlw.go.jp/38/index.php?action_kouhyou_detail_004_kani=true&JigyosyoCd=3860593353-00&ServiceCd=130&Type=search", "url2": null }, "geometry": { "type": "Point", "coordinates": [ 133.309555631877174, 33.970863181701937 ] } },
{ "type": "Feature", "properties": { "内容": "ツクイ新居浜訪問看護ステーション【訪問看護】愛媛県新居浜市繁本町5番3号コーナンビル2階", "url": "https://www.kaigokensaku.mhlw.go.jp/38/index.php?action_kouhyou_detail_004_kani=true&JigyosyoCd=3860593395-00&ServiceCd=130&Type=search", "url2": "https://www.tsukui.net/home-care/5084/" }, "geometry": { "type": "Point", "coordinates": [ 133.283525, 33.9631634 ] } },
{ "type": "Feature", "properties": { "内容": "愛媛労災病院訪問看護ステーション【訪問看護】愛媛県新居浜市南小松原町13-27", "url": "https://www.kaigokensaku.mhlw.go.jp/38/index.php?action_kouhyou_detail_004_kani=true&JigyosyoCd=3860592850-00&ServiceCd=130&Type=search", "url2": "https://www.ehimeh.johas.go.jp/" }, "geometry": { "type": "Point", "coordinates": [ 133.292221140336608, 33.974069615878555 ] } },
{ "type": "Feature", "properties": { "内容": "株式会社Get訪問看護ステーションまじゅん愛媛【訪問看護】三津屋東32-9BASIC408", "url": "https://www.kaigokensaku.mhlw.go.jp/38/index.php?action_kouhyou_detail_004_kani=true&JigyosyoCd=3860692973-00&ServiceCd=130&Type=search", "url2": "https://www.getounohana.com/company" }, "geometry": { "type": "Point", "coordinates": [ 133.09077640000001, 33.9337249 ] } },
{ "type": "Feature", "properties": { "内容": "はなえみ訪問看護ステーション【訪問看護】愛媛県西条市楢木244番地2サンワタチバナ102号室", "url": "https://www.kaigokensaku.mhlw.go.jp/38/index.php?action_kouhyou_detail_004_kani=true&JigyosyoCd=3860692296-00&ServiceCd=130&Type=search", "url2": null }, "geometry": { "type": "Point", "coordinates": [ 133.142789, 33.8946913 ] } },
{ "type": "Feature", "properties": { "内容": "訪問看護ステーションあかり【訪問看護】愛媛県西条市飯岡3306番地202号", "url": "https://www.kaigokensaku.mhlw.go.jp/38/index.php?action_kouhyou_detail_004_kani=true&JigyosyoCd=3860693112-00&ServiceCd=130&Type=search", "url2": null }, "geometry": { "type": "Point", "coordinates": [ 133.2113348, 33.909425 ] } },
{ "type": "Feature", "properties": { "内容": "訪問看護ステーション　空【訪問看護】愛媛県西条市三芳1047番地1", "url": "https://www.kaigokensaku.mhlw.go.jp/38/index.php?action_kouhyou_detail_004_kani=true&JigyosyoCd=3860291404-00&ServiceCd=130&Type=search", "url2": null }, "geometry": { "type": "Point", "coordinates": [ 133.061828800000058, 33.9534983 ] } },
{ "type": "Feature", "properties": { "内容": "氷見訪問看護ステーション【訪問看護】愛媛県西条市氷見丙476番地4", "url": "https://www.kaigokensaku.mhlw.go.jp/38/index.php?action_kouhyou_detail_004_kani=true&JigyosyoCd=3860690175-00&ServiceCd=130&Type=search", "url2": "http://www.hokushinkai.jp" }, "geometry": { "type": "Point", "coordinates": [ 133.1319264, 33.8933344 ] } },
{ "type": "Feature", "properties": { "内容": "訪問看護ステーションゆるぎ荘【訪問看護】愛媛県西条市福武字蔵ノ尾甲162-1", "url": "https://www.kaigokensaku.mhlw.go.jp/38/index.php?action_kouhyou_detail_004_kani=true&JigyosyoCd=3860690183-00&ServiceCd=130&Type=search", "url2": "yurugisou@trad.ocn.ne.jp" }, "geometry": { "type": "Point", "coordinates": [ 133.209500199999979, 33.9110979 ] } },
{ "type": "Feature", "properties": { "内容": "エンジェル・コール訪問看護ステーション【訪問看護】愛媛県西条市喜多川792番地1", "url": "https://www.kaigokensaku.mhlw.go.jp/38/index.php?action_kouhyou_detail_004_kani=true&JigyosyoCd=3860690712-00&ServiceCd=130&Type=search", "url2": "https://angel-call.co.jp/" }, "geometry": { "type": "Point", "coordinates": [ 133.170214510497999, 33.924919304392354 ] } },
{ "type": "Feature", "properties": { "内容": "訪問看護ステーション　おれんじ【訪問看護】西条市壬生川491-1", "url": "https://www.kaigokensaku.mhlw.go.jp/38/index.php?action_kouhyou_detail_004_kani=true&JigyosyoCd=3860691017-00&ServiceCd=130&Type=search", "url2": "campus.mond.jp" }, "geometry": { "type": "Point", "coordinates": [ 133.085589191454346, 33.93802912188017 ] } },
{ "type": "Feature", "properties": { "内容": "済生会西条訪問看護ステーション【訪問看護】愛媛県西条市新田109番地1", "url": "https://www.kaigokensaku.mhlw.go.jp/38/index.php?action_kouhyou_detail_004_kani=true&JigyosyoCd=3860691710-00&ServiceCd=130&Type=search", "url2": "https://www.saiseikaisaijo.jp/home-nursing/" }, "geometry": { "type": "Point", "coordinates": [ 133.18366119999996, 33.9272932 ] } },
{ "type": "Feature", "properties": { "内容": "訪問看護ステーション　デューン西条【訪問看護】愛媛県西条市明屋敷428-4エトワール西条テナント1階103(東)号室", "url": "https://www.kaigokensaku.mhlw.go.jp/38/index.php?action_kouhyou_detail_004_kani=true&JigyosyoCd=3860692346-00&ServiceCd=130&Type=search", "url2": "https://www.nfield.co.jp/" }, "geometry": { "type": "Point", "coordinates": [ 133.177101599999986, 33.9212067 ] } },
{ "type": "Feature", "properties": { "内容": "訪問看護ステーション和来　さいじょう【訪問看護】愛媛県西条市三津屋453−2稲井ビル2F", "url": "https://www.kaigokensaku.mhlw.go.jp/38/index.php?action_kouhyou_detail_004_kani=true&JigyosyoCd=3860692643-00&ServiceCd=130&Type=search", "url2": "https://warai.life/about" }, "geometry": { "type": "Point", "coordinates": [ 133.087024, 33.9272853 ] } },
{ "type": "Feature", "properties": { "内容": "訪問看護ステーション　にじいろ【訪問看護】愛媛県西条市小松町新屋敷甲518番地4", "url": "https://www.kaigokensaku.mhlw.go.jp/38/index.php?action_kouhyou_detail_004_kani=true&JigyosyoCd=3860692676-00&ServiceCd=130&Type=search", "url2": null }, "geometry": { "type": "Point", "coordinates": [ 133.111712899999986, 33.8866875 ] } },
{ "type": "Feature", "properties": { "内容": "周桑病院　訪問看護ステーション【訪問看護】愛媛県西条市壬生川131番地", "url": "https://www.kaigokensaku.mhlw.go.jp/38/index.php?action_kouhyou_detail_004_kani=true&JigyosyoCd=3860692817-00&ServiceCd=130&Type=search", "url2": "http://www.shuso-hospital.jp/" }, "geometry": { "type": "Point", "coordinates": [ 133.0784189, 33.9328601 ] } },
{ "type": "Feature", "properties": { "内容": "西条中央病院訪問看護ステーション【訪問看護】愛媛県西条市朔日市804番地", "url": "https://www.kaigokensaku.mhlw.go.jp/38/index.php?action_kouhyou_detail_004_kani=true&JigyosyoCd=3860692833-00&ServiceCd=130&Type=search", "url2": "https://www.saijo-c-hospital.jp/medicalinfo/houmon/" }, "geometry": { "type": "Point", "coordinates": [ 133.1806566, 33.9285474 ] } },
{ "type": "Feature", "properties": { "内容": "訪問看護ステーションコスモス【訪問看護】愛媛県西条市周布339番地", "url": "https://www.kaigokensaku.mhlw.go.jp/38/index.php?action_kouhyou_detail_004_kani=true&JigyosyoCd=3861290413-00&ServiceCd=130&Type=search", "url2": "http://www.cosmos-2012.com/visit/" }, "geometry": { "type": "Point", "coordinates": [ 133.085686900000042, 33.9249103 ] } },
{ "type": "Feature", "properties": { "内容": "アシストジャパン訪問看護ステーション東予【訪問看護】愛媛県西条市大町字御舟川539番地1", "url": "https://www.kaigokensaku.mhlw.go.jp/38/index.php?action_kouhyou_detail_004_kani=true&JigyosyoCd=3861290926-00&ServiceCd=130&Type=search", "url2": "http://www.assistjapan.com/" }, "geometry": { "type": "Point", "coordinates": [ 133.190474768383325, 33.919935809057286 ] } },
{ "type": "Feature", "properties": { "内容": "訪問看護ステーションはる【訪問看護】愛媛県西条市国安702-3", "url": "https://www.kaigokensaku.mhlw.go.jp/38/index.php?action_kouhyou_detail_004_kani=true&JigyosyoCd=3860693427-00&ServiceCd=130&Type=search", "url2": null }, "geometry": { "type": "Point", "coordinates": [ 133.061981800000012, 33.9389287 ] } },
{ "type": "Feature", "properties": { "内容": "訪問看護ステーションひまわり【訪問看護】愛媛県大洲市徳森1508番地1", "url": "https://www.kaigokensaku.mhlw.go.jp/38/index.php?action_kouhyou_detail_004_kani=true&JigyosyoCd=3860790108-00&ServiceCd=130&Type=search", "url2": "http://www.ozu-johukai.jp/himawari/hima04/" }, "geometry": { "type": "Point", "coordinates": [ 132.582899600000019, 33.5309362 ] } },
{ "type": "Feature", "properties": { "内容": "訪問看護ステーションフレンド【訪問看護】愛媛県大洲市東大洲39番地", "url": "https://www.kaigokensaku.mhlw.go.jp/38/index.php?action_kouhyou_detail_004_kani=true&JigyosyoCd=3860790405-00&ServiceCd=130&Type=search", "url2": "http://kato-hp.jp" }, "geometry": { "type": "Point", "coordinates": [ 132.551677299999938, 33.5168064 ] } },
{ "type": "Feature", "properties": { "内容": "喜多医師会訪問看護ステーション【訪問看護】大洲市東大洲1563番地1", "url": "https://www.kaigokensaku.mhlw.go.jp/38/index.php?action_kouhyou_detail_004_kani=true&JigyosyoCd=3860790553-00&ServiceCd=130&Type=search", "url2": null }, "geometry": { "type": "Point", "coordinates": [ 132.571909408057763, 33.532459609238664 ] } },
{ "type": "Feature", "properties": { "内容": "市立大洲病院訪問看護ステーション【訪問看護】愛媛県大洲市西大洲字ヤスバ甲570番地", "url": "https://www.kaigokensaku.mhlw.go.jp/38/index.php?action_kouhyou_detail_004_kani=true&JigyosyoCd=3860793060-00&ServiceCd=130&Type=search", "url2": "https://www.city.ozu.ehime.jp" }, "geometry": { "type": "Point", "coordinates": [ 132.52399174384152, 33.505181129130705 ] } },
{ "type": "Feature", "properties": { "内容": "訪問看護ステーションくるみ南予【訪問看護】愛媛県大洲市新谷乙375番地2", "url": "https://www.kaigokensaku.mhlw.go.jp/38/index.php?action_kouhyou_detail_004_kani=true&JigyosyoCd=3860792708-00&ServiceCd=130&Type=search", "url2": null }, "geometry": { "type": "Point", "coordinates": [ 132.588280783869948, 33.533771435433607 ] } },
{ "type": "Feature", "properties": { "内容": "訪問看護ステーションごしき【訪問看護】愛媛県伊予市下吾川55番地１", "url": "https://www.kaigokensaku.mhlw.go.jp/38/index.php?action_kouhyou_detail_004_kani=true&JigyosyoCd=3861090698-00&ServiceCd=130&Type=search", "url2": null }, "geometry": { "type": "Point", "coordinates": [ 132.712289285432604, 33.759708144267698 ] } },
{ "type": "Feature", "properties": { "内容": "訪問看護ステーションいちば【訪問看護】愛媛県伊予市市場甲419番地3", "url": "https://www.kaigokensaku.mhlw.go.jp/38/index.php?action_kouhyou_detail_004_kani=true&JigyosyoCd=3861091647-00&ServiceCd=130&Type=search", "url2": "https://nichiwa.chu.jp" }, "geometry": { "type": "Point", "coordinates": [ 132.697200703257749, 33.738887224565445 ] } },
{ "type": "Feature", "properties": { "内容": "訪問看護ステーションいつき【訪問看護】愛媛県伊予市下吾川341番地74", "url": "https://www.kaigokensaku.mhlw.go.jp/38/index.php?action_kouhyou_detail_004_kani=true&JigyosyoCd=3861093197-00&ServiceCd=130&Type=search", "url2": "https://www.itsuki-llc.com" }, "geometry": { "type": "Point", "coordinates": [ 132.7153706, 33.7696693 ] } },
{ "type": "Feature", "properties": { "内容": "訪問看護ステーションにしおか【訪問看護】愛媛県四国中央市三島金子2丁目7番22号", "url": "https://www.kaigokensaku.mhlw.go.jp/38/index.php?action_kouhyou_detail_004_kani=true&JigyosyoCd=3860990054-00&ServiceCd=130&Type=search", "url2": "http://www.nishioka-hp.com" }, "geometry": { "type": "Point", "coordinates": [ 133.537529, 33.9798576 ] } },
{ "type": "Feature", "properties": { "内容": "訪問看護　２４【訪問看護】愛媛県四国中央市土居町入野117番地1", "url": "https://www.kaigokensaku.mhlw.go.jp/38/index.php?action_kouhyou_detail_004_kani=true&JigyosyoCd=3861391203-00&ServiceCd=130&Type=search", "url2": null }, "geometry": { "type": "Point", "coordinates": [ 133.418239488755006, 33.953979100838986 ] } },
{ "type": "Feature", "properties": { "内容": "医療法人　健康会　訪問看護ステーションいしかわ【訪問看護】愛媛県四国中央市上分町７１６－２", "url": "https://www.kaigokensaku.mhlw.go.jp/38/index.php?action_kouhyou_detail_004_kani=true&JigyosyoCd=3861391468-00&ServiceCd=130&Type=search", "url2": "http://kenkou-kai.jp/cl.html" }, "geometry": { "type": "Point", "coordinates": [ 133.58856, 33.99172 ] } },
{ "type": "Feature", "properties": { "内容": "訪問看護ステーション　優【訪問看護】愛媛県四国中央市中曽根町1256", "url": "https://www.kaigokensaku.mhlw.go.jp/38/index.php?action_kouhyou_detail_004_kani=true&JigyosyoCd=3861391500-00&ServiceCd=130&Type=search", "url2": "aidasystem.jp" }, "geometry": { "type": "Point", "coordinates": [ 133.550193706054642, 33.973147482281725 ] } },
{ "type": "Feature", "properties": { "内容": "訪問看護ステーション四国中央【訪問看護】愛媛県四国中央市豊岡町大町2462番地", "url": "https://www.kaigokensaku.mhlw.go.jp/38/index.php?action_kouhyou_detail_004_kani=true&JigyosyoCd=3861392011-00&ServiceCd=130&Type=search", "url2": "http://www.homenursing.co.jp/" }, "geometry": { "type": "Point", "coordinates": [ 133.485959428165529, 33.960483974390051 ] } },
{ "type": "Feature", "properties": { "内容": "明生訪問看護ステーション「ひまわり」【訪問看護】愛媛県四国中央市金生町下分1243番地1", "url": "https://www.kaigokensaku.mhlw.go.jp/38/index.php?action_kouhyou_detail_004_kani=true&JigyosyoCd=3861392797-00&ServiceCd=130&Type=search", "url2": null }, "geometry": { "type": "Point", "coordinates": [ 133.580279100000013, 33.9975679 ] } },
{ "type": "Feature", "properties": { "内容": "訪問看護ステーションちかい【訪問看護】愛媛県四国中央市土居町土居2227番地32", "url": "https://www.kaigokensaku.mhlw.go.jp/38/index.php?action_kouhyou_detail_004_kani=true&JigyosyoCd=3863090605-00&ServiceCd=130&Type=search", "url2": null }, "geometry": { "type": "Point", "coordinates": [ 133.414509299999963, 33.9614655 ] } },
{ "type": "Feature", "properties": { "内容": "日本財団在宅看護センターしこく【訪問看護】川之江町字井地山980番6", "url": "https://www.kaigokensaku.mhlw.go.jp/38/index.php?action_kouhyou_detail_004_kani=true&JigyosyoCd=3861392052-00&ServiceCd=130&Type=search", "url2": "https://zaikan459.link" }, "geometry": { "type": "Point", "coordinates": [ 133.570985836250941, 34.007721638066691 ] } },
{ "type": "Feature", "properties": { "内容": "公立学校共済組合四国中央病院訪問看護ステーションほのやか【訪問看護】愛媛県四国中央市川之江町2233", "url": "https://www.kaigokensaku.mhlw.go.jp/38/index.php?action_kouhyou_detail_004_kani=true&JigyosyoCd=3861392961-00&ServiceCd=130&Type=search", "url2": "https://www.shikoku-ctr-hsp.jp" }, "geometry": { "type": "Point", "coordinates": [ 133.5815945, 34.011434 ] } },
{ "type": "Feature", "properties": { "内容": "リハビリ訪問看護ステーション歩【訪問看護】愛媛県西予市宇和町卯之町3－486", "url": "https://www.kaigokensaku.mhlw.go.jp/38/index.php?action_kouhyou_detail_004_kani=true&JigyosyoCd=3861492324-00&ServiceCd=130&Type=search", "url2": "http://www.seiyofukushi.com/" }, "geometry": { "type": "Point", "coordinates": [ 132.512735900000052, 33.3612577 ] } },
{ "type": "Feature", "properties": { "内容": "訪問看護ステーションわかば【訪問看護】愛媛県西予市三瓶町朝立2-1-7", "url": "https://www.kaigokensaku.mhlw.go.jp/38/index.php?action_kouhyou_detail_004_kani=true&JigyosyoCd=3863790824-00&ServiceCd=130&Type=search", "url2": "http://minorikai.jp.net/blog02/" }, "geometry": { "type": "Point", "coordinates": [ 132.4231714, 33.3837064 ] } },
{ "type": "Feature", "properties": { "内容": "訪問看護ステーション東宇和【訪問看護】愛媛県西予市宇和町卯之町3丁目293", "url": "https://www.kaigokensaku.mhlw.go.jp/38/index.php?action_kouhyou_detail_004_kani=true&JigyosyoCd=3863890814-00&ServiceCd=130&Type=search", "url2": "https://www.nursing-ehime.or.jp/" }, "geometry": { "type": "Point", "coordinates": [ 132.512789500000054, 33.3626173 ] } },
{ "type": "Feature", "properties": { "内容": "訪問看護井関医院【訪問看護】西予市野村町野村11-110", "url": "https://www.kaigokensaku.mhlw.go.jp/38/index.php?action_kouhyou_detail_004_kani=true&JigyosyoCd=3813828278-00&ServiceCd=130&Type=search", "url2": "iseki-mc.wixsite.com]" }, "geometry": { "type": "Point", "coordinates": [ 132.643438, 33.3720792 ] } },
{ "type": "Feature", "properties": { "内容": "ウェルケア重信訪問看護ステーション【訪問看護】愛媛県東温市北野田５３３番１", "url": "https://www.kaigokensaku.mhlw.go.jp/38/index.php?action_kouhyou_detail_004_kani=true&JigyosyoCd=3863390351-00&ServiceCd=130&Type=search", "url2": "http://kikuju.or.jp/" }, "geometry": { "type": "Point", "coordinates": [ 132.832910800000036, 33.7934473 ] } },
{ "type": "Feature", "properties": { "内容": "訪問看護ステーション　じゅうぜん【訪問看護】愛媛県東温市南方５６１番地", "url": "https://www.kaigokensaku.mhlw.go.jp/38/index.php?action_kouhyou_detail_004_kani=true&JigyosyoCd=3863390450-00&ServiceCd=130&Type=search", "url2": "http://www.ehime-juzen.jp" }, "geometry": { "type": "Point", "coordinates": [ 132.91056750000007, 33.7981239 ] } },
{ "type": "Feature", "properties": { "内容": "ツクイ東温訪問看護ステーション【訪問看護】愛媛県東温市志津川南5-2-18", "url": "https://www.kaigokensaku.mhlw.go.jp/38/index.php?action_kouhyou_detail_004_kani=true&JigyosyoCd=3861590010-00&ServiceCd=130&Type=search", "url2": "https://www.tsukui.net/" }, "geometry": { "type": "Point", "coordinates": [ 132.8774913, 33.7994783 ] } },
{ "type": "Feature", "properties": { "内容": "たんぽぽ訪問看護ステーション【訪問看護】愛媛県東温市志津川108-2オーパス1103号志津川やすらぎ苑", "url": "https://www.kaigokensaku.mhlw.go.jp/38/index.php?action_kouhyou_detail_004_kani=true&JigyosyoCd=3861591299-00&ServiceCd=130&Type=search", "url2": "http://tampopo.ikegawa.jp/tampopo-wp/index.php/nursing-station/" }, "geometry": { "type": "Point", "coordinates": [ 132.876839162235484, 33.805632931552594 ] } },
{ "type": "Feature", "properties": { "内容": "久万高原町立訪問看護ステーション　あけぼの【訪問看護】愛媛県上浮穴郡久万高原町久万71-1", "url": "https://www.kaigokensaku.mhlw.go.jp/38/index.php?action_kouhyou_detail_004_kani=true&JigyosyoCd=3863491043-00&ServiceCd=130&Type=search", "url2": null }, "geometry": { "type": "Point", "coordinates": [ 132.904720699999984, 33.6550863 ] } },
{ "type": "Feature", "properties": { "内容": "訪問看護リハビリステーションyoutoo【訪問看護】愛媛県上浮穴郡久万高原町久万535番地1", "url": "https://www.kaigokensaku.mhlw.go.jp/38/index.php?action_kouhyou_detail_004_kani=true&JigyosyoCd=3863491050-00&ServiceCd=130&Type=search", "url2": null }, "geometry": { "type": "Point", "coordinates": [ 132.898827573565541, 33.662130401055727 ] } },
{ "type": "Feature", "properties": { "内容": "訪問看護ステーション菜の花【訪問看護】愛媛県伊予郡松前町大字神崎578番地1", "url": "https://www.kaigokensaku.mhlw.go.jp/38/index.php?action_kouhyou_detail_004_kani=true&JigyosyoCd=3863590513-00&ServiceCd=130&Type=search", "url2": "http://www.kuroda.or.jp/" }, "geometry": { "type": "Point", "coordinates": [ 132.7379949, 33.787148699999989 ] } },
{ "type": "Feature", "properties": { "内容": "訪問看護ステーションまさき【訪問看護】愛媛県伊予郡松前町筒井1417番地3", "url": "https://www.kaigokensaku.mhlw.go.jp/38/index.php?action_kouhyou_detail_004_kani=true&JigyosyoCd=3863592501-00&ServiceCd=130&Type=search", "url2": "https://sites.google.com/view/masakihoumonkango" }, "geometry": { "type": "Point", "coordinates": [ 132.702631899999972, 33.7943645 ] } },
{ "type": "Feature", "properties": { "内容": "訪問看護ステーションいとさくら【訪問看護】愛媛県伊予郡松前町大字北黒田405番地4", "url": "https://www.kaigokensaku.mhlw.go.jp/38/index.php?action_kouhyou_detail_004_kani=true&JigyosyoCd=3863592493-00&ServiceCd=130&Type=search", "url2": "https://asone0703.com" }, "geometry": { "type": "Point", "coordinates": [ 132.708290277909839, 33.77892281236015 ] } },
{ "type": "Feature", "properties": { "内容": "訪問看護ステーションくるみ【訪問看護】愛媛県伊予郡松前町大字北黒田679番地1", "url": "https://www.kaigokensaku.mhlw.go.jp/38/index.php?action_kouhyou_detail_004_kani=true&JigyosyoCd=3863591255-00&ServiceCd=130&Type=search", "url2": "http://www.qualia.kurumi.net" }, "geometry": { "type": "Point", "coordinates": [ 132.704434399999968, 33.7795822 ] } },
{ "type": "Feature", "properties": { "内容": "訪問看護ステーション　とべ和合苑【訪問看護】愛媛県伊予郡砥部町北川毛1412-3", "url": "https://www.kaigokensaku.mhlw.go.jp/38/index.php?action_kouhyou_detail_004_kani=true&JigyosyoCd=3863590612-00&ServiceCd=130&Type=search", "url2": "http://www.kouyoukai.biz" }, "geometry": { "type": "Point", "coordinates": [ 132.786003100000016, 33.7395023 ] } },
{ "type": "Feature", "properties": { "内容": "訪問看護リハステーションCORE【訪問看護】愛媛県伊予郡砥部町宮内892番地2", "url": "https://www.kaigokensaku.mhlw.go.jp/38/index.php?action_kouhyou_detail_004_kani=true&JigyosyoCd=3863591958-00&ServiceCd=130&Type=search", "url2": null }, "geometry": { "type": "Point", "coordinates": [ 132.789658399780507, 33.748526604893804 ] } },
{ "type": "Feature", "properties": { "内容": "指定訪問看護ステーション　コミュニティナースin愛媛【訪問看護】愛媛県伊予郡砥部町大南191番地山田ハイツ102", "url": "https://www.kaigokensaku.mhlw.go.jp/38/index.php?action_kouhyou_detail_004_kani=true&JigyosyoCd=3863592519-00&ServiceCd=130&Type=search", "url2": null }, "geometry": { "type": "Point", "coordinates": [ 132.794432, 33.7391445 ] } },
{ "type": "Feature", "properties": { "内容": "訪問看護ステーション　いこい【訪問看護】愛媛県喜多郡内子町内子3295番地1", "url": "https://www.kaigokensaku.mhlw.go.jp/38/index.php?action_kouhyou_detail_004_kani=true&JigyosyoCd=3863691212-00&ServiceCd=130&Type=search", "url2": null }, "geometry": { "type": "Point", "coordinates": [ 132.648234799999955, 33.5525022 ] } },
{ "type": "Feature", "properties": { "内容": "北宇和訪問看護ステーション【訪問看護】愛媛県北宇和郡鬼北町大字近永455-1", "url": "https://www.kaigokensaku.mhlw.go.jp/38/index.php?action_kouhyou_detail_004_kani=true&JigyosyoCd=3863991091-00&ServiceCd=130&Type=search", "url2": "http://www.kitauwa-hospital.jp/" }, "geometry": { "type": "Point", "coordinates": [ 132.685127997750897, 33.258271003145367 ] } },
{ "type": "Feature", "properties": { "内容": "希望の風　訪問看護ステーション【訪問看護】愛媛県北宇和郡鬼北町大字吉波455番地", "url": "https://www.kaigokensaku.mhlw.go.jp/38/index.php?action_kouhyou_detail_004_kani=true&JigyosyoCd=3863992222-00&ServiceCd=130&Type=search", "url2": null }, "geometry": { "type": "Point", "coordinates": [ 132.625632333966024, 33.273826557006714 ] } },
{ "type": "Feature", "properties": { "内容": "公益財団法人正光会　訪問看護ステーションアロハ【訪問看護】愛媛県南宇和郡愛南町城辺甲2934番地", "url": "https://www.kaigokensaku.mhlw.go.jp/38/index.php?action_kouhyou_detail_004_kani=true&JigyosyoCd=3864092394-00&ServiceCd=130&Type=search", "url2": "http://www.shokokai-grp.or.jp/category/uwajima.html" }, "geometry": { "type": "Point", "coordinates": [ 132.584242499999959, 32.9581709 ] } },
{ "type": "Feature", "properties": { "内容": "南宇和郡医師会訪問看護ステーション【訪問看護】愛媛県南宇和郡愛南町御荘深泥703-2老人保健施設なんぐん館内", "url": "https://www.kaigokensaku.mhlw.go.jp/38/index.php?action_kouhyou_detail_004_kani=true&JigyosyoCd=3864090497-00&ServiceCd=130&Type=search", "url2": "http://www.nangunkan.justhpbs.jp/" }, "geometry": { "type": "Point", "coordinates": [ 132.542570500000011, 32.9598296 ] } },
{ "type": "Feature", "properties": { "内容": "訪問看護ステーション　笑む【訪問看護】愛媛県南宇和郡愛南町一本松3381番地１訪問看護ステーション笑む", "url": "https://www.kaigokensaku.mhlw.go.jp/38/index.php?action_kouhyou_detail_004_kani=true&JigyosyoCd=3864091529-00&ServiceCd=130&Type=search", "url2": null }, "geometry": { "type": "Point", "coordinates": [ 132.647666500000014, 32.9638863 ] } }
]
}
