{
"type": "FeatureCollection",
"name": "geo_38_定期巡回・随時対応型訪問介護看護",
"crs": { "type": "name", "properties": { "name": "urn:ogc:def:crs:OGC:1.3:CRS84" } },
"features": [
{ "type": "Feature", "properties": { "内容": "24時間巡回介護・看護　ドマーニケア24【定期巡回・随時対応型訪問介護看護】愛媛県松山市小栗2丁目3-5", "url": "https://www.kaigokensaku.mhlw.go.jp/38/index.php?action_kouhyou_detail_004_kani=true&JigyosyoCd=3890101326-00&ServiceCd=760&Type=search", "url2": "http://domani.sunliberal.com/" }, "geometry": { "type": "Point", "coordinates": [ 132.759226740475469, 33.825584102514391 ] } },
{ "type": "Feature", "properties": { "内容": "定期巡回・随時対応型訪問介護看護事業所プリンス【定期巡回・随時対応型訪問介護看護】愛媛県松山市朝生田町1丁目15-1", "url": "https://www.kaigokensaku.mhlw.go.jp/38/index.php?action_kouhyou_detail_004_kani=true&JigyosyoCd=3890101839-00&ServiceCd=760&Type=search", "url2": "http://care-life-energy.jp/publics/index/22/" }, "geometry": { "type": "Point", "coordinates": [ 132.771839300000011, 33.8238149 ] } },
{ "type": "Feature", "properties": { "内容": "ココロココ２４【定期巡回・随時対応型訪問介護看護】愛媛県松山市姫原3丁目9-11", "url": "https://www.kaigokensaku.mhlw.go.jp/38/index.php?action_kouhyou_detail_004_kani=true&JigyosyoCd=3890102290-00&ServiceCd=760&Type=search", "url2": "https://cocolococo.co.jp/" }, "geometry": { "type": "Point", "coordinates": [ 132.7557217, 33.8662044 ] } },
{ "type": "Feature", "properties": { "内容": "定期巡回くぼ【定期巡回・随時対応型訪問介護看護】愛媛県今治市内堀一丁目１－２", "url": "https://www.kaigokensaku.mhlw.go.jp/38/index.php?action_kouhyou_detail_004_kani=true&JigyosyoCd=3890200524-00&ServiceCd=760&Type=search", "url2": "https://care-kubo.jp/" }, "geometry": { "type": "Point", "coordinates": [ 132.967834724606263, 34.103538199928764 ] } },
{ "type": "Feature", "properties": { "内容": "ココロココ２４【定期巡回・随時対応型訪問介護看護】愛媛県今治市山路町1-3-21", "url": "https://www.kaigokensaku.mhlw.go.jp/38/index.php?action_kouhyou_detail_004_kani=true&JigyosyoCd=3890200540-00&ServiceCd=760&Type=search", "url2": "https://cocolococo.co.jp/" }, "geometry": { "type": "Point", "coordinates": [ 132.977628200000026, 34.0591538 ] } },
{ "type": "Feature", "properties": { "内容": "定期巡回ほほえみ【定期巡回・随時対応型訪問介護看護】愛媛県今治市片山3丁目1番40号", "url": "https://www.kaigokensaku.mhlw.go.jp/38/index.php?action_kouhyou_detail_004_kani=true&JigyosyoCd=3890200649-00&ServiceCd=760&Type=search", "url2": "https://www.hp-yamauchi.or.jp" }, "geometry": { "type": "Point", "coordinates": [ 132.984824800000069, 34.051934600000017 ] } },
{ "type": "Feature", "properties": { "内容": "定期巡回・随時対応型訪問介護看護ひうち【定期巡回・随時対応型訪問介護看護】愛媛県今治市黄金町二丁目2番地5", "url": "https://www.kaigokensaku.mhlw.go.jp/38/index.php?action_kouhyou_detail_004_kani=true&JigyosyoCd=3890200722-00&ServiceCd=760&Type=search", "url2": null }, "geometry": { "type": "Point", "coordinates": [ 133.0028816, 34.0648854 ] } },
{ "type": "Feature", "properties": { "内容": "定期巡回いきいき【定期巡回・随時対応型訪問介護看護】愛媛県今治市北宝来町3丁目2番地12", "url": "https://www.kaigokensaku.mhlw.go.jp/38/index.php?action_kouhyou_detail_004_kani=true&JigyosyoCd=3890200763-00&ServiceCd=760&Type=search", "url2": null }, "geometry": { "type": "Point", "coordinates": [ 132.993933, 34.0664825 ] } },
{ "type": "Feature", "properties": { "内容": "定期巡回ヒロセ【定期巡回・随時対応型訪問介護看護】愛媛県今治市喜田村6丁目4番20号", "url": "https://www.kaigokensaku.mhlw.go.jp/38/index.php?action_kouhyou_detail_004_kani=true&JigyosyoCd=3890200771-00&ServiceCd=760&Type=search", "url2": "http://www.hirose-youseikai.org" }, "geometry": { "type": "Point", "coordinates": [ 133.0232264, 34.0433753 ] } },
{ "type": "Feature", "properties": { "内容": "ラポール24訪問介護看護センター【定期巡回・随時対応型訪問介護看護】愛媛県宇和島市恵美須町1丁目4番23号", "url": "https://www.kaigokensaku.mhlw.go.jp/38/index.php?action_kouhyou_detail_004_kani=true&JigyosyoCd=3890300159-00&ServiceCd=760&Type=search", "url2": "http://www.apotry.net/" }, "geometry": { "type": "Point", "coordinates": [ 132.565342323942588, 33.223481662649171 ] } },
{ "type": "Feature", "properties": { "内容": "ヘルパーステーション若水館【定期巡回・随時対応型訪問介護看護】愛媛県新居浜市若水町一丁目９番１８号", "url": "https://www.kaigokensaku.mhlw.go.jp/38/index.php?action_kouhyou_detail_004_kani=true&JigyosyoCd=3890500410-00&ServiceCd=760&Type=search", "url2": "http://www.hapinesu.com/" }, "geometry": { "type": "Point", "coordinates": [ 133.277245724467434, 33.966143535313499 ] } },
{ "type": "Feature", "properties": { "内容": "ヘルパーステーション野の花【定期巡回・随時対応型訪問介護看護】愛媛県新居浜市南小松原町5-4", "url": "https://www.kaigokensaku.mhlw.go.jp/38/index.php?action_kouhyou_detail_004_kani=true&JigyosyoCd=3890500428-00&ServiceCd=760&Type=search", "url2": null }, "geometry": { "type": "Point", "coordinates": [ 133.295280911917104, 33.970739771030544 ] } },
{ "type": "Feature", "properties": { "内容": "上部24時間ヘルパーステーション野の花【定期巡回・随時対応型訪問介護看護】愛媛県新居浜市萩生1061番地", "url": "https://www.kaigokensaku.mhlw.go.jp/38/index.php?action_kouhyou_detail_004_kani=true&JigyosyoCd=3890500519-00&ServiceCd=760&Type=search", "url2": "http://www.niihama-mcoop.or.jp/" }, "geometry": { "type": "Point", "coordinates": [ 133.266638435184746, 33.925736870751734 ] } },
{ "type": "Feature", "properties": { "内容": "ココロココ24西条【定期巡回・随時対応型訪問介護看護】愛媛県西条市朔日市804番地3ココロココ西条", "url": "https://www.kaigokensaku.mhlw.go.jp/38/index.php?action_kouhyou_detail_004_kani=true&JigyosyoCd=3890600368-00&ServiceCd=760&Type=search", "url2": "https://cocolococo.co.jp/" }, "geometry": { "type": "Point", "coordinates": [ 133.180602407514897, 33.9294559489555 ] } },
{ "type": "Feature", "properties": { "内容": "定期巡回　楽助【定期巡回・随時対応型訪問介護看護】愛媛県大洲市五郎甲2419番地", "url": "https://www.kaigokensaku.mhlw.go.jp/38/index.php?action_kouhyou_detail_004_kani=true&JigyosyoCd=3890700135-00&ServiceCd=760&Type=search", "url2": "rakusuke2013.grupo.jp" }, "geometry": { "type": "Point", "coordinates": [ 132.554069925660343, 33.529879636397929 ] } },
{ "type": "Feature", "properties": { "内容": "ココロココ24【定期巡回・随時対応型訪問介護看護】愛媛県四国中央市妻鳥町1817‐1", "url": "https://www.kaigokensaku.mhlw.go.jp/38/index.php?action_kouhyou_detail_004_kani=true&JigyosyoCd=3891300224-00&ServiceCd=760&Type=search", "url2": "http://cocolococo.co.jp" }, "geometry": { "type": "Point", "coordinates": [ 133.574676313955763, 33.986158814619898 ] } },
{ "type": "Feature", "properties": { "内容": "定期巡回・随時対応型訪問介護看護いしかわ【定期巡回・随時対応型訪問介護看護】愛媛県四国中央市上分町716-2", "url": "https://www.kaigokensaku.mhlw.go.jp/38/index.php?action_kouhyou_detail_004_kani=true&JigyosyoCd=3891300232-00&ServiceCd=760&Type=search", "url2": "http://kenkou-kai.jp/" }, "geometry": { "type": "Point", "coordinates": [ 133.588496500000019, 33.9917395 ] } },
{ "type": "Feature", "properties": { "内容": "定期巡回・随時対応型訪問介護看護ひまわり【定期巡回・随時対応型訪問介護看護】愛媛県四国中央市金生町下分1348番地１サービス付き高齢者マンション　ぬくもり", "url": "https://www.kaigokensaku.mhlw.go.jp/38/index.php?action_kouhyou_detail_004_kani=true&JigyosyoCd=3891300307-00&ServiceCd=760&Type=search", "url2": "http://meisei-hasegawa.com/" }, "geometry": { "type": "Point", "coordinates": [ 133.5809, 33.9985663 ] } },
{ "type": "Feature", "properties": { "内容": "定期巡回随時対応型訪問介護看護事業所　ヘルパーステーション元気【定期巡回・随時対応型訪問介護看護】愛媛県伊予郡松前町大字出作540番地6", "url": "https://www.kaigokensaku.mhlw.go.jp/38/index.php?action_kouhyou_detail_004_kani=true&JigyosyoCd=3893500110-00&ServiceCd=760&Type=search", "url2": "https://asitamo-1117.jimdofree.com" }, "geometry": { "type": "Point", "coordinates": [ 132.751163469311564, 33.7906861976616 ] } },
{ "type": "Feature", "properties": { "内容": "医師会定期巡回みなみうわ【定期巡回・随時対応型訪問介護看護】愛媛県南宇和郡愛南町御荘深泥703番地2老人保健施設なんぐん館", "url": "https://www.kaigokensaku.mhlw.go.jp/38/index.php?action_kouhyou_detail_004_kani=true&JigyosyoCd=3894000086-00&ServiceCd=760&Type=search", "url2": "http://www.nangunkan.justhpbs.jp/" }, "geometry": { "type": "Point", "coordinates": [ 132.542641900000035, 32.9600672 ] } }
]
}
