{
"type": "FeatureCollection",
"name": "geo_38_介護医療院",
"crs": { "type": "name", "properties": { "name": "urn:ogc:def:crs:OGC:1.3:CRS84" } },
"features": [
{ "type": "Feature", "properties": { "内容": "南高井病院介護医療院【介護医療院】愛媛県松山市南高井町333番地", "url": "https://www.kaigokensaku.mhlw.go.jp/38/index.php?action_kouhyou_detail_004_kani=true&JigyosyoCd=38B0100026-00&ServiceCd=550&Type=search", "url2": "http:www.tensinkai.or.jp/" }, "geometry": { "type": "Point", "coordinates": [ 132.823964584516943, 33.787738932914834 ] } },
{ "type": "Feature", "properties": { "内容": "うらや介護医療院【介護医療院】愛媛県松山市中一万町５番地10", "url": "https://www.kaigokensaku.mhlw.go.jp/38/index.php?action_kouhyou_detail_004_kani=true&JigyosyoCd=38B0100034-00&ServiceCd=550&Type=search", "url2": "https://urayaclinic.com/" }, "geometry": { "type": "Point", "coordinates": [ 132.7741912, 33.8467611 ] } },
{ "type": "Feature", "properties": { "内容": "波方中央病院　介護医療院【介護医療院】愛媛県今治市波方町樋口甲1683番地1", "url": "https://www.kaigokensaku.mhlw.go.jp/38/index.php?action_kouhyou_detail_004_kani=true&JigyosyoCd=38B0200016-00&ServiceCd=550&Type=search", "url2": "http://kouzinkai.jp" }, "geometry": { "type": "Point", "coordinates": [ 132.949931099999958, 34.0989838 ] } },
{ "type": "Feature", "properties": { "内容": "医療法人三省会　村上病院　介護医療院【介護医療院】愛媛県今治市常盤町五丁目３番３７号", "url": "https://www.kaigokensaku.mhlw.go.jp/38/index.php?action_kouhyou_detail_004_kani=true&JigyosyoCd=38B0200024-00&ServiceCd=550&Type=search", "url2": null }, "geometry": { "type": "Point", "coordinates": [ 132.994037100000014, 34.0602314 ] } },
{ "type": "Feature", "properties": { "内容": "今治南病院介護医療院【介護医療院】愛媛県今治市四村103番地1", "url": "https://www.kaigokensaku.mhlw.go.jp/38/index.php?action_kouhyou_detail_004_kani=true&JigyosyoCd=38B0200032-00&ServiceCd=550&Type=search", "url2": null }, "geometry": { "type": "Point", "coordinates": [ 132.98459170000001, 34.0336514 ] } },
{ "type": "Feature", "properties": { "内容": "介護医療院くじら【介護医療院】愛媛県八幡浜市五反田1番耕地1046番地1", "url": "https://www.kaigokensaku.mhlw.go.jp/38/index.php?action_kouhyou_detail_004_kani=true&JigyosyoCd=38B0400012-00&ServiceCd=550&Type=search", "url2": "http://www.kujira.biz" }, "geometry": { "type": "Point", "coordinates": [ 132.439193, 33.450736 ] } },
{ "type": "Feature", "properties": { "内容": "矢野脳神経外科医院　介護医療院【介護医療院】愛媛県八幡浜市古町一丁目6番12号", "url": "https://www.kaigokensaku.mhlw.go.jp/38/index.php?action_kouhyou_detail_004_kani=true&JigyosyoCd=38B0400020-00&ServiceCd=550&Type=search", "url2": null }, "geometry": { "type": "Point", "coordinates": [ 132.429976, 33.4558402 ] } },
{ "type": "Feature", "properties": { "内容": "真網代くじら介護医療院【介護医療院】愛媛県八幡浜市真網代甲229番地5医療法人青峰会真網代くじらリハビリテーション病院", "url": "https://www.kaigokensaku.mhlw.go.jp/38/index.php?action_kouhyou_detail_004_kani=true&JigyosyoCd=38B0400038-00&ServiceCd=550&Type=search", "url2": "https://www.kujira.biz/" }, "geometry": { "type": "Point", "coordinates": [ 132.392067160049464, 33.425688492304019 ] } },
{ "type": "Feature", "properties": { "内容": "介護医療院共立病院【介護医療院】愛媛県西条市三津屋南9番10", "url": "https://www.kaigokensaku.mhlw.go.jp/38/index.php?action_kouhyou_detail_004_kani=true&JigyosyoCd=38B0600017-00&ServiceCd=550&Type=search", "url2": "http://www.koujin.net/" }, "geometry": { "type": "Point", "coordinates": [ 133.089359, 33.931929 ] } },
{ "type": "Feature", "properties": { "内容": "介護医療院　ほくと【介護医療院】愛媛県大洲市東大洲5番地大洲中央病院", "url": "https://www.kaigokensaku.mhlw.go.jp/38/index.php?action_kouhyou_detail_004_kani=true&JigyosyoCd=38B0700015-00&ServiceCd=550&Type=search", "url2": "http://www.oozuchuo-hsp.jp/" }, "geometry": { "type": "Point", "coordinates": [ 132.551190099999985, 33.5154221 ] } },
{ "type": "Feature", "properties": { "内容": "医療法人　肱嵐会　石村病院　介護医療院【介護医療院】愛媛県大洲市長浜甲176番地", "url": "https://www.kaigokensaku.mhlw.go.jp/38/index.php?action_kouhyou_detail_004_kani=true&JigyosyoCd=38B0700023-00&ServiceCd=550&Type=search", "url2": "https://nagahama-ishimura.jp/" }, "geometry": { "type": "Point", "coordinates": [ 132.483139599999987, 33.6123658 ] } },
{ "type": "Feature", "properties": { "内容": "介護医療院エバーグリーン【介護医療院】愛媛県伊予市灘町66番地", "url": "https://www.kaigokensaku.mhlw.go.jp/38/index.php?action_kouhyou_detail_004_kani=true&JigyosyoCd=38B1000019-00&ServiceCd=550&Type=search", "url2": "https://evergreen.iyo-kofukai.jp/" }, "geometry": { "type": "Point", "coordinates": [ 132.701035973618644, 33.755674429704342 ] } },
{ "type": "Feature", "properties": { "内容": "伊予診療所【介護医療院】愛媛県伊予市下吾川55番地1", "url": "https://www.kaigokensaku.mhlw.go.jp/38/index.php?action_kouhyou_detail_004_kani=true&JigyosyoCd=38B1000027-00&ServiceCd=550&Type=search", "url2": "https://iyo-clinic.jp/" }, "geometry": { "type": "Point", "coordinates": [ 132.712513949888802, 33.759770794442446 ] } },
{ "type": "Feature", "properties": { "内容": "介護医療院コスモス【介護医療院】愛媛県四国中央市金生町下分１２４９番地の１", "url": "https://www.kaigokensaku.mhlw.go.jp/38/index.php?action_kouhyou_detail_004_kani=true&JigyosyoCd=38B1300013-00&ServiceCd=550&Type=search", "url2": "https://meisei-hasegawa.com/" }, "geometry": { "type": "Point", "coordinates": [ 133.5807101, 33.9980943 ] } },
{ "type": "Feature", "properties": { "内容": "介護医療院まつかぜ【介護医療院】愛媛県四国中央市土居町入野970番地", "url": "https://www.kaigokensaku.mhlw.go.jp/38/index.php?action_kouhyou_detail_004_kani=true&JigyosyoCd=38B1300021-00&ServiceCd=550&Type=search", "url2": "http://matsukaze-hp.com" }, "geometry": { "type": "Point", "coordinates": [ 133.4221393, 33.956059 ] } },
{ "type": "Feature", "properties": { "内容": "池川内科・神経内科　介護医療院【介護医療院】愛媛県東温市志津川89番地3", "url": "https://www.kaigokensaku.mhlw.go.jp/38/index.php?action_kouhyou_detail_004_kani=true&JigyosyoCd=38B1500018-00&ServiceCd=550&Type=search", "url2": "https://ikegawa-clinic.com/" }, "geometry": { "type": "Point", "coordinates": [ 132.880000499999966, 33.806914400000011 ] } },
{ "type": "Feature", "properties": { "内容": "介護医療院みかわクリニック【介護医療院】愛媛県上浮穴郡久万高原町上黒岩2920番地", "url": "https://www.kaigokensaku.mhlw.go.jp/38/index.php?action_kouhyou_detail_004_kani=true&JigyosyoCd=38B3400019-00&ServiceCd=550&Type=search", "url2": "http://www.mikawa-clinic.sakura.ne.jp/" }, "geometry": { "type": "Point", "coordinates": [ 132.9766392, 33.6146196 ] } },
{ "type": "Feature", "properties": { "内容": "介護医療院　八倉【介護医療院】愛媛県伊予郡砥部町重光275番地1", "url": "https://www.kaigokensaku.mhlw.go.jp/38/index.php?action_kouhyou_detail_004_kani=true&JigyosyoCd=38B3500016-00&ServiceCd=550&Type=search", "url2": "http://www.atomgroup.net/jyun/yak.htm" }, "geometry": { "type": "Point", "coordinates": [ 132.778627699999987, 33.7863661 ] } }
]
}
