{
"type": "FeatureCollection",
"name": "geo_38_1",
"crs": { "type": "name", "properties": { "name": "urn:ogc:def:crs:OGC:1.3:CRS84" } },
"features": [
{ "type": "Feature", "properties": { "ID": 3811383100150, "正式名称": "増田病院", "機関区分": 1, "都道府県コード": 38, "市区町村コード": 201, "所在地": "愛媛県松山市山越三丁目５－２４", "緯度": 33.860045, "経度": 132.759456, "url": "https://www.iryou.teikyouseido.mhlw.go.jp/znk-web/juminkanja/S2430/initialize?prefCd=38&kikanCd=1383100150&kikanKbn=1", "url2": "https://masuda-hp.jp/", "内容": "増田病院【1:病院】【診療科目:内科_外科_整形外科_リハビリテーション科】【一般病床数:0療養病床数:54精神病床数:0感染症病床数:0合計病床数:54】愛媛県松山市山越三丁目５－２４" }, "geometry": { "type": "Point", "coordinates": [ 132.759456, 33.860045 ] } },
{ "type": "Feature", "properties": { "ID": 3811383100280, "正式名称": "医療法人友朋会栗林病院", "機関区分": 1, "都道府県コード": 38, "市区町村コード": 201, "所在地": "愛媛県松山市溝辺町甲３３１番地", "緯度": 33.849852, "経度": 132.80387, "url": "https://www.iryou.teikyouseido.mhlw.go.jp/znk-web/juminkanja/S2430/initialize?prefCd=38&kikanCd=1383100280&kikanKbn=1", "url2": "http://yuhokai.net/kuribayashi_hsp/", "内容": "医療法人友朋会栗林病院【1:病院】【診療科目:内科_循環器内科_胃腸内科_外科_整形外科_リハビリテーション科_放射線診断科】【一般病床数:0療養病床数:124精神病床数:0感染症病床数:0合計病床数:124】愛媛県松山市溝辺町甲３３１番地" }, "geometry": { "type": "Point", "coordinates": [ 132.80387, 33.849852 ] } },
{ "type": "Feature", "properties": { "ID": 3811383100310, "正式名称": "独立行政法人国立病院機構四国がんセンター", "機関区分": 1, "都道府県コード": 38, "市区町村コード": 201, "所在地": "愛媛県松山市南梅本町甲１６０", "緯度": 33.79722, "経度": 132.841286, "url": "https://www.iryou.teikyouseido.mhlw.go.jp/znk-web/juminkanja/S2430/initialize?prefCd=38&kikanCd=1383100310&kikanKbn=1", "url2": "https://shikoku-cc.hosp.go.jp/", "内容": "独立行政法人国立病院機構四国がんセンター【1:病院】【診療科目:感染症内科_血液・腫瘍内科_呼吸器内科_循環器内科_消化器内科_緩和ケア内科_呼吸器外科_消化器外科_乳腺外科_整形外科_形成外科_婦人科_耳鼻いんこう科_皮膚科_泌尿器科_精神科_心療内科_歯科口腔外科_リハビリテーション科_放射線診断科_放射線治療科_病理診断科_麻酔科】【一般病床数:321療養病床数:0精神病床数:0感染症病床数:0合計病床数:321】愛媛県松山市南梅本町甲１６０" }, "geometry": { "type": "Point", "coordinates": [ 132.841286, 33.79722 ] } },
{ "type": "Feature", "properties": { "ID": 3811383100440, "正式名称": "医療法人　友朋会　なかじま中央病院", "機関区分": 1, "都道府県コード": 38, "市区町村コード": 201, "所在地": "愛媛県松山市中島大浦３０８１－１", "緯度": 33.972447, "経度": 132.627295, "url": "https://www.iryou.teikyouseido.mhlw.go.jp/znk-web/juminkanja/S2430/initialize?prefCd=38&kikanCd=1383100440&kikanKbn=1", "url2": "http://www.yuhokai.net/", "内容": "医療法人　友朋会　なかじま中央病院【1:病院】【診療科目:内科_循環器内科_外科】【一般病床数:0療養病床数:50精神病床数:0感染症病床数:0合計病床数:50】愛媛県松山市中島大浦３０８１－１" }, "geometry": { "type": "Point", "coordinates": [ 132.627295, 33.972447 ] } },
{ "type": "Feature", "properties": { "ID": 3811385100170, "正式名称": "公立学校共済組合四国中央病院", "機関区分": 1, "都道府県コード": 38, "市区町村コード": 213, "所在地": "愛媛県四国中央市川之江町２２３３", "緯度": 34.011432, "経度": 133.581687, "url": "https://www.iryou.teikyouseido.mhlw.go.jp/znk-web/juminkanja/S2430/initialize?prefCd=38&kikanCd=1385100170&kikanKbn=1", "url2": "https://www.shikoku-ctr-hsp.jp/", "内容": "公立学校共済組合四国中央病院【1:病院】【診療科目:内科_呼吸器内科_循環器内科_消化器内科_外科_脳神経外科_呼吸器外科_心臓血管外科_消化器外科_乳腺・内分泌外科_整形外科_形成外科_緩和ケア外科_小児科_小児外科_産婦人科_眼科_耳鼻いんこう科_皮膚科_泌尿器科_精神科_心療内科_リハビリテーション科_放射線科_病理診断科_麻酔科】【一般病床数:189療養病床数:0精神病床数:0感染症病床数:0合計病床数:189】愛媛県四国中央市川之江町２２３３" }, "geometry": { "type": "Point", "coordinates": [ 133.581687, 34.011432 ] } },
{ "type": "Feature", "properties": { "ID": 3811385100200, "正式名称": "長谷川病院", "機関区分": 1, "都道府県コード": 38, "市区町村コード": 213, "所在地": "愛媛県四国中央市金生町下分１２４９－１", "緯度": 33.998156, "経度": 133.580715, "url": "https://www.iryou.teikyouseido.mhlw.go.jp/znk-web/juminkanja/S2430/initialize?prefCd=38&kikanCd=1385100200&kikanKbn=1", "url2": "http://meisei-hasegawa.com/", "内容": "長谷川病院【1:病院】【診療科目:内科_循環器内科_消化器内科_腎臓内科_リハビリテーション科】【一般病床数:52療養病床数:48精神病床数:0感染症病床数:0合計病床数:100】愛媛県四国中央市金生町下分１２４９－１" }, "geometry": { "type": "Point", "coordinates": [ 133.580715, 33.998156 ] } },
{ "type": "Feature", "properties": { "ID": 3811385100620, "正式名称": "医療法人　康仁会　西岡病院", "機関区分": 1, "都道府県コード": 38, "市区町村コード": 213, "所在地": "愛媛県四国中央市三島金子２－７－２２", "緯度": 33.980379, "経度": 133.537358, "url": "https://www.iryou.teikyouseido.mhlw.go.jp/znk-web/juminkanja/S2430/initialize?prefCd=38&kikanCd=1385100620&kikanKbn=1", "url2": "http://nishioka-hp.com", "内容": "医療法人　康仁会　西岡病院【1:病院】【診療科目:内科_呼吸器内科_循環器内科_消化器内科_皮膚科_リハビリテーション科_放射線科】【一般病床数:0療養病床数:60精神病床数:0感染症病床数:0合計病床数:60】愛媛県四国中央市三島金子２－７－２２" }, "geometry": { "type": "Point", "coordinates": [ 133.537358, 33.980379 ] } },
{ "type": "Feature", "properties": { "ID": 3811385100750, "正式名称": "松風病院", "機関区分": 1, "都道府県コード": 38, "市区町村コード": 213, "所在地": "愛媛県四国中央市土居町入野９７０番地", "緯度": 33.95613, "経度": 133.422119, "url": "https://www.iryou.teikyouseido.mhlw.go.jp/znk-web/juminkanja/S2430/initialize?prefCd=38&kikanCd=1385100750&kikanKbn=1", "url2": "http://matsukaze-hp.com/", "内容": "松風病院【1:病院】【診療科目:内科_泌尿器科_精神科_神経科_心療内科】【一般病床数:0療養病床数:23精神病床数:176感染症病床数:0合計病床数:199】愛媛県四国中央市土居町入野９７０番地" }, "geometry": { "type": "Point", "coordinates": [ 133.422119, 33.95613 ] } },
{ "type": "Feature", "properties": { "ID": 3811385100880, "正式名称": "医療法人慶尚会恵康病院", "機関区分": 1, "都道府県コード": 38, "市区町村コード": 213, "所在地": "愛媛県四国中央市土居町蕪崎２５３－１", "緯度": 33.972267, "経度": 133.428784, "url": "https://www.iryou.teikyouseido.mhlw.go.jp/znk-web/juminkanja/S2430/initialize?prefCd=38&kikanCd=1385100880&kikanKbn=1", "url2": "https://keikou-hospital.com", "内容": "医療法人慶尚会恵康病院【1:病院】【診療科目:内科_呼吸器内科_循環器内科_消化器内科_整形外科_小児科_皮膚科_歯科_歯科口腔外科_リウマチ科_リハビリテーション科_放射線科】【一般病床数:0療養病床数:60精神病床数:0感染症病床数:0合計病床数:60】愛媛県四国中央市土居町蕪崎２５３－１" }, "geometry": { "type": "Point", "coordinates": [ 133.428784, 33.972267 ] } },
{ "type": "Feature", "properties": { "ID": 3811385100910, "正式名称": "一般財団法人　新居浜精神衛生研究所　附属　豊岡台病院", "機関区分": 1, "都道府県コード": 38, "市区町村コード": 213, "所在地": "愛媛県四国中央市豊岡町長田６０３－１", "緯度": 33.971934, "経度": 133.475197, "url": "https://www.iryou.teikyouseido.mhlw.go.jp/znk-web/juminkanja/S2430/initialize?prefCd=38&kikanCd=1385100910&kikanKbn=1", "url2": "https://toyookadai-hosp.or.jp", "内容": "一般財団法人　新居浜精神衛生研究所　附属　豊岡台病院【1:病院】【診療科目:内科_循環器内科_胃腸内科_神経内科_外科_整形外科_眼科_精神科_リハビリテーション科】【一般病床数:0療養病床数:52精神病床数:112感染症病床数:0合計病床数:164】愛媛県四国中央市豊岡町長田６０３－１" }, "geometry": { "type": "Point", "coordinates": [ 133.475197, 33.971934 ] } },
{ "type": "Feature", "properties": { "ID": 3811385101210, "正式名称": "栗整形外科病院", "機関区分": 1, "都道府県コード": 38, "市区町村コード": 213, "所在地": "愛媛県四国中央市中之庄町３９８番地１", "緯度": 33.97674, "経度": 133.532581, "url": "https://www.iryou.teikyouseido.mhlw.go.jp/znk-web/juminkanja/S2430/initialize?prefCd=38&kikanCd=1385101210&kikanKbn=1", "url2": "http://kuriseikei.or.jp", "内容": "栗整形外科病院【1:病院】【診療科目:整形外科】【一般病床数:40療養病床数:0精神病床数:0感染症病床数:0合計病床数:40】愛媛県四国中央市中之庄町３９８番地１" }, "geometry": { "type": "Point", "coordinates": [ 133.532581, 33.97674 ] } },
{ "type": "Feature", "properties": { "ID": 3811385116230, "正式名称": "社会医療法人石川記念会　ＨＩＴＯ病院", "機関区分": 1, "都道府県コード": 38, "市区町村コード": 213, "所在地": "愛媛県四国中央市上分町７８８番地１", "緯度": 33.991323, "経度": 133.587854, "url": "https://www.iryou.teikyouseido.mhlw.go.jp/znk-web/juminkanja/S2430/initialize?prefCd=38&kikanCd=1385116230&kikanKbn=1", "url2": "http://hito-medical.jp/", "内容": "社会医療法人石川記念会　ＨＩＴＯ病院【1:病院】【診療科目:糖尿病内科_脳神経内科_呼吸器内科_循環器内科_消化器内科_緩和ケア内科_外科_脳神経外科_呼吸器外科_心臓血管外科_消化器外科_乳腺外科_肛門外科_整形外科_形成外科_美容外科_婦人科_耳鼻いんこう科_皮膚科_泌尿器科_精神科_歯科_リウマチ科_リハビリテーション科_放射線科_救急科_麻酔科】【一般病床数:174療養病床数:50精神病床数:0感染症病床数:4合計病床数:228】愛媛県四国中央市上分町７８８番地１" }, "geometry": { "type": "Point", "coordinates": [ 133.587854, 33.991323 ] } },
{ "type": "Feature", "properties": { "ID": 3811385200100, "正式名称": "財団新居浜病院", "機関区分": 1, "都道府県コード": 38, "市区町村コード": 205, "所在地": "愛媛県新居浜市松原町１３－４７", "緯度": 33.936418, "経度": 133.29862, "url": "https://www.iryou.teikyouseido.mhlw.go.jp/znk-web/juminkanja/S2430/initialize?prefCd=38&kikanCd=1385200100&kikanKbn=1", "url2": "https://zaidan-niihama-hosp.jp/", "内容": "財団新居浜病院【1:病院】【診療科目:精神科_心療内科】【一般病床数:0療養病床数:0精神病床数:415感染症病床数:0合計病床数:415】愛媛県新居浜市松原町１３－４７" }, "geometry": { "type": "Point", "coordinates": [ 133.29862, 33.936418 ] } },
{ "type": "Feature", "properties": { "ID": 3811385200230, "正式名称": "十全ユリノキ病院", "機関区分": 1, "都道府県コード": 38, "市区町村コード": 205, "所在地": "愛媛県新居浜市角野新田町１－１－２８", "緯度": 33.932269, "経度": 133.316435, "url": "https://www.iryou.teikyouseido.mhlw.go.jp/znk-web/juminkanja/S2430/initialize?prefCd=38&kikanCd=1385200230&kikanKbn=1", "url2": "www.juzenhp.jp", "内容": "十全ユリノキ病院【1:病院】【診療科目:内科_精神科_神経科】【一般病床数:0療養病床数:0精神病床数:297感染症病床数:0合計病床数:297】愛媛県新居浜市角野新田町１－１－２８" }, "geometry": { "type": "Point", "coordinates": [ 133.316435, 33.932269 ] } },
{ "type": "Feature", "properties": { "ID": 3811385200360, "正式名称": "独立行政法人労働者健康安全機構愛媛労災病院", "機関区分": 1, "都道府県コード": 38, "市区町村コード": 205, "所在地": "愛媛県新居浜市南小松原町１３番２７号", "緯度": 33.972598, "経度": 133.292629, "url": "https://www.iryou.teikyouseido.mhlw.go.jp/znk-web/juminkanja/S2430/initialize?prefCd=38&kikanCd=1385200360&kikanKbn=1", "url2": "https://www.ehimeh.johas.go.jp/", "内容": "独立行政法人労働者健康安全機構愛媛労災病院【1:病院】【診療科目:内科_呼吸器内科_循環器内科_消化器内科_神経内科_外科_脳神経外科_心臓血管外科_消化器外科_整形外科_形成外科_小児科_産婦人科_眼科_耳鼻いんこう科_皮膚科_泌尿器科_精神科_歯科口腔外科_リハビリテーション科_放射線科_麻酔科】【一般病床数:199療養病床数:0精神病床数:0感染症病床数:0合計病床数:199】愛媛県新居浜市南小松原町１３番２７号" }, "geometry": { "type": "Point", "coordinates": [ 133.292629, 33.972598 ] } },
{ "type": "Feature", "properties": { "ID": 3811385200490, "正式名称": "愛媛県立新居浜病院", "機関区分": 1, "都道府県コード": 38, "市区町村コード": 205, "所在地": "愛媛県新居浜市本郷３－１－１", "緯度": 33.932213, "経度": 133.280549, "url": "https://www.iryou.teikyouseido.mhlw.go.jp/znk-web/juminkanja/S2430/initialize?prefCd=38&kikanCd=1385200490&kikanKbn=1", "url2": "http://www.eph.pref.ehime.jp/epnh/", "内容": "愛媛県立新居浜病院【1:病院】【診療科目:内科_血液内科_糖尿病・内分泌内科_呼吸器内科_循環器内科_消化器内科_外科_脳神経外科_呼吸器外科_心臓血管外科_消化器外科_整形外科_小児科_産婦人科_眼科_耳鼻いんこう科_皮膚科_泌尿器科_リハビリテーション科_放射線科_救急科_麻酔科】【一般病床数:203療養病床数:0精神病床数:0感染症病床数:2合計病床数:208】愛媛県新居浜市本郷３－１－１" }, "geometry": { "type": "Point", "coordinates": [ 133.280549, 33.932213 ] } },
{ "type": "Feature", "properties": { "ID": 3811385200650, "正式名称": "一般財団法人積善会十全総合病院", "機関区分": 1, "都道府県コード": 38, "市区町村コード": 205, "所在地": "愛媛県新居浜市北新町１－５", "緯度": 33.959654, "経度": 133.273798, "url": "https://www.iryou.teikyouseido.mhlw.go.jp/znk-web/juminkanja/S2430/initialize?prefCd=38&kikanCd=1385200650&kikanKbn=1", "url2": "https://jyuzen.jp/", "内容": "一般財団法人積善会十全総合病院【1:病院】【診療科目:内科_脳神経内科_呼吸器内科_循環器内科_外科_脳神経外科_血管外科_整形外科_形成外科_小児科_小児外科_産婦人科_眼科_耳鼻いんこう科_皮膚科_泌尿器科_精神科_神経科_歯科_歯科口腔外科_放射線科_麻酔科】【一般病床数:290療養病床数:60精神病床数:0感染症病床数:0合計病床数:350】愛媛県新居浜市北新町１－５" }, "geometry": { "type": "Point", "coordinates": [ 133.273798, 33.959654 ] } },
{ "type": "Feature", "properties": { "ID": 3811385200780, "正式名称": "新居浜山内病院", "機関区分": 1, "都道府県コード": 38, "市区町村コード": 205, "所在地": "愛媛県新居浜市徳常町６番１３号", "緯度": 33.964293, "経度": 133.278047, "url": "https://www.iryou.teikyouseido.mhlw.go.jp/znk-web/juminkanja/S2430/initialize?prefCd=38&kikanCd=1385200780&kikanKbn=1", "url2": "www.yamauchi-hosp.jp/", "内容": "新居浜山内病院【1:病院】【診療科目:内科_リウマチ科】【一般病床数:0療養病床数:32精神病床数:0感染症病床数:0合計病床数:32】愛媛県新居浜市徳常町６番１３号" }, "geometry": { "type": "Point", "coordinates": [ 133.278047, 33.964293 ] } },
{ "type": "Feature", "properties": { "ID": 3811385200810, "正式名称": "住友別子病院", "機関区分": 1, "都道府県コード": 38, "市区町村コード": 205, "所在地": "愛媛県新居浜市王子町３－１", "緯度": 33.953516, "経度": 133.262355, "url": "https://www.iryou.teikyouseido.mhlw.go.jp/znk-web/juminkanja/S2430/initialize?prefCd=38&kikanCd=1385200810&kikanKbn=1", "url2": "https://sbh.gr.jp/", "内容": "住友別子病院【1:病院】【診療科目:内科_糖尿病内科_呼吸器内科_循環器内科_消化器内科_腎臓内科_人工透析内科_神経内科_腫瘍内科_緩和ケア内科_外科_脳神経外科_消化器外科_乳腺・内分泌外科_腫瘍外科_整形外科_形成外科_小児科_婦人科_眼科_耳鼻いんこう科_皮膚科_泌尿器科_精神科_歯科口腔外科_リハビリテーション科_放射線診断科_腫瘍放射線科_病理診断科_麻酔科】【一般病床数:360療養病床数:0精神病床数:0感染症病床数:0合計病床数:360】愛媛県新居浜市王子町３－１" }, "geometry": { "type": "Point", "coordinates": [ 133.262355, 33.953516 ] } },
{ "type": "Feature", "properties": { "ID": 3811385200940, "正式名称": "新居浜協立病院", "機関区分": 1, "都道府県コード": 38, "市区町村コード": 205, "所在地": "愛媛県新居浜市若水町１―７―４５", "緯度": 33.966265, "経度": 133.278769, "url": "https://www.iryou.teikyouseido.mhlw.go.jp/znk-web/juminkanja/S2430/initialize?prefCd=38&kikanCd=1385200940&kikanKbn=1", "url2": "https://kyoritsu.ehime-med.or.jp/", "内容": "新居浜協立病院【1:病院】【診療科目:内科_呼吸器内科_循環器内科_消化器内科_整形外科_精神科_心療内科_リウマチ科_リハビリテーション科_放射線科】【一般病床数:46療養病床数:53精神病床数:0感染症病床数:0合計病床数:99】愛媛県新居浜市若水町１―７―４５" }, "geometry": { "type": "Point", "coordinates": [ 133.278769, 33.966265 ] } },
{ "type": "Feature", "properties": { "ID": 3811385201110, "正式名称": "岩﨑病院", "機関区分": 1, "都道府県コード": 38, "市区町村コード": 205, "所在地": "愛媛県新居浜市中萩町２－５", "緯度": 33.930769, "経度": 133.284576, "url": "https://www.iryou.teikyouseido.mhlw.go.jp/znk-web/juminkanja/S2430/initialize?prefCd=38&kikanCd=1385201110&kikanKbn=1", "url2": "https://iwa-saki.jp/", "内容": "岩﨑病院【1:病院】【診療科目:内科_循環器内科_消化器内科_小児科_リハビリテーション科】【一般病床数:0療養病床数:50精神病床数:0感染症病床数:0合計病床数:50】愛媛県新居浜市中萩町２－５" }, "geometry": { "type": "Point", "coordinates": [ 133.284576, 33.930769 ] } },
{ "type": "Feature", "properties": { "ID": 3811385201240, "正式名称": "循環器科林病院", "機関区分": 1, "都道府県コード": 38, "市区町村コード": 205, "所在地": "愛媛県新居浜市中西町６－４６", "緯度": 33.927214, "経度": 133.301603, "url": "https://www.iryou.teikyouseido.mhlw.go.jp/znk-web/juminkanja/S2430/initialize?prefCd=38&kikanCd=1385201240&kikanKbn=1", "url2": "http://www.junrin.jp", "内容": "循環器科林病院【1:病院】【診療科目:内科_循環器内科_外科_心臓血管外科_リハビリテーション科】【一般病床数:28療養病床数:38精神病床数:0感染症病床数:0合計病床数:66】愛媛県新居浜市中西町６－４６" }, "geometry": { "type": "Point", "coordinates": [ 133.301603, 33.927214 ] } },
{ "type": "Feature", "properties": { "ID": 3811385201400, "正式名称": "医療法人社団久和会立花病院", "機関区分": 1, "都道府県コード": 38, "市区町村コード": 205, "所在地": "愛媛県新居浜市喜光地町１－１３－２９", "緯度": 33.934824, "経度": 133.302102, "url": "https://www.iryou.teikyouseido.mhlw.go.jp/znk-web/juminkanja/S2430/initialize?prefCd=38&kikanCd=1385201400&kikanKbn=1", "url2": "kyuuwa-niihama", "内容": "医療法人社団久和会立花病院【1:病院】【診療科目:内科_外科_脳神経外科_乳腺外科_整形外科_形成外科_泌尿器科_リハビリテーション科_放射線科】【一般病床数:20療養病床数:40精神病床数:0感染症病床数:0合計病床数:60】愛媛県新居浜市喜光地町１－１３－２９" }, "geometry": { "type": "Point", "coordinates": [ 133.302102, 33.934824 ] } },
{ "type": "Feature", "properties": { "ID": 3811385300130, "正式名称": "西条道前病院", "機関区分": 1, "都道府県コード": 38, "市区町村コード": 206, "所在地": "愛媛県西条市飯岡地蔵原３２９０－１", "緯度": 33.909131, "経度": 133.211944, "url": "https://www.iryou.teikyouseido.mhlw.go.jp/znk-web/juminkanja/S2430/initialize?prefCd=38&kikanCd=1385300130&kikanKbn=1", "url2": "http://douzen-hos.jp/", "内容": "西条道前病院【1:病院】【診療科目:内科_神経内科_精神科】【一般病床数:0療養病床数:0精神病床数:220感染症病床数:0合計病床数:220】愛媛県西条市飯岡地蔵原３２９０－１" }, "geometry": { "type": "Point", "coordinates": [ 133.211944, 33.909131 ] } },
{ "type": "Feature", "properties": { "ID": 3811385300390, "正式名称": "西条中央病院", "機関区分": 1, "都道府県コード": 38, "市区町村コード": 206, "所在地": "愛媛県西条市朔日市８０４", "緯度": 33.929297, "経度": 133.179281, "url": "https://www.iryou.teikyouseido.mhlw.go.jp/znk-web/juminkanja/S2430/initialize?prefCd=38&kikanCd=1385300390&kikanKbn=1", "url2": "http://www.saijo-c-hospital.jp", "内容": "西条中央病院【1:病院】【診療科目:内科_糖尿病内科_脳神経内科_循環器内科_腎臓内科_外科_脳神経外科_消化器外科_大腸外科_乳腺外科_内視鏡外科_整形外科_小児科_産婦人科_眼科_耳鼻いんこう科_皮膚科_泌尿器科_歯科_歯科口腔外科_リハビリテーション科_放射線科_麻酔科】【一般病床数:240療養病床数:0精神病床数:0感染症病床数:2合計病床数:242】愛媛県西条市朔日市８０４" }, "geometry": { "type": "Point", "coordinates": [ 133.179281, 33.929297 ] } },
{ "type": "Feature", "properties": { "ID": 3811385300420, "正式名称": "社会医療法人社団更生会村上記念病院", "機関区分": 1, "都道府県コード": 38, "市区町村コード": 206, "所在地": "愛媛県西条市大町７３９", "緯度": 33.91488, "経度": 133.189946, "url": "https://www.iryou.teikyouseido.mhlw.go.jp/znk-web/juminkanja/S2430/initialize?prefCd=38&kikanCd=1385300420&kikanKbn=1", "url2": "http://www.murakami-kinen.or.jp/index.html", "内容": "社会医療法人社団更生会村上記念病院【1:病院】【診療科目:内科_糖尿病内科_脳神経内科_呼吸器内科_循環器内科_消化器内科_腎臓内科_外科_脳神経外科_整形外科_小児科_眼科_泌尿器科_歯科_歯科口腔外科_リウマチ科_リハビリテーション科_放射線科】【一般病床数:99療養病床数:100精神病床数:0感染症病床数:0合計病床数:199】愛媛県西条市大町７３９" }, "geometry": { "type": "Point", "coordinates": [ 133.189946, 33.91488 ] } },
{ "type": "Feature", "properties": { "ID": 3811385300710, "正式名称": "西条愛寿会病院", "機関区分": 1, "都道府県コード": 38, "市区町村コード": 206, "所在地": "愛媛県西条市福武甲１５８－１", "緯度": 33.911131, "経度": 133.209389, "url": "https://www.iryou.teikyouseido.mhlw.go.jp/znk-web/juminkanja/S2430/initialize?prefCd=38&kikanCd=1385300710&kikanKbn=1", "url2": "https://aijukai.jp", "内容": "西条愛寿会病院【1:病院】【診療科目:内科_泌尿器科_リハビリテーション科】【一般病床数:15療養病床数:165精神病床数:0感染症病床数:0合計病床数:180】愛媛県西条市福武甲１５８－１" }, "geometry": { "type": "Point", "coordinates": [ 133.209389, 33.911131 ] } },
{ "type": "Feature", "properties": { "ID": 3811385300970, "正式名称": "社会福祉法人恩賜財団済生会西条病院", "機関区分": 1, "都道府県コード": 38, "市区町村コード": 206, "所在地": "愛媛県西条市朔日市２６９番地１", "緯度": 33.928712, "経度": 133.191834, "url": "https://www.iryou.teikyouseido.mhlw.go.jp/znk-web/juminkanja/S2430/initialize?prefCd=38&kikanCd=1385300970&kikanKbn=1", "url2": "http://www.saiseikaisaijo.jp/", "内容": "社会福祉法人恩賜財団済生会西条病院【1:病院】【診療科目:内科_血液内科_呼吸器内科_循環器内科_消化器内科_神経内科_女性内科_外科_脳神経外科_血管外科_消化器外科_ペインクリニック外科_整形外科_眼科_皮膚科_泌尿器科_歯科口腔外科_リハビリテーション科_放射線科_病理診断科_麻酔科】【一般病床数:150療養病床数:0精神病床数:0感染症病床数:2合計病床数:152】愛媛県西条市朔日市２６９番地１" }, "geometry": { "type": "Point", "coordinates": [ 133.191834, 33.928712 ] } },
{ "type": "Feature", "properties": { "ID": 3811385400160, "正式名称": "西条市立周桑病院", "機関区分": 1, "都道府県コード": 38, "市区町村コード": 206, "所在地": "愛媛県西条市壬生川１３１", "緯度": 33.932626, "経度": 133.078788, "url": "https://www.iryou.teikyouseido.mhlw.go.jp/znk-web/juminkanja/S2430/initialize?prefCd=38&kikanCd=1385400160&kikanKbn=1", "url2": "http://www.shuso-hospital.jp", "内容": "西条市立周桑病院【1:病院】【診療科目:内科_循環器内科_神経内科_外科_脳神経外科_肛門外科_整形外科_小児科_産婦人科_眼科_耳鼻いんこう科_皮膚科_泌尿器科_精神科_放射線科_麻酔科】【一般病床数:175療養病床数:0精神病床数:0感染症病床数:0合計病床数:175】愛媛県西条市壬生川１３１" }, "geometry": { "type": "Point", "coordinates": [ 133.078788, 33.932626 ] } },
{ "type": "Feature", "properties": { "ID": 3811385400290, "正式名称": "共立病院", "機関区分": 1, "都道府県コード": 38, "市区町村コード": 206, "所在地": "愛媛県西条市三津屋南９－１０", "緯度": 33.931932, "経度": 133.089398, "url": "https://www.iryou.teikyouseido.mhlw.go.jp/znk-web/juminkanja/S2430/initialize?prefCd=38&kikanCd=1385400290&kikanKbn=1", "url2": "http://www.koujin.net", "内容": "共立病院【1:病院】【診療科目:内科_循環器内科_胃腸内科_外科_脳神経外科_整形外科_皮膚科_リハビリテーション科_放射線科】【一般病床数:51療養病床数:0精神病床数:0感染症病床数:0合計病床数:51】愛媛県西条市三津屋南９－１０" }, "geometry": { "type": "Point", "coordinates": [ 133.089398, 33.931932 ] } },
{ "type": "Feature", "properties": { "ID": 3811385400450, "正式名称": "横山病院", "機関区分": 1, "都道府県コード": 38, "市区町村コード": 206, "所在地": "愛媛県西条市小松町新屋敷甲２８６", "緯度": 33.896131, "経度": 133.113342, "url": "https://www.iryou.teikyouseido.mhlw.go.jp/znk-web/juminkanja/S2430/initialize?prefCd=38&kikanCd=1385400450&kikanKbn=1", "url2": "http://www.yokoyama-hospital.jp/", "内容": "横山病院【1:病院】【診療科目:内科_外科_整形外科_歯科_リウマチ科_リハビリテーション科_放射線科】【一般病床数:0療養病床数:36精神病床数:0感染症病床数:0合計病床数:36】愛媛県西条市小松町新屋敷甲２８６" }, "geometry": { "type": "Point", "coordinates": [ 133.113342, 33.896131 ] } },
{ "type": "Feature", "properties": { "ID": 3811385500190, "正式名称": "公益財団法人正光会今治病院", "機関区分": 1, "都道府県コード": 38, "市区町村コード": 202, "所在地": "愛媛県今治市高市甲７８６－１３", "緯度": 34.027087, "経度": 133.014344, "url": "https://www.iryou.teikyouseido.mhlw.go.jp/znk-web/juminkanja/S2430/initialize?prefCd=38&kikanCd=1385500190&kikanKbn=1", "url2": "http://www.shokokai-grp.or.jp/", "内容": "公益財団法人正光会今治病院【1:病院】【診療科目:精神科】【一般病床数:0療養病床数:0精神病床数:293感染症病床数:0合計病床数:293】愛媛県今治市高市甲７８６－１３" }, "geometry": { "type": "Point", "coordinates": [ 133.014344, 34.027087 ] } },
{ "type": "Feature", "properties": { "ID": 3811385500350, "正式名称": "一般社団法人　今治市医師会　今治市医師会市民病院", "機関区分": 1, "都道府県コード": 38, "市区町村コード": 202, "所在地": "愛媛県今治市別宮町７－１－４０", "緯度": 34.074082, "経度": 132.991899, "url": "https://www.iryou.teikyouseido.mhlw.go.jp/znk-web/juminkanja/S2430/initialize?prefCd=38&kikanCd=1385500350&kikanKbn=1", "url2": "http://www.imabarihsp.jp/", "内容": "一般社団法人　今治市医師会　今治市医師会市民病院【1:病院】【診療科目:内科_循環器内科_胃腸内科_外科_胃腸外科_小児科_リハビリテーション科_放射線科】【一般病床数:51療養病床数:0精神病床数:0感染症病床数:4合計病床数:55】愛媛県今治市別宮町７－１－４０" }, "geometry": { "type": "Point", "coordinates": [ 132.991899, 34.074082 ] } },
{ "type": "Feature", "properties": { "ID": 3811385500640, "正式名称": "社会医療法人真泉会　今治第一病院", "機関区分": 1, "都道府県コード": 38, "市区町村コード": 202, "所在地": "愛媛県今治市宮下町１―１―２１", "緯度": 34.066741, "経度": 132.989667, "url": "https://www.iryou.teikyouseido.mhlw.go.jp/znk-web/juminkanja/S2430/initialize?prefCd=38&kikanCd=1385500640&kikanKbn=1", "url2": "http://www.imabari-daiichi.com", "内容": "社会医療法人真泉会　今治第一病院【1:病院】【診療科目:内科_外科_循環器外科_心臓血管外科_整形外科_眼科_耳鼻いんこう科_泌尿器科_歯科_歯科口腔外科_リハビリテーション科_放射線科_麻酔科】【一般病床数:90療養病床数:0精神病床数:0感染症病床数:0合計病床数:90】愛媛県今治市宮下町１―１―２１" }, "geometry": { "type": "Point", "coordinates": [ 132.989667, 34.066741 ] } },
{ "type": "Feature", "properties": { "ID": 3811385500770, "正式名称": "三木病院", "機関区分": 1, "都道府県コード": 38, "市区町村コード": 202, "所在地": "愛媛県今治市泉川町１―３―４５", "緯度": 34.056806, "経度": 132.994817, "url": "https://www.iryou.teikyouseido.mhlw.go.jp/znk-web/juminkanja/S2430/initialize?prefCd=38&kikanCd=1385500770&kikanKbn=1", "url2": "tenrakukai-hp.com/", "内容": "三木病院【1:病院】【診療科目:整形外科_婦人科_リハビリテーション科】【一般病床数:30療養病床数:0精神病床数:0感染症病床数:0合計病床数:30】愛媛県今治市泉川町１―３―４５" }, "geometry": { "type": "Point", "coordinates": [ 132.994817, 34.056806 ] } },
{ "type": "Feature", "properties": { "ID": 3811385500930, "正式名称": "医療法人勤有会きら病院", "機関区分": 1, "都道府県コード": 38, "市区町村コード": 202, "所在地": "愛媛県今治市北宝来町１－３－５", "緯度": 34.064249, "経度": 132.9959, "url": "https://www.iryou.teikyouseido.mhlw.go.jp/znk-web/juminkanja/S2430/initialize?prefCd=38&kikanCd=1385500930&kikanKbn=1", "url2": "http://www.kirahp.jp", "内容": "医療法人勤有会きら病院【1:病院】【診療科目:産婦人科】【一般病床数:30療養病床数:0精神病床数:0感染症病床数:0合計病床数:30】愛媛県今治市北宝来町１－３－５" }, "geometry": { "type": "Point", "coordinates": [ 132.9959, 34.064249 ] } },
{ "type": "Feature", "properties": { "ID": 3811385501360, "正式名称": "放射線第一病院", "機関区分": 1, "都道府県コード": 38, "市区町村コード": 202, "所在地": "愛媛県今治市北日吉町１丁目１０番５０号", "緯度": 34.064888, "経度": 132.990317, "url": "https://www.iryou.teikyouseido.mhlw.go.jp/znk-web/juminkanja/S2430/initialize?prefCd=38&kikanCd=1385501360&kikanKbn=1", "url2": "https://www.juntenkai.jp/", "内容": "放射線第一病院【1:病院】【診療科目:内科_呼吸器内科_循環器内科_消化器内科_泌尿器科_リハビリテーション科_放射線科】【一般病床数:110療養病床数:0精神病床数:0感染症病床数:0合計病床数:110】愛媛県今治市北日吉町１丁目１０番５０号" }, "geometry": { "type": "Point", "coordinates": [ 132.990317, 34.064888 ] } },
{ "type": "Feature", "properties": { "ID": 3811385501520, "正式名称": "医療法人　朝陽会　美須賀病院", "機関区分": 1, "都道府県コード": 38, "市区町村コード": 202, "所在地": "愛媛県今治市黄金町３－４－８", "緯度": 34.061639, "経度": 133.005454, "url": "https://www.iryou.teikyouseido.mhlw.go.jp/znk-web/juminkanja/S2430/initialize?prefCd=38&kikanCd=1385501520&kikanKbn=1", "url2": "http://misuka-hp.jp/", "内容": "医療法人　朝陽会　美須賀病院【1:病院】【診療科目:内科_循環器内科_外科_脳神経外科_消化器外科_整形外科_小児科_リハビリテーション科_放射線科_麻酔科】【一般病床数:37療養病床数:62精神病床数:0感染症病床数:0合計病床数:99】愛媛県今治市黄金町３－４－８" }, "geometry": { "type": "Point", "coordinates": [ 133.005454, 34.061639 ] } },
{ "type": "Feature", "properties": { "ID": 3811385501810, "正式名称": "医療法人圭泉会菅病院", "機関区分": 1, "都道府県コード": 38, "市区町村コード": 202, "所在地": "愛媛県今治市南日吉町２－３－２１", "緯度": 34.056084, "経度": 132.992234, "url": "https://www.iryou.teikyouseido.mhlw.go.jp/znk-web/juminkanja/S2430/initialize?prefCd=38&kikanCd=1385501810&kikanKbn=1", "url2": null, "内容": "医療法人圭泉会菅病院【1:病院】【診療科目:内科_呼吸器内科_循環器内科_消化器内科_放射線科】【一般病床数:0療養病床数:40精神病床数:0感染症病床数:0合計病床数:40】愛媛県今治市南日吉町２－３－２１" }, "geometry": { "type": "Point", "coordinates": [ 132.992234, 34.056084 ] } },
{ "type": "Feature", "properties": { "ID": 3811385502240, "正式名称": "医療法人滴水会吉野病院", "機関区分": 1, "都道府県コード": 38, "市区町村コード": 202, "所在地": "愛媛県今治市末広町１－５－５", "緯度": 34.064999, "経度": 133.002399, "url": "https://www.iryou.teikyouseido.mhlw.go.jp/znk-web/juminkanja/S2430/initialize?prefCd=38&kikanCd=1385502240&kikanKbn=1", "url2": "https://www.yoshino-hospital.or.jp", "内容": "医療法人滴水会吉野病院【1:病院】【診療科目:内科_循環器内科_リハビリテーション科_放射線科】【一般病床数:47療養病床数:43精神病床数:0感染症病床数:0合計病床数:90】愛媛県今治市末広町１－５－５" }, "geometry": { "type": "Point", "coordinates": [ 133.002399, 34.064999 ] } },
{ "type": "Feature", "properties": { "ID": 3811385502400, "正式名称": "木原病院", "機関区分": 1, "都道府県コード": 38, "市区町村コード": 202, "所在地": "愛媛県今治市別宮町３－７－８", "緯度": 34.069249, "経度": 132.994677, "url": "https://www.iryou.teikyouseido.mhlw.go.jp/znk-web/juminkanja/S2430/initialize?prefCd=38&kikanCd=1385502400&kikanKbn=1", "url2": "www.kiharabyouin.jp", "内容": "木原病院【1:病院】【診療科目:内科_消化器内科_外科_脳神経外科_消化器外科_整形外科_リハビリテーション科】【一般病床数:49療養病床数:24精神病床数:0感染症病床数:0合計病床数:73】愛媛県今治市別宮町３－７－８" }, "geometry": { "type": "Point", "coordinates": [ 132.994677, 34.069249 ] } },
{ "type": "Feature", "properties": { "ID": 3811385503090, "正式名称": "医療法人三省会村上病院", "機関区分": 1, "都道府県コード": 38, "市区町村コード": 202, "所在地": "愛媛県今治市常盤町５―３―３７", "緯度": 34.060222, "経度": 132.993761, "url": "https://www.iryou.teikyouseido.mhlw.go.jp/znk-web/juminkanja/S2430/initialize?prefCd=38&kikanCd=1385503090&kikanKbn=1", "url2": null, "内容": "医療法人三省会村上病院【1:病院】【診療科目:内科_消化器内科_リハビリテーション科_放射線科】【一般病床数:0療養病床数:22精神病床数:0感染症病床数:0合計病床数:22】愛媛県今治市常盤町５―３―３７" }, "geometry": { "type": "Point", "coordinates": [ 132.993761, 34.060222 ] } },
{ "type": "Feature", "properties": { "ID": 3811385503250, "正式名称": "医療法人平成会　山内病院", "機関区分": 1, "都道府県コード": 38, "市区町村コード": 202, "所在地": "愛媛県今治市片山３－１－４０", "緯度": 34.051806, "経度": 132.984679, "url": "https://www.iryou.teikyouseido.mhlw.go.jp/znk-web/juminkanja/S2430/initialize?prefCd=38&kikanCd=1385503250&kikanKbn=1", "url2": "http://www.hp-yamauchi.or.jp", "内容": "医療法人平成会　山内病院【1:病院】【診療科目:内科_消化器内科_眼科_リハビリテーション科_放射線科】【一般病床数:0療養病床数:50精神病床数:0感染症病床数:0合計病床数:50】愛媛県今治市片山３－１－４０" }, "geometry": { "type": "Point", "coordinates": [ 132.984679, 34.051806 ] } },
{ "type": "Feature", "properties": { "ID": 3811385503380, "正式名称": "社会福祉法人恩賜財団済生会今治病院", "機関区分": 1, "都道府県コード": 38, "市区町村コード": 202, "所在地": "愛媛県今治市喜田村７丁目１番６号", "緯度": 34.044391, "経度": 133.02051, "url": "https://www.iryou.teikyouseido.mhlw.go.jp/znk-web/juminkanja/S2430/initialize?prefCd=38&kikanCd=1385503380&kikanKbn=1", "url2": "http://www.imabari.saiseikai.or.jp/", "内容": "社会福祉法人恩賜財団済生会今治病院【1:病院】【診療科目:内科_循環器内科_消化器内科_外科_脳神経外科_呼吸器外科_心臓血管外科_消化器外科_整形外科_形成外科_小児科_皮膚科_泌尿器科_リハビリテーション科_放射線科_病理診断科_麻酔科】【一般病床数:191療養病床数:0精神病床数:0感染症病床数:0合計病床数:191】愛媛県今治市喜田村７丁目１番６号" }, "geometry": { "type": "Point", "coordinates": [ 133.02051, 34.044391 ] } },
{ "type": "Feature", "properties": { "ID": 3811385503410, "正式名称": "医療法人　厚仁会　波方中央病院", "機関区分": 1, "都道府県コード": 38, "市区町村コード": 202, "所在地": "愛媛県今治市波方町樋口甲１６８３－１", "緯度": 34.098995, "経度": 132.949874, "url": "https://www.iryou.teikyouseido.mhlw.go.jp/znk-web/juminkanja/S2430/initialize?prefCd=38&kikanCd=1385503410&kikanKbn=1", "url2": "http://kouzinkai.jp", "内容": "医療法人　厚仁会　波方中央病院【1:病院】【診療科目:内科_循環器内科_精神科_リハビリテーション科】【一般病床数:0療養病床数:37精神病床数:0感染症病床数:0合計病床数:37】愛媛県今治市波方町樋口甲１６８３－１" }, "geometry": { "type": "Point", "coordinates": [ 132.949874, 34.098995 ] } },
{ "type": "Feature", "properties": { "ID": 3811385503540, "正式名称": "医療法人　良仁会　大三島中央病院", "機関区分": 1, "都道府県コード": 38, "市区町村コード": 202, "所在地": "愛媛県今治市大三島町宮浦５３１８－１", "緯度": 34.246258, "経度": 132.997197, "url": "https://www.iryou.teikyouseido.mhlw.go.jp/znk-web/juminkanja/S2430/initialize?prefCd=38&kikanCd=1385503540&kikanKbn=1", "url2": null, "内容": "医療法人　良仁会　大三島中央病院【1:病院】【診療科目:内科_血液内科_糖尿病・代謝内科_呼吸器内科_循環器内科_胃腸内科_内視鏡内科_外科_脳神経外科_整形外科_皮膚科_放射線科】【一般病床数:0療養病床数:28精神病床数:0感染症病床数:0合計病床数:28】愛媛県今治市大三島町宮浦５３１８－１" }, "geometry": { "type": "Point", "coordinates": [ 132.997197, 34.246258 ] } },
{ "type": "Feature", "properties": { "ID": 3811385503670, "正式名称": "今治南病院", "機関区分": 1, "都道府県コード": 38, "市区町村コード": 202, "所在地": "愛媛県今治市四村１０３－１", "緯度": 34.033891, "経度": 132.984763, "url": "https://www.iryou.teikyouseido.mhlw.go.jp/znk-web/juminkanja/S2430/initialize?prefCd=38&kikanCd=1385503670&kikanKbn=1", "url2": "http://daijukai-hp.jp/", "内容": "今治南病院【1:病院】【診療科目:内科_循環器内科_消化器内科_外科_眼科_泌尿器科_リハビリテーション科】【一般病床数:25療養病床数:30精神病床数:0感染症病床数:0合計病床数:55】愛媛県今治市四村１０３－１" }, "geometry": { "type": "Point", "coordinates": [ 132.984763, 34.033891 ] } },
{ "type": "Feature", "properties": { "ID": 3811385503700, "正式名称": "高山内科病院", "機関区分": 1, "都道府県コード": 38, "市区町村コード": 202, "所在地": "愛媛県今治市大正町３丁目５の８", "緯度": 34.070499, "経度": 132.996788, "url": "https://www.iryou.teikyouseido.mhlw.go.jp/znk-web/juminkanja/S2430/initialize?prefCd=38&kikanCd=1385503700&kikanKbn=1", "url2": "http://www.takayama-naika.com", "内容": "高山内科病院【1:病院】【診療科目:内科_循環器内科_消化器内科_肝臓内科】【一般病床数:0療養病床数:31精神病床数:0感染症病床数:0合計病床数:31】愛媛県今治市大正町３丁目５の８" }, "geometry": { "type": "Point", "coordinates": [ 132.996788, 34.070499 ] } },
{ "type": "Feature", "properties": { "ID": 3811385503830, "正式名称": "愛媛県立今治病院", "機関区分": 1, "都道府県コード": 38, "市区町村コード": 202, "所在地": "愛媛県今治市石井町４－５－５", "緯度": 34.08558, "経度": 132.986955, "url": "https://www.iryou.teikyouseido.mhlw.go.jp/znk-web/juminkanja/S2430/initialize?prefCd=38&kikanCd=1385503830&kikanKbn=1", "url2": "http://www.eph.pref.ehime.jp/epimah/", "内容": "愛媛県立今治病院【1:病院】【診療科目:内科_血液内科_糖尿病・内分泌内科_脳神経内科_呼吸器内科_循環器内科_消化器内科_外科_脳神経外科_心臓血管外科_消化器外科_整形外科_小児科_産婦人科_眼科_耳鼻いんこう科_皮膚科_泌尿器科_精神科_心療内科_リハビリテーション科_放射線科_麻酔科】【一般病床数:270療養病床数:0精神病床数:0感染症病床数:0合計病床数:270】愛媛県今治市石井町４－５－５" }, "geometry": { "type": "Point", "coordinates": [ 132.986955, 34.08558 ] } },
{ "type": "Feature", "properties": { "ID": 3811385503960, "正式名称": "整形外科藤井病院", "機関区分": 1, "都道府県コード": 38, "市区町村コード": 202, "所在地": "愛媛県今治市常盤町５－３－３８", "緯度": 34.06031, "経度": 132.994166, "url": "https://www.iryou.teikyouseido.mhlw.go.jp/znk-web/juminkanja/S2430/initialize?prefCd=38&kikanCd=1385503960&kikanKbn=1", "url2": "http://www.fujii-hp.or.jp", "内容": "整形外科藤井病院【1:病院】【診療科目:整形外科_リハビリテーション科】【一般病床数:0療養病床数:39精神病床数:0感染症病床数:0合計病床数:39】愛媛県今治市常盤町５－３－３８" }, "geometry": { "type": "Point", "coordinates": [ 132.994166, 34.06031 ] } },
{ "type": "Feature", "properties": { "ID": 3811385504000, "正式名称": "広瀬病院", "機関区分": 1, "都道府県コード": 38, "市区町村コード": 202, "所在地": "愛媛県今治市喜田村６丁目５番１号", "緯度": 34.043258, "経度": 133.023813, "url": "https://www.iryou.teikyouseido.mhlw.go.jp/znk-web/juminkanja/S2430/initialize?prefCd=38&kikanCd=1385504000&kikanKbn=1", "url2": "http://www.hirose-youseikai.org/", "内容": "広瀬病院【1:病院】【診療科目:内科_糖尿病内科_循環器内科_消化器内科_外科_消化器外科_整形外科_リハビリテーション科_放射線科】【一般病床数:30療養病床数:27精神病床数:0感染症病床数:0合計病床数:57】愛媛県今治市喜田村６丁目５番１号" }, "geometry": { "type": "Point", "coordinates": [ 133.023813, 34.043258 ] } },
{ "type": "Feature", "properties": { "ID": 3811385504130, "正式名称": "内科・消化器科羽鳥病院", "機関区分": 1, "都道府県コード": 38, "市区町村コード": 202, "所在地": "愛媛県今治市南宝来町３丁目２番地３", "緯度": 34.058695, "経度": 133.002205, "url": "https://www.iryou.teikyouseido.mhlw.go.jp/znk-web/juminkanja/S2430/initialize?prefCd=38&kikanCd=1385504130&kikanKbn=1", "url2": "http://www.hatori-hosp.com", "内容": "内科・消化器科羽鳥病院【1:病院】【診療科目:内科_消化器内科_放射線科】【一般病床数:33療養病床数:0精神病床数:0感染症病床数:0合計病床数:33】愛媛県今治市南宝来町３丁目２番地３" }, "geometry": { "type": "Point", "coordinates": [ 133.002205, 34.058695 ] } },
{ "type": "Feature", "properties": { "ID": 3811385504390, "正式名称": "医療法人　明和会　高木眼科病院", "機関区分": 1, "都道府県コード": 38, "市区町村コード": 202, "所在地": "愛媛県今治市北宝来町２丁目３番地１２", "緯度": 34.065662, "経度": 132.994521, "url": "https://www.iryou.teikyouseido.mhlw.go.jp/znk-web/juminkanja/S2430/initialize?prefCd=38&kikanCd=1385504390&kikanKbn=1", "url2": "http://www.takagiganka.or.jp/", "内容": "医療法人　明和会　高木眼科病院【1:病院】【診療科目:眼科】【一般病床数:30療養病床数:0精神病床数:0感染症病床数:0合計病床数:30】愛媛県今治市北宝来町２丁目３番地１２" }, "geometry": { "type": "Point", "coordinates": [ 132.994521, 34.065662 ] } },
{ "type": "Feature", "properties": { "ID": 3811385504420, "正式名称": "社会福祉法人恩賜財団済生会今治第二病院", "機関区分": 1, "都道府県コード": 38, "市区町村コード": 202, "所在地": "愛媛県今治市北日吉町１丁目７番４３号", "緯度": 34.063555, "経度": 132.98865, "url": "https://www.iryou.teikyouseido.mhlw.go.jp/znk-web/juminkanja/S2430/initialize?prefCd=38&kikanCd=1385504420&kikanKbn=1", "url2": "https://www.imabari.saiseikai.or.jp/site/saiseikai-imabaridai2/", "内容": "社会福祉法人恩賜財団済生会今治第二病院【1:病院】【診療科目:内科_胃腸内科_外科_整形外科_泌尿器科_リハビリテーション科_放射線科】【一般病床数:30療養病床数:0精神病床数:0感染症病床数:0合計病床数:30】愛媛県今治市北日吉町１丁目７番４３号" }, "geometry": { "type": "Point", "coordinates": [ 132.98865, 34.063555 ] } },
{ "type": "Feature", "properties": { "ID": 3811385504550, "正式名称": "鈴木病院", "機関区分": 1, "都道府県コード": 38, "市区町村コード": 202, "所在地": "愛媛県今治市別宮町２丁目１番地５", "緯度": 34.067305, "経度": 132.996983, "url": "https://www.iryou.teikyouseido.mhlw.go.jp/znk-web/juminkanja/S2430/initialize?prefCd=38&kikanCd=1385504550&kikanKbn=1", "url2": "http://yasuragi-suzuki.or.jp/", "内容": "鈴木病院【1:病院】【診療科目:内科_消化器内科_小児科_放射線科】【一般病床数:0療養病床数:36精神病床数:0感染症病床数:0合計病床数:36】愛媛県今治市別宮町２丁目１番地５" }, "geometry": { "type": "Point", "coordinates": [ 132.996983, 34.067305 ] } },
{ "type": "Feature", "properties": { "ID": 3811385504680, "正式名称": "消化器科久保病院", "機関区分": 1, "都道府県コード": 38, "市区町村コード": 202, "所在地": "愛媛県今治市内堀１丁目１－１９", "緯度": 34.104134, "経度": 132.967428, "url": "https://www.iryou.teikyouseido.mhlw.go.jp/znk-web/juminkanja/S2430/initialize?prefCd=38&kikanCd=1385504680&kikanKbn=1", "url2": "http://kubo-hospital.com/", "内容": "消化器科久保病院【1:病院】【診療科目:内科_消化器内科_放射線科】【一般病床数:0療養病床数:39精神病床数:0感染症病床数:0合計病床数:39】愛媛県今治市内堀１丁目１－１９" }, "geometry": { "type": "Point", "coordinates": [ 132.967428, 34.104134 ] } },
{ "type": "Feature", "properties": { "ID": 3811385600120, "正式名称": "松山記念病院", "機関区分": 1, "都道府県コード": 38, "市区町村コード": 201, "所在地": "愛媛県松山市美沢１丁目１０番３８号", "緯度": 33.850462, "経度": 132.75043, "url": "https://www.iryou.teikyouseido.mhlw.go.jp/znk-web/juminkanja/S2430/initialize?prefCd=38&kikanCd=1385600120&kikanKbn=1", "url2": "https://www.souseikai.jp/", "内容": "松山記念病院【1:病院】【診療科目:内科_精神科_心療内科_歯科】【一般病床数:0療養病床数:0精神病床数:693感染症病床数:0合計病床数:693】愛媛県松山市美沢１丁目１０番３８号" }, "geometry": { "type": "Point", "coordinates": [ 132.75043, 33.850462 ] } },
{ "type": "Feature", "properties": { "ID": 3811385600250, "正式名称": "真光園", "機関区分": 1, "都道府県コード": 38, "市区町村コード": 201, "所在地": "愛媛県松山市南高井町１４９１", "緯度": 33.794886, "経度": 132.803233, "url": "https://www.iryou.teikyouseido.mhlw.go.jp/znk-web/juminkanja/S2430/initialize?prefCd=38&kikanCd=1385600250&kikanKbn=1", "url2": "https://www.shinkouen-ehime.com/", "内容": "真光園【1:病院】【診療科目:精神科】【一般病床数:0療養病床数:0精神病床数:202感染症病床数:0合計病床数:202】愛媛県松山市南高井町１４９１" }, "geometry": { "type": "Point", "coordinates": [ 132.803233, 33.794886 ] } },
{ "type": "Feature", "properties": { "ID": 3811385600380, "正式名称": "医療法人　敬愛会久米病院", "機関区分": 1, "都道府県コード": 38, "市区町村コード": 201, "所在地": "愛媛県松山市南久米町７２３", "緯度": 33.812051, "経度": 132.801733, "url": "https://www.iryou.teikyouseido.mhlw.go.jp/znk-web/juminkanja/S2430/initialize?prefCd=38&kikanCd=1385600380&kikanKbn=1", "url2": "http://kume-hp.jp/index.php", "内容": "医療法人　敬愛会久米病院【1:病院】【診療科目:内科_消化器内科_精神科_心療内科】【一般病床数:19療養病床数:0精神病床数:154感染症病床数:0合計病床数:173】愛媛県松山市南久米町７２３" }, "geometry": { "type": "Point", "coordinates": [ 132.801733, 33.812051 ] } },
{ "type": "Feature", "properties": { "ID": 3811385600540, "正式名称": "医療法人佑心會堀江病院", "機関区分": 1, "都道府県コード": 38, "市区町村コード": 201, "所在地": "愛媛県松山市福角町甲１５８２番地", "緯度": 33.904707, "経度": 132.755705, "url": "https://www.iryou.teikyouseido.mhlw.go.jp/znk-web/juminkanja/S2430/initialize?prefCd=38&kikanCd=1385600540&kikanKbn=1", "url2": "http://www.horie-hp.jp/", "内容": "医療法人佑心會堀江病院【1:病院】【診療科目:内科_精神科_心療内科】【一般病床数:0療養病床数:0精神病床数:200感染症病床数:0合計病床数:200】愛媛県松山市福角町甲１５８２番地" }, "geometry": { "type": "Point", "coordinates": [ 132.755705, 33.904707 ] } },
{ "type": "Feature", "properties": { "ID": 3811385600960, "正式名称": "松山赤十字病院", "機関区分": 1, "都道府県コード": 38, "市区町村コード": 201, "所在地": "愛媛県松山市文京町１番地", "緯度": 33.848463, "経度": 132.774178, "url": "https://www.iryou.teikyouseido.mhlw.go.jp/znk-web/juminkanja/S2430/initialize?prefCd=38&kikanCd=1385600960&kikanKbn=1", "url2": "https://www.matsuyama.jrc.or.jp", "内容": "松山赤十字病院【1:病院】【診療科目:内科_血液内科_糖尿病・内分泌内科_脳神経内科_呼吸器内科_循環器内科_消化器内科_腎臓内科_肝臓・胆のう・膵臓内科_外科_脳神経外科_呼吸器外科_血管外科_心臓血管外科_乳腺外科_整形外科_形成外科_小児科_小児外科_産婦人科_眼科_耳鼻いんこう科_皮膚科_泌尿器科_精神科_心療内科_歯科口腔外科_リウマチ科_リハビリテーション科_放射線診断科_放射線治療科_病理診断科_麻酔科】【一般病床数:582療養病床数:0精神病床数:0感染症病床数:3合計病床数:585】愛媛県松山市文京町１番地" }, "geometry": { "type": "Point", "coordinates": [ 132.774178, 33.848463 ] } },
{ "type": "Feature", "properties": { "ID": 3811385601130, "正式名称": "松山市民病院", "機関区分": 1, "都道府県コード": 38, "市区町村コード": 201, "所在地": "愛媛県松山市大手町２－６－５", "緯度": 33.839241, "経度": 132.753958, "url": "https://www.iryou.teikyouseido.mhlw.go.jp/znk-web/juminkanja/S2430/initialize?prefCd=38&kikanCd=1385601130&kikanKbn=1", "url2": "https://www.matsuyama-shimin-hsp.or.jp/", "内容": "松山市民病院【1:病院】【診療科目:内科_脳神経内科_呼吸器内科_循環器内科_消化器内科_外科_脳神経外科_呼吸器外科_心臓血管外科_整形外科_形成外科_小児科_婦人科_眼科_耳鼻いんこう科_皮膚科_泌尿器科_精神科_心療内科_歯科口腔外科_リハビリテーション科_放射線科_病理診断科_救急科_麻酔科】【一般病床数:382療養病床数:0精神病床数:0感染症病床数:0合計病床数:382】愛媛県松山市大手町２－６－５" }, "geometry": { "type": "Point", "coordinates": [ 132.753958, 33.839241 ] } },
{ "type": "Feature", "properties": { "ID": 3811385601260, "正式名称": "松山協和病院", "機関区分": 1, "都道府県コード": 38, "市区町村コード": 201, "所在地": "愛媛県松山市立花５－１－５３", "緯度": 33.827493, "経度": 132.772123, "url": "https://www.iryou.teikyouseido.mhlw.go.jp/znk-web/juminkanja/S2430/initialize?prefCd=38&kikanCd=1385601260&kikanKbn=1", "url2": "http://www.kyowahp.com", "内容": "松山協和病院【1:病院】【診療科目:内科_呼吸器内科_消化器内科_外科_整形外科_リハビリテーション科】【一般病床数:0療養病床数:54精神病床数:0感染症病床数:0合計病床数:54】愛媛県松山市立花５－１－５３" }, "geometry": { "type": "Point", "coordinates": [ 132.772123, 33.827493 ] } },
{ "type": "Feature", "properties": { "ID": 3811385601420, "正式名称": "野本記念病院", "機関区分": 1, "都道府県コード": 38, "市区町村コード": 201, "所在地": "愛媛県松山市三番町５－１２－１", "緯度": 33.838547, "経度": 132.763846, "url": "https://www.iryou.teikyouseido.mhlw.go.jp/znk-web/juminkanja/S2430/initialize?prefCd=38&kikanCd=1385601420&kikanKbn=1", "url2": "http://www.nomotokinenbyouin.jp", "内容": "野本記念病院【1:病院】【診療科目:内科_循環器内科_外科_整形外科_リハビリテーション科】【一般病床数:99療養病床数:0精神病床数:0感染症病床数:0合計病床数:99】愛媛県松山市三番町５－１２－１" }, "geometry": { "type": "Point", "coordinates": [ 132.763846, 33.838547 ] } },
{ "type": "Feature", "properties": { "ID": 3811385601550, "正式名称": "奥島病院", "機関区分": 1, "都道府県コード": 38, "市区町村コード": 201, "所在地": "愛媛県松山市道後町２－２－１", "緯度": 33.848074, "経度": 132.782733, "url": "https://www.iryou.teikyouseido.mhlw.go.jp/znk-web/juminkanja/S2430/initialize?prefCd=38&kikanCd=1385601550&kikanKbn=1", "url2": "http://www.okujima-hospital.com", "内容": "奥島病院【1:病院】【診療科目:内科_糖尿病内科_呼吸器内科_循環器内科_消化器内科_外科_脳神経外科_呼吸器外科_消化器外科_乳腺外科_整形外科_婦人科_泌尿器科_リハビリテーション科_放射線科_麻酔科】【一般病床数:137療養病床数:47精神病床数:0感染症病床数:0合計病床数:184】愛媛県松山市道後町２－２－１" }, "geometry": { "type": "Point", "coordinates": [ 132.782733, 33.848074 ] } },
{ "type": "Feature", "properties": { "ID": 3811385601970, "正式名称": "松山さくら病院", "機関区分": 1, "都道府県コード": 38, "市区町村コード": 201, "所在地": "愛媛県松山市末広町１８－２", "緯度": 33.83502, "経度": 132.764096, "url": "https://www.iryou.teikyouseido.mhlw.go.jp/znk-web/juminkanja/S2430/initialize?prefCd=38&kikanCd=1385601970&kikanKbn=1", "url2": "https://www.m-sakurahosp.com/", "内容": "松山さくら病院【1:病院】【診療科目:内科_感染症内科_呼吸器内科_心臓内科_外科_心臓血管外科_胸部外科_リハビリテーション科_放射線科_救急科】【一般病床数:48療養病床数:0精神病床数:0感染症病床数:0合計病床数:48】愛媛県松山市末広町１８－２" }, "geometry": { "type": "Point", "coordinates": [ 132.764096, 33.83502 ] } },
{ "type": "Feature", "properties": { "ID": 3811385602140, "正式名称": "医療法人社団慈生会松山城東病院", "機関区分": 1, "都道府県コード": 38, "市区町村コード": 201, "所在地": "愛媛県松山市松末２－１９－３６", "緯度": 33.827077, "経度": 132.788178, "url": "https://www.iryou.teikyouseido.mhlw.go.jp/znk-web/juminkanja/S2430/initialize?prefCd=38&kikanCd=1385602140&kikanKbn=1", "url2": "http://www.m-joto-hsp.com/", "内容": "医療法人社団慈生会松山城東病院【1:病院】【診療科目:内科_循環器内科_消化器内科_外科_脳神経外科_消化器外科_整形外科_リウマチ科_リハビリテーション科_放射線科_麻酔科】【一般病床数:90療養病床数:0精神病床数:0感染症病床数:0合計病床数:90】愛媛県松山市松末２－１９－３６" }, "geometry": { "type": "Point", "coordinates": [ 132.788178, 33.827077 ] } },
{ "type": "Feature", "properties": { "ID": 3811385603020, "正式名称": "医療法人グランセル　佐藤実病院", "機関区分": 1, "都道府県コード": 38, "市区町村コード": 201, "所在地": "愛媛県松山市本町６丁目３－１", "緯度": 33.852046, "経度": 132.758514, "url": "https://www.iryou.teikyouseido.mhlw.go.jp/znk-web/juminkanja/S2430/initialize?prefCd=38&kikanCd=1385603020&kikanKbn=1", "url2": "https://satouminoru.com", "内容": "医療法人グランセル　佐藤実病院【1:病院】【診療科目:内科_外科_大腸・肛門外科_リハビリテーション科】【一般病床数:27療養病床数:33精神病床数:0感染症病床数:0合計病床数:60】愛媛県松山市本町６丁目３－１" }, "geometry": { "type": "Point", "coordinates": [ 132.758514, 33.852046 ] } },
{ "type": "Feature", "properties": { "ID": 3811385603570, "正式名称": "おおぞら病院", "機関区分": 1, "都道府県コード": 38, "市区町村コード": 201, "所在地": "愛媛県松山市六軒家町４－２０", "緯度": 33.851605, "経度": 132.752616, "url": "https://www.iryou.teikyouseido.mhlw.go.jp/znk-web/juminkanja/S2430/initialize?prefCd=38&kikanCd=1385603570&kikanKbn=1", "url2": "http://dojinkai.jp", "内容": "おおぞら病院【1:病院】【診療科目:内科_糖尿病内科_脳神経内科_呼吸器内科_肝臓内科_内視鏡内科_脳神経外科_乳腺外科_整形外科_リハビリテーション科】【一般病床数:108療養病床数:0精神病床数:0感染症病床数:0合計病床数:108】愛媛県松山市六軒家町４－２０" }, "geometry": { "type": "Point", "coordinates": [ 132.752616, 33.851605 ] } },
{ "type": "Feature", "properties": { "ID": 3811385603600, "正式名称": "土橋共立病院", "機関区分": 1, "都道府県コード": 38, "市区町村コード": 201, "所在地": "愛媛県松山市土橋町３―１", "緯度": 33.832714, "経度": 132.757013, "url": "https://www.iryou.teikyouseido.mhlw.go.jp/znk-web/juminkanja/S2430/initialize?prefCd=38&kikanCd=1385603600&kikanKbn=1", "url2": "http://www.dobashi-hs.jp/", "内容": "土橋共立病院【1:病院】【診療科目:内科_消化器内科_整形外科_リハビリテーション科】【一般病床数:0療養病床数:55精神病床数:0感染症病床数:0合計病床数:55】愛媛県松山市土橋町３―１" }, "geometry": { "type": "Point", "coordinates": [ 132.757013, 33.832714 ] } },
{ "type": "Feature", "properties": { "ID": 3811385603990, "正式名称": "松山リハビリテーション病院", "機関区分": 1, "都道府県コード": 38, "市区町村コード": 201, "所在地": "愛媛県松山市高井町１２１１", "緯度": 33.799386, "経度": 132.808038, "url": "https://www.iryou.teikyouseido.mhlw.go.jp/znk-web/juminkanja/S2430/initialize?prefCd=38&kikanCd=1385603990&kikanKbn=1", "url2": "http://www.jikyoukai.or.jp/", "内容": "松山リハビリテーション病院【1:病院】【診療科目:内科_脳神経内科_リハビリテーション科】【一般病床数:116療養病床数:210精神病床数:0感染症病床数:0合計病床数:326】愛媛県松山市高井町１２１１" }, "geometry": { "type": "Point", "coordinates": [ 132.808038, 33.799386 ] } },
{ "type": "Feature", "properties": { "ID": 3811385604160, "正式名称": "南松山病院", "機関区分": 1, "都道府県コード": 38, "市区町村コード": 201, "所在地": "愛媛県松山市朝生田町一丁目３番１０号", "緯度": 33.824021, "経度": 132.774068, "url": "https://www.iryou.teikyouseido.mhlw.go.jp/znk-web/juminkanja/S2430/initialize?prefCd=38&kikanCd=1385604160&kikanKbn=1", "url2": "http:/www.minami-hp.or.jp", "内容": "南松山病院【1:病院】【診療科目:内科_呼吸器科（呼吸器内科）、消化器科、循環器科、糖尿病内科、甲状腺内科、膠原病内科、睡眠外来、禁煙外来、もの忘れ外来_外科_脳神経外科_整形外科_形成外科_呼吸器科（呼吸器外科）、消化器科（消化器外科）、透析科、心臓血管外科、関節治療センター、骨粗鬆症外来_眼科_泌尿器科_リウマチ科_リハビリテーション科_放射線科】【一般病床数:162療養病床数:80精神病床数:0感染症病床数:0合計病床数:242】愛媛県松山市朝生田町一丁目３番１０号" }, "geometry": { "type": "Point", "coordinates": [ 132.774068, 33.824021 ] } },
{ "type": "Feature", "properties": { "ID": 3811385604290, "正式名称": "愛媛県立中央病院", "機関区分": 1, "都道府県コード": 38, "市区町村コード": 201, "所在地": "愛媛県松山市春日町８３", "緯度": 33.831604, "経度": 132.764929, "url": "https://www.iryou.teikyouseido.mhlw.go.jp/znk-web/juminkanja/S2430/initialize?prefCd=38&kikanCd=1385604290&kikanKbn=1", "url2": "https://www.eph.pref.ehime.jp/epch/index.html", "内容": "愛媛県立中央病院【1:病院】【診療科目:内科_血液内科_糖尿病・内分泌内科_脳神経内科_呼吸器内科_循環器内科_消化器内科_腎臓内科_漢方内科_ペインクリニック内科_外科_脳神経外科_呼吸器外科_心臓血管外科_消化器外科_乳腺・内分泌外科_整形外科_形成外科_小児科_小児外科_新生児内科_産婦人科_眼科_耳鼻いんこう科_皮膚科_泌尿器科_精神科_歯科_リハビリテーション科_放射線科_病理診断科_救急科_麻酔科】【一般病床数:824療養病床数:0精神病床数:0感染症病床数:3合計病床数:827】愛媛県松山市春日町８３" }, "geometry": { "type": "Point", "coordinates": [ 132.764929, 33.831604 ] } },
{ "type": "Feature", "properties": { "ID": 3811385604740, "正式名称": "医療法人　鶯友会　牧病院", "機関区分": 1, "都道府県コード": 38, "市区町村コード": 201, "所在地": "愛媛県松山市菅沢町甲１１５１―１", "緯度": 33.902041, "経度": 132.810867, "url": "https://www.iryou.teikyouseido.mhlw.go.jp/znk-web/juminkanja/S2430/initialize?prefCd=38&kikanCd=1385604740&kikanKbn=1", "url2": "http://www.maki-hospital.or.jp", "内容": "医療法人　鶯友会　牧病院【1:病院】【診療科目:内科_精神科_心療内科】【一般病床数:0療養病床数:0精神病床数:182感染症病床数:0合計病床数:182】愛媛県松山市菅沢町甲１１５１―１" }, "geometry": { "type": "Point", "coordinates": [ 132.810867, 33.902041 ] } },
{ "type": "Feature", "properties": { "ID": 3811385604870, "正式名称": "梶浦病院", "機関区分": 1, "都道府県コード": 38, "市区町村コード": 201, "所在地": "愛媛県松山市三番町４―４―５", "緯度": 33.837853, "経度": 132.766623, "url": "https://www.iryou.teikyouseido.mhlw.go.jp/znk-web/juminkanja/S2430/initialize?prefCd=38&kikanCd=1385604870&kikanKbn=1", "url2": "http://www.kajiura-hp.jp/", "内容": "梶浦病院【1:病院】【診療科目:内科_外科_脳神経外科_呼吸器外科_循環器外科_消化器外科_胃腸外科_整形外科_リハビリテーション科_麻酔科】【一般病床数:50療養病床数:0精神病床数:0感染症病床数:0合計病床数:50】愛媛県松山市三番町４―４―５" }, "geometry": { "type": "Point", "coordinates": [ 132.766623, 33.837853 ] } },
{ "type": "Feature", "properties": { "ID": 3811385604900, "正式名称": "医療法人順風会天山病院", "機関区分": 1, "都道府県コード": 38, "市区町村コード": 201, "所在地": "愛媛県松山市天山二丁目３－３０", "緯度": 33.819263, "経度": 132.777873, "url": "https://www.iryou.teikyouseido.mhlw.go.jp/znk-web/juminkanja/S2430/initialize?prefCd=38&kikanCd=1385604900&kikanKbn=1", "url2": "http://www.junpu.or.jp/amayamahp/", "内容": "医療法人順風会天山病院【1:病院】【診療科目:内科_糖尿病内科_脳神経内科_呼吸器内科_循環器内科_消化器内科_脳神経外科_整形外科_小児科_リハビリテーション科_放射線科】【一般病床数:0療養病床数:160精神病床数:0感染症病床数:0合計病床数:160】愛媛県松山市天山二丁目３－３０" }, "geometry": { "type": "Point", "coordinates": [ 132.777873, 33.819263 ] } },
{ "type": "Feature", "properties": { "ID": 3811385605040, "正式名称": "医療法人天真会南高井病院", "機関区分": 1, "都道府県コード": 38, "市区町村コード": 201, "所在地": "愛媛県松山市南高井町３３３番地", "緯度": 33.787832, "経度": 132.824315, "url": "https://www.iryou.teikyouseido.mhlw.go.jp/znk-web/juminkanja/S2430/initialize?prefCd=38&kikanCd=1385605040&kikanKbn=1", "url2": "https://www.tensinkai.or.jp/", "内容": "医療法人天真会南高井病院【1:病院】【診療科目:内科_泌尿器科_リハビリテーション科】【一般病床数:120療養病床数:180精神病床数:0感染症病床数:0合計病床数:300】愛媛県松山市南高井町３３３番地" }, "geometry": { "type": "Point", "coordinates": [ 132.824315, 33.787832 ] } },
{ "type": "Feature", "properties": { "ID": 3811385605170, "正式名称": "医療法人千寿会道後温泉病院", "機関区分": 1, "都道府県コード": 38, "市区町村コード": 201, "所在地": "愛媛県松山市道後姫塚乙２１－２１", "緯度": 33.84863, "経度": 132.791093, "url": "https://www.iryou.teikyouseido.mhlw.go.jp/znk-web/juminkanja/S2430/initialize?prefCd=38&kikanCd=1385605170&kikanKbn=1", "url2": "https://doh-racenter.jp/", "内容": "医療法人千寿会道後温泉病院【1:病院】【診療科目:内科_循環器内科_脳神経外科_整形外科_リウマチ科_リハビリテーション科】【一般病床数:118療養病床数:106精神病床数:0感染症病床数:0合計病床数:224】愛媛県松山市道後姫塚乙２１－２１" }, "geometry": { "type": "Point", "coordinates": [ 132.791093, 33.84863 ] } },
{ "type": "Feature", "properties": { "ID": 3811385605200, "正式名称": "松山ベテル病院", "機関区分": 1, "都道府県コード": 38, "市区町村コード": 201, "所在地": "愛媛県松山市祝谷６丁目１２２９番地", "緯度": 33.8636, "経度": 132.772927, "url": "https://www.iryou.teikyouseido.mhlw.go.jp/znk-web/juminkanja/S2430/initialize?prefCd=38&kikanCd=1385605200&kikanKbn=1", "url2": "https://www.bethel.or.jp/bethel_hospital/", "内容": "松山ベテル病院【1:病院】【診療科目:内科_胃腸内科_神経内科_外科_脳神経外科_整形外科_精神科_心療内科_リハビリテーション科_放射線科】【一般病床数:155療養病床数:0精神病床数:0感染症病床数:0合計病床数:155】愛媛県松山市祝谷６丁目１２２９番地" }, "geometry": { "type": "Point", "coordinates": [ 132.772927, 33.8636 ] } },
{ "type": "Feature", "properties": { "ID": 3811385605330, "正式名称": "鷹の子病院", "機関区分": 1, "都道府県コード": 38, "市区町村コード": 201, "所在地": "愛媛県松山市鷹子町５２５－１", "緯度": 33.813356, "経度": 132.815509, "url": "https://www.iryou.teikyouseido.mhlw.go.jp/znk-web/juminkanja/S2430/initialize?prefCd=38&kikanCd=1385605330&kikanKbn=1", "url2": "https://takanoko-hsp.jp/", "内容": "鷹の子病院【1:病院】【診療科目:内科_糖尿病内科_代謝・内分泌内科_呼吸器内科_循環器内科_消化器内科_脳神経外科_小児眼科_眼科_耳鼻いんこう科_リハビリテーション科_放射線科】【一般病床数:60療養病床数:0精神病床数:0感染症病床数:0合計病床数:60】愛媛県松山市鷹子町５２５－１" }, "geometry": { "type": "Point", "coordinates": [ 132.815509, 33.813356 ] } },
{ "type": "Feature", "properties": { "ID": 3811385605460, "正式名称": "特定医療法人清和会　和ホスピタル", "機関区分": 1, "都道府県コード": 38, "市区町村コード": 201, "所在地": "愛媛県松山市柳原７３９", "緯度": 33.958007, "経度": 132.770729, "url": "https://www.iryou.teikyouseido.mhlw.go.jp/znk-web/juminkanja/S2430/initialize?prefCd=38&kikanCd=1385605460&kikanKbn=1", "url2": "http://nagomihospital.com/", "内容": "特定医療法人清和会　和ホスピタル【1:病院】【診療科目:精神科_心療内科】【一般病床数:0療養病床数:0精神病床数:120感染症病床数:0合計病床数:120】愛媛県松山市柳原７３９" }, "geometry": { "type": "Point", "coordinates": [ 132.770729, 33.958007 ] } },
{ "type": "Feature", "properties": { "ID": 3811385605590, "正式名称": "北条病院", "機関区分": 1, "都道府県コード": 38, "市区町村コード": 201, "所在地": "愛媛県松山市河野中須賀２８８－５", "緯度": 33.946564, "経度": 132.769424, "url": "https://www.iryou.teikyouseido.mhlw.go.jp/znk-web/juminkanja/S2430/initialize?prefCd=38&kikanCd=1385605590&kikanKbn=1", "url2": "http://www.hojo-hosp.jp/", "内容": "北条病院【1:病院】【診療科目:内科_呼吸器内科_外科_脳神経外科_胃腸外科_肛門外科_整形外科_泌尿器科_リハビリテーション科_放射線科】【一般病床数:60療養病床数:0精神病床数:0感染症病床数:0合計病床数:60】愛媛県松山市河野中須賀２８８－５" }, "geometry": { "type": "Point", "coordinates": [ 132.769424, 33.946564 ] } },
{ "type": "Feature", "properties": { "ID": 3811385605750, "正式名称": "愛媛大学医学部附属病院", "機関区分": 1, "都道府県コード": 38, "市区町村コード": 215, "所在地": "愛媛県東温市志津川４５４", "緯度": 33.802859, "経度": 132.879893, "url": "https://www.iryou.teikyouseido.mhlw.go.jp/znk-web/juminkanja/S2430/initialize?prefCd=38&kikanCd=1385605750&kikanKbn=1", "url2": "https://www.hsp.ehime-u.ac.jp/", "内容": "愛媛大学医学部附属病院【1:病院】【診療科目:内科_感染症内科_血液内科_糖尿病・代謝内科_脳神経内科_呼吸器内科_循環器内科_消化器内科_腎臓内科_外科_脳神経外科_呼吸器外科_心臓血管外科_消化器外科_乳腺・内分泌外科_整形外科_形成外科_小児科_小児外科_産婦人科_眼科_頭頸部・耳鼻いんこう科_皮膚科_泌尿器科_精神科_矯正歯科_歯科口腔外科_アレルギー科_リウマチ科_リハビリテーション科_放射線診断科_放射線治療科_病理診断科_臨床検査科_救急科_麻酔科】【一般病床数:595療養病床数:0精神病床数:40感染症病床数:2合計病床数:637】愛媛県東温市志津川４５４" }, "geometry": { "type": "Point", "coordinates": [ 132.879893, 33.802859 ] } },
{ "type": "Feature", "properties": { "ID": 3811385605880, "正式名称": "独立行政法人国立病院機構愛媛医療センター", "機関区分": 1, "都道府県コード": 38, "市区町村コード": 215, "所在地": "愛媛県東温市横河原３６６番地", "緯度": 33.797887, "経度": 132.881449, "url": "https://www.iryou.teikyouseido.mhlw.go.jp/znk-web/juminkanja/S2430/initialize?prefCd=38&kikanCd=1385605880&kikanKbn=1", "url2": "https://ehime.hosp.go.jp", "内容": "独立行政法人国立病院機構愛媛医療センター【1:病院】【診療科目:内科_糖尿病内科_脳神経内科_呼吸器内科_循環器内科_消化器内科_外科_脳神経外科_呼吸器外科_心臓血管外科_消化器外科_整形外科_小児科_歯科_リハビリテーション科_放射線科_麻酔科】【一般病床数:308療養病床数:0精神病床数:0感染症病床数:0合計病床数:324】愛媛県東温市横河原３６６番地" }, "geometry": { "type": "Point", "coordinates": [ 132.881449, 33.797887 ] } },
{ "type": "Feature", "properties": { "ID": 3811385605910, "正式名称": "愛媛十全医療学院附属病院", "機関区分": 1, "都道府県コード": 38, "市区町村コード": 215, "所在地": "愛媛県東温市南方５６１番地", "緯度": 33.797999, "経度": 132.910724, "url": "https://www.iryou.teikyouseido.mhlw.go.jp/znk-web/juminkanja/S2430/initialize?prefCd=38&kikanCd=1385605910&kikanKbn=1", "url2": "http://www.ehime-juzen.jp/", "内容": "愛媛十全医療学院附属病院【1:病院】【診療科目:内科_整形外科_リウマチ科_リハビリテーション科_放射線科】【一般病床数:97療養病床数:0精神病床数:0感染症病床数:0合計病床数:97】愛媛県東温市南方５６１番地" }, "geometry": { "type": "Point", "coordinates": [ 132.910724, 33.797999 ] } },
{ "type": "Feature", "properties": { "ID": 3811385606210, "正式名称": "医療法人慈孝会福角病院", "機関区分": 1, "都道府県コード": 38, "市区町村コード": 201, "所在地": "愛媛県松山市福角町乙６９番地１", "緯度": 33.904825, "経度": 132.766945, "url": "https://www.iryou.teikyouseido.mhlw.go.jp/znk-web/juminkanja/S2430/initialize?prefCd=38&kikanCd=1385606210&kikanKbn=1", "url2": "http://www.fukuzumi-hp.jp", "内容": "医療法人慈孝会福角病院【1:病院】【診療科目:内科_外科_脳神経外科_消化器外科_形成外科_リハビリテーション科_放射線科】【一般病床数:0療養病床数:114精神病床数:0感染症病床数:0合計病床数:114】愛媛県松山市福角町乙６９番地１" }, "geometry": { "type": "Point", "coordinates": [ 132.766945, 33.904825 ] } },
{ "type": "Feature", "properties": { "ID": 3811385606500, "正式名称": "愛媛生協病院", "機関区分": 1, "都道府県コード": 38, "市区町村コード": 201, "所在地": "愛媛県松山市来住町１０９１－１", "緯度": 33.808718, "経度": 132.798455, "url": "https://www.iryou.teikyouseido.mhlw.go.jp/znk-web/juminkanja/S2430/initialize?prefCd=38&kikanCd=1385606500&kikanKbn=1", "url2": "http://seikyo.ehime-med.or.jp/", "内容": "愛媛生協病院【1:病院】【診療科目:内科_外科_肛門外科_整形外科_小児科_精神科_心療内科_アレルギー科_リウマチ科_リハビリテーション科】【一般病床数:88療養病床数:0精神病床数:0感染症病床数:0合計病床数:88】愛媛県松山市来住町１０９１－１" }, "geometry": { "type": "Point", "coordinates": [ 132.798455, 33.808718 ] } },
{ "type": "Feature", "properties": { "ID": 3811385606630, "正式名称": "東明病院", "機関区分": 1, "都道府県コード": 38, "市区町村コード": 201, "所在地": "愛媛県松山市東方町甲１０２６－１", "緯度": 33.767861, "経度": 132.814484, "url": "https://www.iryou.teikyouseido.mhlw.go.jp/znk-web/juminkanja/S2430/initialize?prefCd=38&kikanCd=1385606630&kikanKbn=1", "url2": "http://toumei-hp.com/", "内容": "東明病院【1:病院】【診療科目:内科_外科_整形外科_小児科_精神科_心療内科_リハビリテーション科】【一般病床数:0療養病床数:91精神病床数:0感染症病床数:0合計病床数:91】愛媛県松山市東方町甲１０２６－１" }, "geometry": { "type": "Point", "coordinates": [ 132.814484, 33.767861 ] } },
{ "type": "Feature", "properties": { "ID": 3811385606890, "正式名称": "社会福祉法人恩賜財団済生会松山病院", "機関区分": 1, "都道府県コード": 38, "市区町村コード": 201, "所在地": "愛媛県松山市山西町８８０番地２", "緯度": 33.852378, "経度": 132.720877, "url": "https://www.iryou.teikyouseido.mhlw.go.jp/znk-web/juminkanja/S2430/initialize?prefCd=38&kikanCd=1385606890&kikanKbn=1", "url2": "http://db.matsuyama.saiseikai.or.jp/hp/", "内容": "社会福祉法人恩賜財団済生会松山病院【1:病院】【診療科目:内科_脳神経内科_循環器内科_腎臓内科_外科_脳神経外科_整形外科_形成外科_婦人科_眼科_皮膚科_泌尿器科_リハビリテーション科_放射線科_麻酔科】【一般病床数:199療養病床数:0精神病床数:0感染症病床数:0合計病床数:199】愛媛県松山市山西町８８０番地２" }, "geometry": { "type": "Point", "coordinates": [ 132.720877, 33.852378 ] } },
{ "type": "Feature", "properties": { "ID": 3811385606920, "正式名称": "渡辺病院", "機関区分": 1, "都道府県コード": 38, "市区町村コード": 201, "所在地": "愛媛県松山市空港通７丁目１３－３", "緯度": 33.827714, "経度": 132.726794, "url": "https://www.iryou.teikyouseido.mhlw.go.jp/znk-web/juminkanja/S2430/initialize?prefCd=38&kikanCd=1385606920&kikanKbn=1", "url2": "https://www.w-hp.or.jp", "内容": "渡辺病院【1:病院】【診療科目:内科_循環器内科_外科_消化器外科_大腸・肛門外科_整形外科_小児外科_リウマチ科_リハビリテーション科】【一般病床数:39療養病床数:8精神病床数:0感染症病床数:0合計病床数:47】愛媛県松山市空港通７丁目１３－３" }, "geometry": { "type": "Point", "coordinates": [ 132.726794, 33.827714 ] } },
{ "type": "Feature", "properties": { "ID": 3811385607060, "正式名称": "中川病院", "機関区分": 1, "都道府県コード": 38, "市区町村コード": 201, "所在地": "愛媛県松山市南梅本町甲５８番地", "緯度": 33.798775, "経度": 132.842341, "url": "https://www.iryou.teikyouseido.mhlw.go.jp/znk-web/juminkanja/S2430/initialize?prefCd=38&kikanCd=1385607060&kikanKbn=1", "url2": "https://www.nakagawa-hp.jp", "内容": "中川病院【1:病院】【診療科目:内科_循環器内科_消化器内科_内視鏡内科_外科_肛門外科_リハビリテーション科_麻酔科】【一般病床数:40療養病床数:0精神病床数:0感染症病床数:0合計病床数:40】愛媛県松山市南梅本町甲５８番地" }, "geometry": { "type": "Point", "coordinates": [ 132.842341, 33.798775 ] } },
{ "type": "Feature", "properties": { "ID": 3811385607190, "正式名称": "松山第一病院", "機関区分": 1, "都道府県コード": 38, "市区町村コード": 201, "所在地": "愛媛県松山市久万ノ台２８２－２", "緯度": 33.859656, "経度": 132.74843, "url": "https://www.iryou.teikyouseido.mhlw.go.jp/znk-web/juminkanja/S2430/initialize?prefCd=38&kikanCd=1385607190&kikanKbn=1", "url2": "https://www.matsuyama-daiichi.jp/", "内容": "松山第一病院【1:病院】【診療科目:内科_糖尿病内科_内分泌内科_循環器内科_消化器内科_リハビリテーション科】【一般病床数:40療養病床数:30精神病床数:0感染症病床数:0合計病床数:70】愛媛県松山市久万ノ台２８２－２" }, "geometry": { "type": "Point", "coordinates": [ 132.74843, 33.859656 ] } },
{ "type": "Feature", "properties": { "ID": 3811385607350, "正式名称": "医療法人和昌会貞本病院", "機関区分": 1, "都道府県コード": 38, "市区町村コード": 201, "所在地": "愛媛県松山市竹原町一丁目６番地１", "緯度": 33.83352, "経度": 132.756125, "url": "https://www.iryou.teikyouseido.mhlw.go.jp/znk-web/juminkanja/S2430/initialize?prefCd=38&kikanCd=1385607350&kikanKbn=1", "url2": "http://sadamoto-hsp.jp", "内容": "医療法人和昌会貞本病院【1:病院】【診療科目:内科_循環器内科_脳神経外科_耳鼻いんこう科_気管食道・耳鼻いんこう科_アレルギー科_リハビリテーション科_放射線科】【一般病床数:60療養病床数:0精神病床数:0感染症病床数:0合計病床数:60】愛媛県松山市竹原町一丁目６番地１" }, "geometry": { "type": "Point", "coordinates": [ 132.756125, 33.83352 ] } },
{ "type": "Feature", "properties": { "ID": 3811385607480, "正式名称": "医療法人結和会松山西病院", "機関区分": 1, "都道府県コード": 38, "市区町村コード": 201, "所在地": "愛媛県松山市富久町３６０番地１", "緯度": 33.821937, "経度": 132.726989, "url": "https://www.iryou.teikyouseido.mhlw.go.jp/znk-web/juminkanja/S2430/initialize?prefCd=38&kikanCd=1385607480&kikanKbn=1", "url2": "http://www.yu-wakai.or.jp", "内容": "医療法人結和会松山西病院【1:病院】【診療科目:内科_循環器内科_消化器内科_泌尿器科_リハビリテーション科_放射線科】【一般病床数:42療養病床数:60精神病床数:0感染症病床数:0合計病床数:102】愛媛県松山市富久町３６０番地１" }, "geometry": { "type": "Point", "coordinates": [ 132.726989, 33.821937 ] } },
{ "type": "Feature", "properties": { "ID": 3811385607510, "正式名称": "平成脳神経外科病院", "機関区分": 1, "都道府県コード": 38, "市区町村コード": 201, "所在地": "愛媛県松山市北井門２丁目７番２８号", "緯度": 33.801913, "経度": 132.779568, "url": "https://www.iryou.teikyouseido.mhlw.go.jp/znk-web/juminkanja/S2430/initialize?prefCd=38&kikanCd=1385607510&kikanKbn=1", "url2": "http://www.heisey.or.jp", "内容": "平成脳神経外科病院【1:病院】【診療科目:外科_脳神経外科_リハビリテーション科】【一般病床数:35療養病床数:30精神病床数:0感染症病床数:0合計病床数:65】愛媛県松山市北井門２丁目７番２８号" }, "geometry": { "type": "Point", "coordinates": [ 132.779568, 33.801913 ] } },
{ "type": "Feature", "properties": { "ID": 3811385607640, "正式名称": "愛媛県立子ども療育センター", "機関区分": 1, "都道府県コード": 38, "市区町村コード": 215, "所在地": "愛媛県東温市田窪２１３５番地", "緯度": 33.793887, "経度": 132.8687, "url": "https://www.iryou.teikyouseido.mhlw.go.jp/znk-web/juminkanja/S2430/initialize?prefCd=38&kikanCd=1385607640&kikanKbn=1", "url2": "http://www.pref.ehime.jp/h20123/kodomo-ryoiku/index.html", "内容": "愛媛県立子ども療育センター【1:病院】【診療科目:整形外科_小児科_児童精神科_歯科_リハビリテーション科】【一般病床数:100療養病床数:0精神病床数:20感染症病床数:0合計病床数:120】愛媛県東温市田窪２１３５番地" }, "geometry": { "type": "Point", "coordinates": [ 132.8687, 33.793887 ] } },
{ "type": "Feature", "properties": { "ID": 3811385700150, "正式名称": "国民健康保険久万高原町立病院", "機関区分": 1, "都道府県コード": 38, "市区町村コード": 386, "所在地": "愛媛県上浮穴郡久万高原町久万６５", "緯度": 33.654672, "経度": 132.904803, "url": "https://www.iryou.teikyouseido.mhlw.go.jp/znk-web/juminkanja/S2430/initialize?prefCd=38&kikanCd=1385700150&kikanKbn=1", "url2": "https://www.kumakogen.jp/site/k-hospital/", "内容": "国民健康保険久万高原町立病院【1:病院】【診療科目:内科_外科_整形外科_小児科_眼科_精神科_心療内科_リハビリテーション科】【一般病床数:60療養病床数:0精神病床数:0感染症病床数:0合計病床数:60】愛媛県上浮穴郡久万高原町久万６５" }, "geometry": { "type": "Point", "coordinates": [ 132.904803, 33.654672 ] } },
{ "type": "Feature", "properties": { "ID": 3811385800210, "正式名称": "伊予病院", "機関区分": 1, "都道府県コード": 38, "市区町村コード": 210, "所在地": "愛媛県伊予市八倉９０６－５", "緯度": 33.783775, "経度": 132.770653, "url": "https://www.iryou.teikyouseido.mhlw.go.jp/znk-web/juminkanja/S2430/initialize?prefCd=38&kikanCd=1385800210&kikanKbn=1", "url2": "http://www.iyohp.jp/", "内容": "伊予病院【1:病院】【診療科目:内科_循環器内科_小児科_リハビリテーション科_麻酔科】【一般病床数:72療養病床数:218精神病床数:0感染症病床数:0合計病床数:290】愛媛県伊予市八倉９０６－５" }, "geometry": { "type": "Point", "coordinates": [ 132.770653, 33.783775 ] } },
{ "type": "Feature", "properties": { "ID": 3811385800340, "正式名称": "医療法人光佑会くろだ病院", "機関区分": 1, "都道府県コード": 38, "市区町村コード": 401, "所在地": "愛媛県伊予郡松前町神崎５８６番地", "緯度": 33.787552, "経度": 132.737378, "url": "https://www.iryou.teikyouseido.mhlw.go.jp/znk-web/juminkanja/S2430/initialize?prefCd=38&kikanCd=1385800340&kikanKbn=1", "url2": "http://www.kuroda.or.jp", "内容": "医療法人光佑会くろだ病院【1:病院】【診療科目:内科_精神科_心療内科】【一般病床数:0療養病床数:0精神病床数:153感染症病床数:0合計病床数:153】愛媛県伊予郡松前町神崎５８６番地" }, "geometry": { "type": "Point", "coordinates": [ 132.737378, 33.787552 ] } },
{ "type": "Feature", "properties": { "ID": 3811385800630, "正式名称": "松前病院", "機関区分": 1, "都道府県コード": 38, "市区町村コード": 401, "所在地": "愛媛県伊予郡松前町筒井１５９２－１", "緯度": 33.791329, "経度": 132.701131, "url": "https://www.iryou.teikyouseido.mhlw.go.jp/znk-web/juminkanja/S2430/initialize?prefCd=38&kikanCd=1385800630&kikanKbn=1", "url2": "http://www.masaki-hp.com/", "内容": "松前病院【1:病院】【診療科目:内科_外科_整形外科_泌尿器科_リハビリテーション科_麻酔科】【一般病床数:0療養病床数:56精神病床数:0感染症病床数:0合計病床数:56】愛媛県伊予郡松前町筒井１５９２－１" }, "geometry": { "type": "Point", "coordinates": [ 132.701131, 33.791329 ] } },
{ "type": "Feature", "properties": { "ID": 3811385800760, "正式名称": "医療法人誠志会砥部病院", "機関区分": 1, "都道府県コード": 38, "市区町村コード": 402, "所在地": "愛媛県伊予郡砥部町麻生４０番地１", "緯度": 33.781304, "経度": 132.79043, "url": "https://www.iryou.teikyouseido.mhlw.go.jp/znk-web/juminkanja/S2430/initialize?prefCd=38&kikanCd=1385800760&kikanKbn=1", "url2": "http://www.tobebyouin.com", "内容": "医療法人誠志会砥部病院【1:病院】【診療科目:内科_脳神経外科_整形外科_眼科_耳鼻いんこう科_皮膚科_精神科_心療内科_リハビリテーション科】【一般病床数:0療養病床数:100精神病床数:113感染症病床数:0合計病床数:213】愛媛県伊予郡砥部町麻生４０番地１" }, "geometry": { "type": "Point", "coordinates": [ 132.79043, 33.781304 ] } },
{ "type": "Feature", "properties": { "ID": 3811385900110, "正式名称": "医療法人静心会平成病院", "機関区分": 1, "都道府県コード": 38, "市区町村コード": 207, "所在地": "愛媛県大洲市柚木８１１番地の１", "緯度": 33.503663, "経度": 132.560378, "url": "https://www.iryou.teikyouseido.mhlw.go.jp/znk-web/juminkanja/S2430/initialize?prefCd=38&kikanCd=1385900110&kikanKbn=1", "url2": "http://www.heisei-hp.jp", "内容": "医療法人静心会平成病院【1:病院】【診療科目:精神科】【一般病床数:0療養病床数:0精神病床数:199感染症病床数:0合計病床数:199】愛媛県大洲市柚木８１１番地の１" }, "geometry": { "type": "Point", "coordinates": [ 132.560378, 33.503663 ] } },
{ "type": "Feature", "properties": { "ID": 3811385900370, "正式名称": "大洲中央病院", "機関区分": 1, "都道府県コード": 38, "市区町村コード": 207, "所在地": "愛媛県大洲市東大洲５番地", "緯度": 33.515495, "経度": 132.551295, "url": "https://www.iryou.teikyouseido.mhlw.go.jp/znk-web/juminkanja/S2430/initialize?prefCd=38&kikanCd=1385900370&kikanKbn=1", "url2": "http://www.oozuchuo-hsp.jp", "内容": "大洲中央病院【1:病院】【診療科目:内科_循環器内科_消化器内科_外科_脳神経外科_整形外科_形成外科_泌尿器科_リハビリテーション科_放射線科_麻酔科】【一般病床数:107療養病床数:75精神病床数:0感染症病床数:0合計病床数:182】愛媛県大洲市東大洲５番地" }, "geometry": { "type": "Point", "coordinates": [ 132.551295, 33.515495 ] } },
{ "type": "Feature", "properties": { "ID": 3811385900530, "正式名称": "医療法人肱嵐会石村病院", "機関区分": 1, "都道府県コード": 38, "市区町村コード": 207, "所在地": "愛媛県大洲市長浜甲１７６番地", "緯度": 33.612511, "経度": 132.482991, "url": "https://www.iryou.teikyouseido.mhlw.go.jp/znk-web/juminkanja/S2430/initialize?prefCd=38&kikanCd=1385900530&kikanKbn=1", "url2": "nagahama-ishimura.jp", "内容": "医療法人肱嵐会石村病院【1:病院】【診療科目:内科_外科_整形外科_リハビリテーション科】【一般病床数:0療養病床数:22精神病床数:0感染症病床数:0合計病床数:22】愛媛県大洲市長浜甲１７６番地" }, "geometry": { "type": "Point", "coordinates": [ 132.482991, 33.612511 ] } },
{ "type": "Feature", "properties": { "ID": 3811385900660, "正式名称": "喜多医師会病院", "機関区分": 1, "都道府県コード": 38, "市区町村コード": 207, "所在地": "愛媛県大洲市東大洲１５６３番地１", "緯度": 33.532146, "経度": 132.572098, "url": "https://www.iryou.teikyouseido.mhlw.go.jp/znk-web/juminkanja/S2430/initialize?prefCd=38&kikanCd=1385900660&kikanKbn=1", "url2": "http://www.kitaishikai.jp/hp/", "内容": "喜多医師会病院【1:病院】【診療科目:内科_感染症内科_血液内科_呼吸器内科_循環器内科_消化器内科_外科_脳神経外科_心臓血管外科_乳腺外科_整形外科_小児外科_リハビリテーション科_放射線科_麻酔科】【一般病床数:159療養病床数:40精神病床数:0感染症病床数:0合計病床数:199】愛媛県大洲市東大洲１５６３番地１" }, "geometry": { "type": "Point", "coordinates": [ 132.572098, 33.532146 ] } },
{ "type": "Feature", "properties": { "ID": 3811385900790, "正式名称": "大洲記念病院", "機関区分": 1, "都道府県コード": 38, "市区町村コード": 207, "所在地": "愛媛県大洲市徳森１５１２番地１", "緯度": 33.532188, "経度": 132.585486, "url": "https://www.iryou.teikyouseido.mhlw.go.jp/znk-web/juminkanja/S2430/initialize?prefCd=38&kikanCd=1385900790&kikanKbn=1", "url2": "https://www.ozu-johukai.jp/", "内容": "大洲記念病院【1:病院】【診療科目:内科_循環器内科_消化器内科_外科_整形外科_皮膚科_リウマチ科_リハビリテーション科_放射線科_麻酔科】【一般病床数:50療養病床数:45精神病床数:0感染症病床数:0合計病床数:95】愛媛県大洲市徳森１５１２番地１" }, "geometry": { "type": "Point", "coordinates": [ 132.585486, 33.532188 ] } },
{ "type": "Feature", "properties": { "ID": 3811385900950, "正式名称": "市立大洲病院", "機関区分": 1, "都道府県コード": 38, "市区町村コード": 207, "所在地": "愛媛県大洲市西大洲甲５７０番地", "緯度": 33.504884, "経度": 132.524048, "url": "https://www.iryou.teikyouseido.mhlw.go.jp/znk-web/juminkanja/S2430/initialize?prefCd=38&kikanCd=1385900950&kikanKbn=1", "url2": "http://www.ozuch.jp/", "内容": "市立大洲病院【1:病院】【診療科目:内科_神経内科_外科_整形外科_小児科_産婦人科_眼科_耳鼻いんこう科_皮膚科_泌尿器科_リハビリテーション科_麻酔科】【一般病床数:142療養病床数:0精神病床数:0感染症病床数:0合計病床数:150】愛媛県大洲市西大洲甲５７０番地" }, "geometry": { "type": "Point", "coordinates": [ 132.524048, 33.504884 ] } },
{ "type": "Feature", "properties": { "ID": 3811386000310, "正式名称": "市立八幡浜総合病院", "機関区分": 1, "都道府県コード": 38, "市区町村コード": 204, "所在地": "愛媛県八幡浜市大平１番耕地６３８番地", "緯度": 33.468349, "経度": 132.424632, "url": "https://www.iryou.teikyouseido.mhlw.go.jp/znk-web/juminkanja/S2430/initialize?prefCd=38&kikanCd=1386000310&kikanKbn=1", "url2": "http://yawatahama-cgh.jp/", "内容": "市立八幡浜総合病院【1:病院】【診療科目:内科_呼吸器内科_循環器内科_消化器内科_外科_脳神経外科_整形外科_小児科_産婦人科_眼科_耳鼻いんこう科_皮膚科_泌尿器科_歯科口腔外科_リハビリテーション科_放射線科_麻酔科】【一般病床数:254療養病床数:0精神病床数:0感染症病床数:2合計病床数:256】愛媛県八幡浜市大平１番耕地６３８番地" }, "geometry": { "type": "Point", "coordinates": [ 132.424632, 33.468349 ] } },
{ "type": "Feature", "properties": { "ID": 3811386000440, "正式名称": "医療法人　広仁会　広瀬病院", "機関区分": 1, "都道府県コード": 38, "市区町村コード": 204, "所在地": "愛媛県八幡浜市１２８０番地９", "緯度": 33.457193, "経度": 132.429336, "url": "https://www.iryou.teikyouseido.mhlw.go.jp/znk-web/juminkanja/S2430/initialize?prefCd=38&kikanCd=1386000440&kikanKbn=1", "url2": "http://hirose-byouin.co.jp", "内容": "医療法人　広仁会　広瀬病院【1:病院】【診療科目:内科_消化器内科_神経内科_外科_整形外科_婦人科_皮膚科_泌尿器科_リウマチ科_リハビリテーション科_放射線科】【一般病床数:31療養病床数:45精神病床数:0感染症病床数:0合計病床数:76】愛媛県八幡浜市１２８０番地９" }, "geometry": { "type": "Point", "coordinates": [ 132.429336, 33.457193 ] } },
{ "type": "Feature", "properties": { "ID": 3811386000860, "正式名称": "医療法人青峰会真網代くじらリハビリテーション病院", "機関区分": 1, "都道府県コード": 38, "市区町村コード": 204, "所在地": "愛媛県八幡浜市真網代甲２２９番地５", "緯度": 33.42589, "経度": 132.392451, "url": "https://www.iryou.teikyouseido.mhlw.go.jp/znk-web/juminkanja/S2430/initialize?prefCd=38&kikanCd=1386000860&kikanKbn=1", "url2": "http://maajiro.kujira.biz", "内容": "医療法人青峰会真網代くじらリハビリテーション病院【1:病院】【診療科目:内科_精神科_リハビリテーション科】【一般病床数:0療養病床数:89精神病床数:43感染症病床数:0合計病床数:132】愛媛県八幡浜市真網代甲２２９番地５" }, "geometry": { "type": "Point", "coordinates": [ 132.392451, 33.42589 ] } },
{ "type": "Feature", "properties": { "ID": 3811386000990, "正式名称": "三瓶病院", "機関区分": 1, "都道府県コード": 38, "市区町村コード": 214, "所在地": "愛媛県西予市三瓶町朝立２番耕地１番地１８", "緯度": 33.38459, "経度": 132.4247, "url": "https://www.iryou.teikyouseido.mhlw.go.jp/znk-web/juminkanja/S2430/initialize?prefCd=38&kikanCd=1386000990&kikanKbn=1", "url2": "http://www.minorikai.net", "内容": "三瓶病院【1:病院】【診療科目:内科_消化器内科_整形外科_リウマチ科_リハビリテーション科】【一般病床数:0療養病床数:47精神病床数:0感染症病床数:0合計病床数:47】愛媛県西予市三瓶町朝立２番耕地１番地１８" }, "geometry": { "type": "Point", "coordinates": [ 132.4247, 33.38459 ] } },
{ "type": "Feature", "properties": { "ID": 3811386300140, "正式名称": "公益財団法人正光会　宇和島病院", "機関区分": 1, "都道府県コード": 38, "市区町村コード": 203, "所在地": "愛媛県宇和島市柿原１２８０", "緯度": 33.237164, "経度": 132.583972, "url": "https://www.iryou.teikyouseido.mhlw.go.jp/znk-web/juminkanja/S2430/initialize?prefCd=38&kikanCd=1386300140&kikanKbn=1", "url2": "http://www.shokokai-grp.or.jp/category/uwajima", "内容": "公益財団法人正光会　宇和島病院【1:病院】【診療科目:精神科_神経科】【一般病床数:0療養病床数:0精神病床数:266感染症病床数:0合計病床数:266】愛媛県宇和島市柿原１２８０" }, "geometry": { "type": "Point", "coordinates": [ 132.583972, 33.237164 ] } },
{ "type": "Feature", "properties": { "ID": 3811386300270, "正式名称": "市立宇和島病院", "機関区分": 1, "都道府県コード": 38, "市区町村コード": 203, "所在地": "愛媛県宇和島市御殿町１－１", "緯度": 33.21561, "経度": 132.564863, "url": "https://www.iryou.teikyouseido.mhlw.go.jp/znk-web/juminkanja/S2430/initialize?prefCd=38&kikanCd=1386300270&kikanKbn=1", "url2": "https://www.uwajima-mh.jp", "内容": "市立宇和島病院【1:病院】【診療科目:内科_血液内科_糖尿病内科_内分泌内科_脳神経内科_呼吸器内科_循環器内科_消化器内科_胃腸内科_肝臓内科_外科_脳神経外科_脳・血管外科_呼吸器外科_心臓血管外科_消化器外科_肝臓・胆のう・膵臓外科_乳腺外科_肛門外科_頭頸部外科_整形外科_形成外科_小児科_産婦人科_眼科_耳鼻いんこう科_皮膚科_泌尿器科_歯科口腔外科_リウマチ科_リハビリテーション科_放射線科_病理診断科_臨床検査科_麻酔科】【一般病床数:389療養病床数:0精神病床数:0感染症病床数:4合計病床数:398】愛媛県宇和島市御殿町１－１" }, "geometry": { "type": "Point", "coordinates": [ 132.564863, 33.21561 ] } },
{ "type": "Feature", "properties": { "ID": 3811386300300, "正式名称": "独立行政法人地域医療機能推進機構宇和島病院", "機関区分": 1, "都道府県コード": 38, "市区町村コード": 203, "所在地": "愛媛県宇和島市賀古町２－１－３７", "緯度": 33.216027, "経度": 132.569835, "url": "https://www.iryou.teikyouseido.mhlw.go.jp/znk-web/juminkanja/S2430/initialize?prefCd=38&kikanCd=1386300300&kikanKbn=1", "url2": "http://uwajima.jcho.go.jp/", "内容": "独立行政法人地域医療機能推進機構宇和島病院【1:病院】【診療科目:内科_糖尿病内科_循環器内科_神経内科_外科_整形外科_精神科_心療内科_リハビリテーション科】【一般病床数:199療養病床数:0精神病床数:0感染症病床数:0合計病床数:199】愛媛県宇和島市賀古町２－１－３７" }, "geometry": { "type": "Point", "coordinates": [ 132.569835, 33.216027 ] } },
{ "type": "Feature", "properties": { "ID": 3811386300560, "正式名称": "宇和島市立吉田病院", "機関区分": 1, "都道府県コード": 38, "市区町村コード": 203, "所在地": "愛媛県宇和島市吉田町北小路甲２１７番地", "緯度": 33.282103, "経度": 132.541084, "url": "https://www.iryou.teikyouseido.mhlw.go.jp/znk-web/juminkanja/S2430/initialize?prefCd=38&kikanCd=1386300560&kikanKbn=1", "url2": "https://www.city.uwajima.ehime.jp/site/yoshida-hospital/", "内容": "宇和島市立吉田病院【1:病院】【診療科目:内科_循環器内科_外科_眼科_耳鼻いんこう科_皮膚科_心療内科_リハビリテーション科_放射線科】【一般病床数:40療養病床数:34精神病床数:0感染症病床数:0合計病床数:74】愛媛県宇和島市吉田町北小路甲２１７番地" }, "geometry": { "type": "Point", "coordinates": [ 132.541084, 33.282103 ] } },
{ "type": "Feature", "properties": { "ID": 3811386300690, "正式名称": "旭川荘南愛媛病院", "機関区分": 1, "都道府県コード": 38, "市区町村コード": 488, "所在地": "愛媛県北宇和郡鬼北町永野市１６０７", "緯度": 33.25122, "経度": 132.690601, "url": "https://www.iryou.teikyouseido.mhlw.go.jp/znk-web/juminkanja/S2430/initialize?prefCd=38&kikanCd=1386300690&kikanKbn=1", "url2": "http://asahigawasou.or.jp/minamiehime/index.html", "内容": "旭川荘南愛媛病院【1:病院】【診療科目:内科_整形外科_小児科_精神科_歯科_リハビリテーション科】【一般病床数:132療養病床数:0精神病床数:0感染症病床数:0合計病床数:132】愛媛県北宇和郡鬼北町永野市１６０７" }, "geometry": { "type": "Point", "coordinates": [ 132.690601, 33.25122 ] } },
{ "type": "Feature", "properties": { "ID": 3811386300850, "正式名称": "宇和島市立津島病院", "機関区分": 1, "都道府県コード": 38, "市区町村コード": 203, "所在地": "愛媛県宇和島市津島町高田丙１５番地", "緯度": 33.122469, "経度": 132.519972, "url": "https://www.iryou.teikyouseido.mhlw.go.jp/znk-web/juminkanja/S2430/initialize?prefCd=38&kikanCd=1386300850&kikanKbn=1", "url2": "https://www.city.uwajima.ehime.jp/site/h-tusima/", "内容": "宇和島市立津島病院【1:病院】【診療科目:内科_循環器内科_神経内科_外科_脳神経外科_整形外科_小児科_眼科_耳鼻いんこう科_皮膚科_泌尿器科_心療内科_リハビリテーション科_放射線科】【一般病床数:51療養病床数:40精神病床数:0感染症病床数:0合計病床数:91】愛媛県宇和島市津島町高田丙１５番地" }, "geometry": { "type": "Point", "coordinates": [ 132.519972, 33.122469 ] } },
{ "type": "Feature", "properties": { "ID": 3811386300980, "正式名称": "鎌野病院", "機関区分": 1, "都道府県コード": 38, "市区町村コード": 203, "所在地": "愛媛県宇和島市広小路２番４９号", "緯度": 33.216277, "経度": 132.567391, "url": "https://www.iryou.teikyouseido.mhlw.go.jp/znk-web/juminkanja/S2430/initialize?prefCd=38&kikanCd=1386300980&kikanKbn=1", "url2": "http://kamano-hospital.com/", "内容": "鎌野病院【1:病院】【診療科目:内科_外科_整形外科_皮膚科_リウマチ科_リハビリテーション科】【一般病床数:0療養病床数:36精神病床数:0感染症病床数:0合計病床数:36】愛媛県宇和島市広小路２番４９号" }, "geometry": { "type": "Point", "coordinates": [ 132.567391, 33.216277 ] } },
{ "type": "Feature", "properties": { "ID": 3811386301020, "正式名称": "医療法人徳洲会宇和島徳洲会病院", "機関区分": 1, "都道府県コード": 38, "市区町村コード": 203, "所在地": "愛媛県宇和島市住吉町２丁目６番２４号", "緯度": 33.228942, "経度": 132.554169, "url": "https://www.iryou.teikyouseido.mhlw.go.jp/znk-web/juminkanja/S2430/initialize?prefCd=38&kikanCd=1386301020&kikanKbn=1", "url2": "http://www.uwatoku.org/", "内容": "医療法人徳洲会宇和島徳洲会病院【1:病院】【診療科目:内科_循環器内科_消化器内科_外科_整形外科_婦人科_泌尿器科_リハビリテーション科_放射線科_麻酔科】【一般病床数:246療養病床数:54精神病床数:0感染症病床数:0合計病床数:300】愛媛県宇和島市住吉町２丁目６番２４号" }, "geometry": { "type": "Point", "coordinates": [ 132.554169, 33.228942 ] } },
{ "type": "Feature", "properties": { "ID": 3811386301150, "正式名称": "鬼北町立北宇和病院", "機関区分": 1, "都道府県コード": 38, "市区町村コード": 488, "所在地": "愛媛県北宇和郡鬼北町近永４４５番地１", "緯度": 33.257664, "経度": 132.685101, "url": "https://www.iryou.teikyouseido.mhlw.go.jp/znk-web/juminkanja/S2430/initialize?prefCd=38&kikanCd=1386301150&kikanKbn=1", "url2": "http://www.kitauwa-hospital.jp/", "内容": "鬼北町立北宇和病院【1:病院】【診療科目:内科_腎臓内科_整形外科_小児科_皮膚科_泌尿器科_リウマチ科】【一般病床数:55療養病床数:44精神病床数:0感染症病床数:0合計病床数:99】愛媛県北宇和郡鬼北町近永４４５番地１" }, "geometry": { "type": "Point", "coordinates": [ 132.685101, 33.257664 ] } },
{ "type": "Feature", "properties": { "ID": 3811386400330, "正式名称": "愛南町国保一本松病院", "機関区分": 1, "都道府県コード": 38, "市区町村コード": 506, "所在地": "愛媛県南宇和郡愛南町一本松５０５６番地２", "緯度": 32.962972, "経度": 132.648896, "url": "https://www.iryou.teikyouseido.mhlw.go.jp/znk-web/juminkanja/S2430/initialize?prefCd=38&kikanCd=1386400330&kikanKbn=1", "url2": "http://www.ipponmatsu-hp.jp/", "内容": "愛南町国保一本松病院【1:病院】【診療科目:内科_外科_リハビリテーション科】【一般病床数:0療養病床数:60精神病床数:0感染症病床数:0合計病床数:60】愛媛県南宇和郡愛南町一本松５０５６番地２" }, "geometry": { "type": "Point", "coordinates": [ 132.648896, 32.962972 ] } },
{ "type": "Feature", "properties": { "ID": 3811386400460, "正式名称": "西本病院", "機関区分": 1, "都道府県コード": 38, "市区町村コード": 506, "所在地": "愛媛県南宇和郡愛南町御荘平城４２８９の１", "緯度": 32.959082, "経度": 132.560237, "url": "https://www.iryou.teikyouseido.mhlw.go.jp/znk-web/juminkanja/S2430/initialize?prefCd=38&kikanCd=1386400460&kikanKbn=1", "url2": "nishimotohospital.com", "内容": "西本病院【1:病院】【診療科目:内科_循環器内科_胃腸内科_脳神経外科_整形外科_眼科_リウマチ科_リハビリテーション科】【一般病床数:38療養病床数:0精神病床数:0感染症病床数:0合計病床数:38】愛媛県南宇和郡愛南町御荘平城４２８９の１" }, "geometry": { "type": "Point", "coordinates": [ 132.560237, 32.959082 ] } },
{ "type": "Feature", "properties": { "ID": 3811386400590, "正式名称": "愛媛県立南宇和病院", "機関区分": 1, "都道府県コード": 38, "市区町村コード": 506, "所在地": "愛媛県南宇和郡愛南町城辺甲２４３３番地１", "緯度": 32.964082, "経度": 132.585151, "url": "https://www.iryou.teikyouseido.mhlw.go.jp/znk-web/juminkanja/S2430/initialize?prefCd=38&kikanCd=1386400590&kikanKbn=1", "url2": "http://www.eph.pref.ehime.jp/epsuh/index.htm", "内容": "愛媛県立南宇和病院【1:病院】【診療科目:内科_糖尿病・内分泌内科_呼吸器内科_循環器内科_消化器内科_外科_脳神経外科_整形外科_小児科_産婦人科_眼科_耳鼻いんこう科_皮膚科_泌尿器科_リハビリテーション科_放射線科_麻酔科】【一般病床数:199療養病床数:0精神病床数:0感染症病床数:0合計病床数:199】愛媛県南宇和郡愛南町城辺甲２４３３番地１" }, "geometry": { "type": "Point", "coordinates": [ 132.585151, 32.964082 ] } },
{ "type": "Feature", "properties": { "ID": 3811386400620, "正式名称": "西条市民病院", "機関区分": 1, "都道府県コード": 38, "市区町村コード": 206, "所在地": "愛媛県西条市小松町妙口甲１５２１番地", "緯度": 33.895573, "経度": 133.089721, "url": "https://www.iryou.teikyouseido.mhlw.go.jp/znk-web/juminkanja/S2430/initialize?prefCd=38&kikanCd=1386400620&kikanKbn=1", "url2": "https://saijo-hospital.jp/", "内容": "西条市民病院【1:病院】【診療科目:内科_外科_脳神経外科_整形外科_リウマチ科_リハビリテーション科】【一般病床数:25療養病床数:76精神病床数:0感染症病床数:0合計病床数:101】愛媛県西条市小松町妙口甲１５２１番地" }, "geometry": { "type": "Point", "coordinates": [ 133.089721, 33.895573 ] } },
{ "type": "Feature", "properties": { "ID": 3811386400750, "正式名称": "渡部病院", "機関区分": 1, "都道府県コード": 38, "市区町村コード": 206, "所在地": "愛媛県西条市周布３３１番地１", "緯度": 33.926349, "経度": 133.087398, "url": "https://www.iryou.teikyouseido.mhlw.go.jp/znk-web/juminkanja/S2430/initialize?prefCd=38&kikanCd=1386400750&kikanKbn=1", "url2": "https://w-hospital.com/", "内容": "渡部病院【1:病院】【診療科目:内科_呼吸器内科_循環器内科_消化器内科_腎臓内科_リハビリテーション科_放射線科】【一般病床数:52療養病床数:0精神病床数:0感染症病床数:0合計病床数:52】愛媛県西条市周布３３１番地１" }, "geometry": { "type": "Point", "coordinates": [ 133.087398, 33.926349 ] } },
{ "type": "Feature", "properties": { "ID": 3811386500100, "正式名称": "宇都宮病院", "機関区分": 1, "都道府県コード": 38, "市区町村コード": 204, "所在地": "愛媛県八幡浜市白浜通１５３６番地１１８", "緯度": 33.464359, "経度": 132.424336, "url": "https://www.iryou.teikyouseido.mhlw.go.jp/znk-web/juminkanja/S2430/initialize?prefCd=38&kikanCd=1386500100&kikanKbn=1", "url2": "https://www.utsunomiya-hosp.com/", "内容": "宇都宮病院【1:病院】【診療科目:内科_消化器内科_外科】【一般病床数:0療養病床数:120精神病床数:0感染症病床数:0合計病床数:120】愛媛県八幡浜市白浜通１５３６番地１１８" }, "geometry": { "type": "Point", "coordinates": [ 132.424336, 33.464359 ] } },
{ "type": "Feature", "properties": { "ID": 3811386500230, "正式名称": "加戸病院", "機関区分": 1, "都道府県コード": 38, "市区町村コード": 422, "所在地": "愛媛県喜多郡内子町内子７７１番地", "緯度": 33.546189, "経度": 132.646907, "url": "https://www.iryou.teikyouseido.mhlw.go.jp/znk-web/juminkanja/S2430/initialize?prefCd=38&kikanCd=1386500230&kikanKbn=1", "url2": "http://kato-hp.jp/", "内容": "加戸病院【1:病院】【診療科目:内科_糖尿病内科_呼吸器内科_循環器内科_消化器内科_外科_消化器外科_肛門外科_整形外科_リハビリテーション科】【一般病床数:52療養病床数:40精神病床数:0感染症病床数:0合計病床数:92】愛媛県喜多郡内子町内子７７１番地" }, "geometry": { "type": "Point", "coordinates": [ 132.646907, 33.546189 ] } },
{ "type": "Feature", "properties": { "ID": 3811386500360, "正式名称": "八幡浜医師会立双岩病院", "機関区分": 1, "都道府県コード": 38, "市区町村コード": 204, "所在地": "愛媛県八幡浜市若山４番耕地１６０－１", "緯度": 33.423142, "経度": 132.456196, "url": "https://www.iryou.teikyouseido.mhlw.go.jp/znk-web/juminkanja/S2430/initialize?prefCd=38&kikanCd=1386500360&kikanKbn=1", "url2": "www.futaiwa-hospital.sakura.ne.jp", "内容": "八幡浜医師会立双岩病院【1:病院】【診療科目:内科_精神科_心療内科】【一般病床数:0療養病床数:0精神病床数:174感染症病床数:0合計病床数:174】愛媛県八幡浜市若山４番耕地１６０－１" }, "geometry": { "type": "Point", "coordinates": [ 132.456196, 33.423142 ] } },
{ "type": "Feature", "properties": { "ID": 3811386500361, "正式名称": "西予市立西予市民病院", "機関区分": 1, "都道府県コード": 38, "市区町村コード": 214, "所在地": "愛媛県西予市宇和町永長１４７番地１", "緯度": 33.385633, "経度": 132.495382, "url": "https://www.iryou.teikyouseido.mhlw.go.jp/znk-web/juminkanja/S2430/initialize?prefCd=38&kikanCd=1386500361&kikanKbn=1", "url2": "http://www.seiyo-mh.jp", "内容": "西予市立西予市民病院【1:病院】【診療科目:内科_消化器内科_外科_脳神経外科_呼吸器外科_消化器外科_乳腺外科_整形外科_婦人科_皮膚科_泌尿器科_リハビリテーション科_放射線科_麻酔科】【一般病床数:109療養病床数:43精神病床数:0感染症病床数:2合計病床数:154】愛媛県西予市宇和町永長１４７番地１" }, "geometry": { "type": "Point", "coordinates": [ 132.495382, 33.385633 ] } },
{ "type": "Feature", "properties": { "ID": 3811386500532, "正式名称": "社会医療法人真泉会　松山まどんな病院", "機関区分": 1, "都道府県コード": 38, "市区町村コード": 201, "所在地": "愛媛県松山市喜与町１丁目７－１", "緯度": 33.84378, "経度": 132.773463, "url": "https://www.iryou.teikyouseido.mhlw.go.jp/znk-web/juminkanja/S2430/initialize?prefCd=38&kikanCd=1386500532&kikanKbn=1", "url2": "https://matsuyama-madonna.com/index.html", "内容": "社会医療法人真泉会　松山まどんな病院【1:病院】【診療科目:内科_外科_整形外科_形成外科_小児科_婦人科_皮膚科_美容皮膚科_泌尿器科_放射線科】【一般病床数:78療養病床数:0精神病床数:0感染症病床数:0合計病床数:78】愛媛県松山市喜与町１丁目７－１" }, "geometry": { "type": "Point", "coordinates": [ 132.773463, 33.84378 ] } },
{ "type": "Feature", "properties": { "ID": 3811386500538, "正式名称": "瀬戸内海病院", "機関区分": 1, "都道府県コード": 38, "市区町村コード": 202, "所在地": "愛媛県今治市南大門町二丁目５番地３", "緯度": 34.066181, "経度": 132.994624, "url": "https://www.iryou.teikyouseido.mhlw.go.jp/znk-web/juminkanja/S2430/initialize?prefCd=38&kikanCd=1386500538&kikanKbn=1", "url2": "http://www.ikirukai.or.jp", "内容": "瀬戸内海病院【1:病院】【診療科目:内科_糖尿病内科_呼吸器内科_循環器内科_消化器内科_外科_整形外科_リハビリテーション科_放射線科】【一般病床数:87療養病床数:0精神病床数:0感染症病床数:0合計病床数:87】愛媛県今治市南大門町二丁目５番地３" }, "geometry": { "type": "Point", "coordinates": [ 132.994624, 34.066181 ] } }
]
}
