{
"type": "FeatureCollection",
"name": "geo_38_認知症対応型通所介護",
"crs": { "type": "name", "properties": { "name": "urn:ogc:def:crs:OGC:1.3:CRS84" } },
"features": [
{ "type": "Feature", "properties": { "内容": "認知症対応型通所介護　しょうせきあいあい【認知症対応型通所介護】愛媛県松山市南吉田町１８７２－２", "url": "https://www.kaigokensaku.mhlw.go.jp/38/index.php?action_kouhyou_detail_004_kani=true&JigyosyoCd=3870105784-00&ServiceCd=720&Type=search", "url2": "https://kitayoshida-clinic.biz/aiai/aboutus/group-home/" }, "geometry": { "type": "Point", "coordinates": [ 132.7089557, 33.8297567 ] } },
{ "type": "Feature", "properties": { "内容": "デイサービス　いしい【認知症対応型通所介護】北井門3丁目14番28号グループホームいしい", "url": "https://www.kaigokensaku.mhlw.go.jp/38/index.php?action_kouhyou_detail_004_kani=true&JigyosyoCd=3890100591-00&ServiceCd=720&Type=search", "url2": "http://www.yoshiken-c.jp/" }, "geometry": { "type": "Point", "coordinates": [ 132.774740799999989, 33.8060813 ] } },
{ "type": "Feature", "properties": { "内容": "認知症対応型デイサービス　フォーライフミネルワ【認知症対応型通所介護】愛媛県松山市東垣生町903番地1", "url": "https://www.kaigokensaku.mhlw.go.jp/38/index.php?action_kouhyou_detail_004_kani=true&JigyosyoCd=3890100658-00&ServiceCd=720&Type=search", "url2": "http://www.m-m-corp.jp/forlife-mineruwa/" }, "geometry": { "type": "Point", "coordinates": [ 132.718538986816384, 33.817655204322008 ] } },
{ "type": "Feature", "properties": { "内容": "ぐるうぷほうむ3丁目【認知症対応型通所介護】愛媛県松山市水泥町631番地", "url": "https://www.kaigokensaku.mhlw.go.jp/38/index.php?action_kouhyou_detail_004_kani=true&JigyosyoCd=3870103870-00&ServiceCd=720&Type=search", "url2": "http://www.slowlife.co.jp/" }, "geometry": { "type": "Point", "coordinates": [ 132.831401699999986, 33.802705 ] } },
{ "type": "Feature", "properties": { "内容": "デイサービスみかんの里【認知症対応型通所介護】愛媛県松山市志津川町200番地", "url": "https://www.kaigokensaku.mhlw.go.jp/38/index.php?action_kouhyou_detail_004_kani=true&JigyosyoCd=3890101474-00&ServiceCd=720&Type=search", "url2": "https://mikankai.com/facility/mikannnosato" }, "geometry": { "type": "Point", "coordinates": [ 132.7480699, 33.8801556 ] } },
{ "type": "Feature", "properties": { "内容": "認知症対応型デイサービスひがし野ゆめ組【認知症対応型通所介護】松山市御幸２丁目６番45号", "url": "https://www.kaigokensaku.mhlw.go.jp/38/index.php?action_kouhyou_detail_004_kani=true&JigyosyoCd=3890100260-00&ServiceCd=720&Type=search", "url2": "http://www.higashino-group.com/" }, "geometry": { "type": "Point", "coordinates": [ 132.761768650570019, 33.857549268427981 ] } },
{ "type": "Feature", "properties": { "内容": "認知症対応型通所介護　ハートガーデンつじまち【認知症対応型通所介護】愛媛県松山市辻町2番35号", "url": "https://www.kaigokensaku.mhlw.go.jp/38/index.php?action_kouhyou_detail_004_kani=true&JigyosyoCd=3890100732-00&ServiceCd=720&Type=search", "url2": "http://www.aijukai-group.com" }, "geometry": { "type": "Point", "coordinates": [ 132.74784379999997, 33.8414179 ] } },
{ "type": "Feature", "properties": { "内容": "デイサービスここち【認知症対応型通所介護】愛媛県松山市志津川町200番地", "url": "https://www.kaigokensaku.mhlw.go.jp/38/index.php?action_kouhyou_detail_004_kani=true&JigyosyoCd=3890101482-00&ServiceCd=720&Type=search", "url2": "https://mikankai.com/" }, "geometry": { "type": "Point", "coordinates": [ 132.748111099999988, 33.8802026 ] } },
{ "type": "Feature", "properties": { "内容": "認知症対応型通所介護軽井沢【認知症対応型通所介護】愛媛県松山市土居田町141番地1", "url": "https://www.kaigokensaku.mhlw.go.jp/38/index.php?action_kouhyou_detail_004_kani=true&JigyosyoCd=3890102084-00&ServiceCd=720&Type=search", "url2": "https://ls-sakuraso.com/" }, "geometry": { "type": "Point", "coordinates": [ 132.751706622090182, 33.820411580232715 ] } },
{ "type": "Feature", "properties": { "内容": "認知症対応型通所介護事業所　ウェルケア高浜【認知症対応型通所介護】愛媛県松山市松ノ木2丁目789番地", "url": "https://www.kaigokensaku.mhlw.go.jp/38/index.php?action_kouhyou_detail_004_kani=true&JigyosyoCd=3890100559-00&ServiceCd=720&Type=search", "url2": "http://kikujyu.or.ｊｐ/" }, "geometry": { "type": "Point", "coordinates": [ 132.720373900000027, 33.8735853 ] } },
{ "type": "Feature", "properties": { "内容": "デイサービスセンターあわい【認知症対応型通所介護】愛媛県松山市小川甲214番地1高齢者総合福祉施設　あわい", "url": "https://www.kaigokensaku.mhlw.go.jp/38/index.php?action_kouhyou_detail_004_kani=true&JigyosyoCd=3890101128-00&ServiceCd=720&Type=search", "url2": "http://www.anjukai.com" }, "geometry": { "type": "Point", "coordinates": [ 132.76133040000002, 33.9281058 ] } },
{ "type": "Feature", "properties": { "内容": "ツクイ松山南江戸グループホーム【認知症対応型通所介護】愛媛県松山市南江戸2丁目1-29", "url": "https://www.kaigokensaku.mhlw.go.jp/38/index.php?action_kouhyou_detail_004_kani=true&JigyosyoCd=3890101912-00&ServiceCd=720&Type=search", "url2": "https://www.tsukui.net" }, "geometry": { "type": "Point", "coordinates": [ 132.748400800000013, 33.8352606 ] } },
{ "type": "Feature", "properties": { "内容": "グループホームフレンド【認知症対応型通所介護】愛媛県松山市湯渡町３番１８号ＭＭＣフレンド２Ｆ", "url": "https://www.kaigokensaku.mhlw.go.jp/38/index.php?action_kouhyou_detail_004_kani=true&JigyosyoCd=3870105263-00&ServiceCd=720&Type=search", "url2": "https://mmcdreamservice.jimdofree.com/%E3%82%B0%E3%83%AB%E3%83%BC%E3%83%97%E3%83%9B%E3%83%BC%E3%83%A0/" }, "geometry": { "type": "Point", "coordinates": [ 132.7831846, 33.8393852 ] } },
{ "type": "Feature", "properties": { "内容": "公益財団法人　正光会　デイサービスセンター　輝【認知症対応型通所介護】愛媛県今治市高市甲474番地2", "url": "https://www.kaigokensaku.mhlw.go.jp/38/index.php?action_kouhyou_detail_004_kani=true&JigyosyoCd=3890200045-00&ServiceCd=720&Type=search", "url2": null }, "geometry": { "type": "Point", "coordinates": [ 133.009718366903712, 34.025171711172085 ] } },
{ "type": "Feature", "properties": { "内容": "デイサービスなごみ【認知症対応型通所介護】今治市別名252番地", "url": "https://www.kaigokensaku.mhlw.go.jp/38/index.php?action_kouhyou_detail_004_kani=true&JigyosyoCd=3890200201-00&ServiceCd=720&Type=search", "url2": "http://www.nagomino-kai.jp/" }, "geometry": { "type": "Point", "coordinates": [ 132.9789862, 34.044353 ] } },
{ "type": "Feature", "properties": { "内容": "デイサービス薬師谷マナー【認知症対応型通所介護】愛媛県宇和島市川内甲2101番地グループホーム　薬師谷マナー", "url": "https://www.kaigokensaku.mhlw.go.jp/38/index.php?action_kouhyou_detail_004_kani=true&JigyosyoCd=3890300191-00&ServiceCd=720&Type=search", "url2": null }, "geometry": { "type": "Point", "coordinates": [ 132.5576436, 33.1943027 ] } },
{ "type": "Feature", "properties": { "内容": "公益財団法人　正光会　デイサービスセンター　虹【認知症対応型通所介護】宇和島市柿原１２８０番地", "url": "https://www.kaigokensaku.mhlw.go.jp/38/index.php?action_kouhyou_detail_004_kani=true&JigyosyoCd=3870300799-00&ServiceCd=720&Type=search", "url2": "www.shokokai-grp.or.jp" }, "geometry": { "type": "Point", "coordinates": [ 132.583149899999967, 33.2363419 ] } },
{ "type": "Feature", "properties": { "内容": "認知症対応型デイサービスここいろ【認知症対応型通所介護】愛媛県宇和島市丸之内3丁目6番1号", "url": "https://www.kaigokensaku.mhlw.go.jp/38/index.php?action_kouhyou_detail_004_kani=true&JigyosyoCd=3890300316-00&ServiceCd=720&Type=search", "url2": null }, "geometry": { "type": "Point", "coordinates": [ 132.564137706745953, 33.218463710957685 ] } },
{ "type": "Feature", "properties": { "内容": "優瑠里デイサービス釜倉【認知症対応型通所介護】愛媛県八幡浜市釜倉１番耕地６０８番地１", "url": "https://www.kaigokensaku.mhlw.go.jp/38/index.php?action_kouhyou_detail_004_kani=true&JigyosyoCd=3890400157-00&ServiceCd=720&Type=search", "url2": "http://www.yuyusya.co.jp" }, "geometry": { "type": "Point", "coordinates": [ 132.460103132680871, 33.409599405245615 ] } },
{ "type": "Feature", "properties": { "内容": "なごみの里「金栄」【認知症対応型通所介護】愛媛県新居浜市高木町８番２６号", "url": "https://www.kaigokensaku.mhlw.go.jp/38/index.php?action_kouhyou_detail_004_kani=true&JigyosyoCd=3890500139-00&ServiceCd=720&Type=search", "url2": "http://www.n-syakyo.jp/" }, "geometry": { "type": "Point", "coordinates": [ 133.286445100000037, 33.9506405 ] } },
{ "type": "Feature", "properties": { "内容": "ケアサポートセンター西連寺【認知症対応型通所介護】愛媛県新居浜市西連寺町一丁目11-21", "url": "https://www.kaigokensaku.mhlw.go.jp/38/index.php?action_kouhyou_detail_004_kani=true&JigyosyoCd=3890500063-00&ServiceCd=720&Type=search", "url2": "http://www.hapinesu.com/" }, "geometry": { "type": "Point", "coordinates": [ 133.298052137434411, 33.926201114200936 ] } },
{ "type": "Feature", "properties": { "内容": "なごみの里「金子」【認知症対応型通所介護】愛媛県新居浜市庄内町6丁目11番46号社会福祉協議会　介護事業所", "url": "https://www.kaigokensaku.mhlw.go.jp/38/index.php?action_kouhyou_detail_004_kani=true&JigyosyoCd=3890500352-00&ServiceCd=720&Type=search", "url2": "http://www.n-syakyo.jp/" }, "geometry": { "type": "Point", "coordinates": [ 133.29795230000002, 33.9518211 ] } },
{ "type": "Feature", "properties": { "内容": "デイサービス　しずか【認知症対応型通所介護】愛媛県新居浜市東田三丁目乙11番地91", "url": "https://www.kaigokensaku.mhlw.go.jp/38/index.php?action_kouhyou_detail_004_kani=true&JigyosyoCd=3890500501-00&ServiceCd=720&Type=search", "url2": "https://www.housyuukai.jp/" }, "geometry": { "type": "Point", "coordinates": [ 133.320319420168346, 33.945029550180223 ] } },
{ "type": "Feature", "properties": { "内容": "古民家喫茶　日野【認知症対応型通所介護】愛媛県新居浜市岸の上町1-14-49", "url": "https://www.kaigokensaku.mhlw.go.jp/38/index.php?action_kouhyou_detail_004_kani=true&JigyosyoCd=3890500600-00&ServiceCd=720&Type=search", "url2": "https://88-group.info/" }, "geometry": { "type": "Point", "coordinates": [ 133.308582199999989, 33.9445574 ] } },
{ "type": "Feature", "properties": { "内容": "デイサービスSwingゆらり【認知症対応型通所介護】愛媛県西条市大町739番地", "url": "https://www.kaigokensaku.mhlw.go.jp/38/index.php?action_kouhyou_detail_004_kani=true&JigyosyoCd=3890600020-00&ServiceCd=720&Type=search", "url2": null }, "geometry": { "type": "Point", "coordinates": [ 133.189295549073819, 33.91474187972117 ] } },
{ "type": "Feature", "properties": { "内容": "デイサービス陽だまり【認知症対応型通所介護】愛媛県西条市飯岡４０７８番地５", "url": "https://www.kaigokensaku.mhlw.go.jp/38/index.php?action_kouhyou_detail_004_kani=true&JigyosyoCd=3890600137-00&ServiceCd=720&Type=search", "url2": null }, "geometry": { "type": "Point", "coordinates": [ 133.213878099999988, 33.9207364 ] } },
{ "type": "Feature", "properties": { "内容": "デイサービス大洲本町【認知症対応型通所介護】愛媛県大洲市大洲45番地1", "url": "https://www.kaigokensaku.mhlw.go.jp/38/index.php?action_kouhyou_detail_004_kani=true&JigyosyoCd=3890700051-00&ServiceCd=720&Type=search", "url2": "https://www.nagomi-no-kai.com" }, "geometry": { "type": "Point", "coordinates": [ 132.546277700000019, 33.507749 ] } },
{ "type": "Feature", "properties": { "内容": "デイサービス　あいらんど【認知症対応型通所介護】愛媛県伊予市下三谷2420-4", "url": "https://www.kaigokensaku.mhlw.go.jp/38/index.php?action_kouhyou_detail_004_kani=true&JigyosyoCd=3891000071-00&ServiceCd=720&Type=search", "url2": null }, "geometry": { "type": "Point", "coordinates": [ 132.719441500000016, 33.7637568 ] } },
{ "type": "Feature", "properties": { "内容": "認知症対応型通所介護　いよ【認知症対応型通所介護】愛媛県伊予市灘町３０２番地１", "url": "https://www.kaigokensaku.mhlw.go.jp/38/index.php?action_kouhyou_detail_004_kani=true&JigyosyoCd=3891000147-00&ServiceCd=720&Type=search", "url2": "https://care-net.biz/38/unit-1/" }, "geometry": { "type": "Point", "coordinates": [ 132.699254, 33.7555418 ] } },
{ "type": "Feature", "properties": { "内容": "認知症対応型通所介護　ぐんちゅう【認知症対応型通所介護】米湊字西窪１１３１番地３", "url": "https://www.kaigokensaku.mhlw.go.jp/38/index.php?action_kouhyou_detail_004_kani=true&JigyosyoCd=3891000154-00&ServiceCd=720&Type=search", "url2": "https://care-net.biz/38/unit-1/" }, "geometry": { "type": "Point", "coordinates": [ 132.7011517, 33.7516522 ] } },
{ "type": "Feature", "properties": { "内容": "認知症対応型通所介護いしかわ【認知症対応型通所介護】愛媛県四国中央市上分町737番地1", "url": "https://www.kaigokensaku.mhlw.go.jp/38/index.php?action_kouhyou_detail_004_kani=true&JigyosyoCd=3891300174-00&ServiceCd=720&Type=search", "url2": "http://kenkou-kai.jp/kanada.html" }, "geometry": { "type": "Point", "coordinates": [ 133.589758008923326, 33.991198522158022 ] } },
{ "type": "Feature", "properties": { "内容": "デイサービスグループホームいしかわ【認知症対応型通所介護】愛媛県四国中央市上分町861-20", "url": "https://www.kaigokensaku.mhlw.go.jp/38/index.php?action_kouhyou_detail_004_kani=true&JigyosyoCd=3891300240-00&ServiceCd=720&Type=search", "url2": "http://kenkou-kai.jp" }, "geometry": { "type": "Point", "coordinates": [ 133.58698030000005, 33.9819187 ] } },
{ "type": "Feature", "properties": { "内容": "共用型　デイサービス　三島の杜【認知症対応型通所介護】愛媛県四国中央市上柏町２０２番１", "url": "https://www.kaigokensaku.mhlw.go.jp/38/index.php?action_kouhyou_detail_004_kani=true&JigyosyoCd=3891300257-00&ServiceCd=720&Type=search", "url2": "http://www.aibikai.jp/" }, "geometry": { "type": "Point", "coordinates": [ 133.561183001852442, 33.980150776825496 ] } },
{ "type": "Feature", "properties": { "内容": "認知症対応型通所介護かえで【認知症対応型通所介護】愛媛県西予市宇和町久枝甲1434-1", "url": "https://www.kaigokensaku.mhlw.go.jp/38/index.php?action_kouhyou_detail_004_kani=true&JigyosyoCd=3891400107-00&ServiceCd=720&Type=search", "url2": "http://www.seiyofukushi.com/" }, "geometry": { "type": "Point", "coordinates": [ 132.493405047620683, 33.365280821006124 ] } },
{ "type": "Feature", "properties": { "内容": "デイサービス　ねぶの花【認知症対応型通所介護】愛媛県西予市宇和町卯之町五丁目１番地４", "url": "https://www.kaigokensaku.mhlw.go.jp/38/index.php?action_kouhyou_detail_004_kani=true&JigyosyoCd=3891400057-00&ServiceCd=720&Type=search", "url2": null }, "geometry": { "type": "Point", "coordinates": [ 132.528440899999964, 33.3618651 ] } },
{ "type": "Feature", "properties": { "内容": "グループホームさくらや【認知症対応型通所介護】愛媛県越智郡上島町岩城２２３９グループホームさくらや", "url": "https://www.kaigokensaku.mhlw.go.jp/38/index.php?action_kouhyou_detail_004_kani=true&JigyosyoCd=3893200034-00&ServiceCd=720&Type=search", "url2": "http://ghsakuraya.html.xdomain.jp/index.html" }, "geometry": { "type": "Point", "coordinates": [ 133.142265700000053, 34.2476497 ] } },
{ "type": "Feature", "properties": { "内容": "デイサービスあまご【認知症対応型通所介護】愛媛県喜多郡内子町只海甲855番地15", "url": "https://www.kaigokensaku.mhlw.go.jp/38/index.php?action_kouhyou_detail_004_kani=true&JigyosyoCd=3893600100-00&ServiceCd=720&Type=search", "url2": "https://gh-amago.com/" }, "geometry": { "type": "Point", "coordinates": [ 132.693920565606703, 33.521865888729337 ] } },
{ "type": "Feature", "properties": { "内容": "公益財団法人　正光会　デイサービスセンター結い【認知症対応型通所介護】愛媛県南宇和郡愛南町城辺甲2934番地", "url": "https://www.kaigokensaku.mhlw.go.jp/38/index.php?action_kouhyou_detail_004_kani=true&JigyosyoCd=3894000052-00&ServiceCd=720&Type=search", "url2": null }, "geometry": { "type": "Point", "coordinates": [ 132.584293500000058, 32.9581286 ] } }
]
}
