{
"type": "FeatureCollection",
"name": "geo_38_短期入所生活介護",
"crs": { "type": "name", "properties": { "name": "urn:ogc:def:crs:OGC:1.3:CRS84" } },
"features": [
{ "type": "Feature", "properties": { "内容": "指定短期入所生活介護事業所　あやめ荘【短期入所生活介護】愛媛県松山市下難波甲135番地1", "url": "https://www.kaigokensaku.mhlw.go.jp/38/index.php?action_kouhyou_detail_004_kani=true&JigyosyoCd=3870107996-00&ServiceCd=210&Type=search", "url2": "http：www.takanawasou.jp/" }, "geometry": { "type": "Point", "coordinates": [ 132.781892805110175, 33.982883909113617 ] } },
{ "type": "Feature", "properties": { "内容": "ショートステイ　笑歩会　岩ぜき【短期入所生活介護】愛媛県松山市溝辺町甲346", "url": "https://www.kaigokensaku.mhlw.go.jp/38/index.php?action_kouhyou_detail_004_kani=true&JigyosyoCd=3870109588-00&ServiceCd=210&Type=search", "url2": "http://shouhokai.jp/" }, "geometry": { "type": "Point", "coordinates": [ 132.805647499999964, 33.8490281 ] } },
{ "type": "Feature", "properties": { "内容": "ショートステイ星岡【短期入所生活介護】愛媛県松山市星岡二丁目8番24号", "url": "https://www.kaigokensaku.mhlw.go.jp/38/index.php?action_kouhyou_detail_004_kani=true&JigyosyoCd=3870104944-00&ServiceCd=210&Type=search", "url2": "http://www.junpu.or.jp/kanfu.center/" }, "geometry": { "type": "Point", "coordinates": [ 132.782562699999971, 33.8192992 ] } },
{ "type": "Feature", "properties": { "内容": "短期入所生活介護和光苑ゆうぐん【短期入所生活介護】愛媛県松山市雄郡2丁目5-8", "url": "https://www.kaigokensaku.mhlw.go.jp/38/index.php?action_kouhyou_detail_004_kani=true&JigyosyoCd=3870110727-00&ServiceCd=210&Type=search", "url2": "http://wakouen.okoshi-yasu.com/" }, "geometry": { "type": "Point", "coordinates": [ 132.75233487316541, 33.829265511600646 ] } },
{ "type": "Feature", "properties": { "内容": "特別養護老人ホーム　ゆずの里【短期入所生活介護】愛媛県松山市星岡五丁目９番２５号", "url": "https://www.kaigokensaku.mhlw.go.jp/38/index.php?action_kouhyou_detail_004_kani=true&JigyosyoCd=3870113531-00&ServiceCd=210&Type=search", "url2": "https://mikankai.com/facility/yuzu" }, "geometry": { "type": "Point", "coordinates": [ 132.7883511, 33.811642957149601 ] } },
{ "type": "Feature", "properties": { "内容": "介護老人保健施設　ハピネス椿【短期入所生活介護】愛媛県松山市今在家3丁目9番29号", "url": "https://www.kaigokensaku.mhlw.go.jp/38/index.php?action_kouhyou_detail_004_kani=true&JigyosyoCd=3857780609-00&ServiceCd=210&Type=search", "url2": "https://www.kawahara-cln.jp" }, "geometry": { "type": "Point", "coordinates": [ 132.7936588, 33.8048706 ] } },
{ "type": "Feature", "properties": { "内容": "指定短期入所生活介護事業所第二権現荘【短期入所生活介護】愛媛県松山市権現町甲648番地1", "url": "https://www.kaigokensaku.mhlw.go.jp/38/index.php?action_kouhyou_detail_004_kani=true&JigyosyoCd=3870101445-00&ServiceCd=210&Type=search", "url2": "https://www.gongensou.or.jp/03/" }, "geometry": { "type": "Point", "coordinates": [ 132.765589099999943, 33.8993842 ] } },
{ "type": "Feature", "properties": { "内容": "短期入所生活介護事業所安寿荘【短期入所生活介護】愛媛県松山市安城寺町1427番地1", "url": "https://www.kaigokensaku.mhlw.go.jp/38/index.php?action_kouhyou_detail_004_kani=true&JigyosyoCd=3870101452-00&ServiceCd=210&Type=search", "url2": "http://www.anjukai.com" }, "geometry": { "type": "Point", "coordinates": [ 132.736950473016321, 33.885262001150004 ] } },
{ "type": "Feature", "properties": { "内容": "ショートステイ星岡【短期入所生活介護】愛媛県松山市星岡2丁目8番24号", "url": "https://www.kaigokensaku.mhlw.go.jp/38/index.php?action_kouhyou_detail_004_kani=true&JigyosyoCd=3870101460-00&ServiceCd=210&Type=search", "url2": "http://www.atomgroup.jp/fukushi/list.html#a04" }, "geometry": { "type": "Point", "coordinates": [ 132.782457434423804, 33.819364234514275 ] } },
{ "type": "Feature", "properties": { "内容": "ショートステイ愛寿荘【短期入所生活介護】愛媛県松山市来住町1171番地1", "url": "https://www.kaigokensaku.mhlw.go.jp/38/index.php?action_kouhyou_detail_004_kani=true&JigyosyoCd=3870101478-00&ServiceCd=210&Type=search", "url2": "http://www.aijukai-group.com/" }, "geometry": { "type": "Point", "coordinates": [ 132.7974821, 33.8093339 ] } },
{ "type": "Feature", "properties": { "内容": "指定短期入所生活介護事業所　幸富久荘【短期入所生活介護】愛媛県松山市富久町412-1", "url": "https://www.kaigokensaku.mhlw.go.jp/38/index.php?action_kouhyou_detail_004_kani=true&JigyosyoCd=3870101486-00&ServiceCd=210&Type=search", "url2": "https://dousinkai.jp/" }, "geometry": { "type": "Point", "coordinates": [ 132.725067800000033, 33.8197919 ] } },
{ "type": "Feature", "properties": { "内容": "短期入所生活介護　梅本の里【短期入所生活介護】愛媛県松山市北梅本町1624番地1", "url": "https://www.kaigokensaku.mhlw.go.jp/38/index.php?action_kouhyou_detail_004_kani=true&JigyosyoCd=3870101494-00&ServiceCd=210&Type=search", "url2": "http://www.umemotonosato.com/" }, "geometry": { "type": "Point", "coordinates": [ 132.853180899999984, 33.814637 ] } },
{ "type": "Feature", "properties": { "内容": "りつりん館アドバンス【短期入所生活介護】愛媛県松山市畑寺町丙1-2", "url": "https://www.kaigokensaku.mhlw.go.jp/38/index.php?action_kouhyou_detail_004_kani=true&JigyosyoCd=3870101502-00&ServiceCd=210&Type=search", "url2": "http://yuhokai.net" }, "geometry": { "type": "Point", "coordinates": [ 132.803557500000011, 33.8331954 ] } },
{ "type": "Feature", "properties": { "内容": "ショートステイ道後【短期入所生活介護】愛媛県松山市溝辺町乙539番地1高齢者総合福祉センター道後", "url": "https://www.kaigokensaku.mhlw.go.jp/38/index.php?action_kouhyou_detail_004_kani=true&JigyosyoCd=3870101510-00&ServiceCd=210&Type=search", "url2": "http://aijukai-group.com/facilities/shortstay.html" }, "geometry": { "type": "Point", "coordinates": [ 132.802888100000018, 33.8531652 ] } },
{ "type": "Feature", "properties": { "内容": "短期入所生活介護事業所ていれぎ荘【短期入所生活介護】愛媛県松山市水泥町405番地1", "url": "https://www.kaigokensaku.mhlw.go.jp/38/index.php?action_kouhyou_detail_004_kani=true&JigyosyoCd=3870101528-00&ServiceCd=210&Type=search", "url2": "https://www.jikoukai-ehime.or.jp/teiregisou" }, "geometry": { "type": "Point", "coordinates": [ 132.8221062, 33.8009655 ] } },
{ "type": "Feature", "properties": { "内容": "済生会姫原特別養護老人ホーム【短期入所生活介護】愛媛県松山市姫原1丁目1656番地", "url": "https://www.kaigokensaku.mhlw.go.jp/38/index.php?action_kouhyou_detail_004_kani=true&JigyosyoCd=3870101692-00&ServiceCd=210&Type=search", "url2": "http://www.himebara-saiseikai.jp/" }, "geometry": { "type": "Point", "coordinates": [ 132.764669700000013, 33.8677123 ] } },
{ "type": "Feature", "properties": { "内容": "短期入所生活介護事業所　和光苑【短期入所生活介護】愛媛県松山市井門町1099番地", "url": "https://www.kaigokensaku.mhlw.go.jp/38/index.php?action_kouhyou_detail_004_kani=true&JigyosyoCd=3870102492-00&ServiceCd=210&Type=search", "url2": "http://wakouen.okoshi-yasu.com/" }, "geometry": { "type": "Point", "coordinates": [ 132.777135600000065, 33.796821 ] } },
{ "type": "Feature", "properties": { "内容": "ショートステイ　五明苑【短期入所生活介護】愛媛県松山市菅沢町乙411-1", "url": "https://www.kaigokensaku.mhlw.go.jp/38/index.php?action_kouhyou_detail_004_kani=true&JigyosyoCd=3870102534-00&ServiceCd=210&Type=search", "url2": "http://www.gomyoen.jp/" }, "geometry": { "type": "Point", "coordinates": [ 132.807272096186637, 33.901897228939859 ] } },
{ "type": "Feature", "properties": { "内容": "有料老人ホームサンリベラル道後【短期入所生活介護】愛媛県松山市末町甲56番地1", "url": "https://www.kaigokensaku.mhlw.go.jp/38/index.php?action_kouhyou_detail_004_kani=true&JigyosyoCd=3870103680-00&ServiceCd=210&Type=search", "url2": "https://sunliberal.com" }, "geometry": { "type": "Point", "coordinates": [ 132.818706379237341, 33.863116170643998 ] } },
{ "type": "Feature", "properties": { "内容": "ショートステイさや【短期入所生活介護】愛媛県松山市南斎院町1158番地", "url": "https://www.kaigokensaku.mhlw.go.jp/38/index.php?action_kouhyou_detail_004_kani=true&JigyosyoCd=3870105123-00&ServiceCd=210&Type=search", "url2": "http://www.aijukai-group.com/" }, "geometry": { "type": "Point", "coordinates": [ 132.735669599999937, 33.8347459 ] } },
{ "type": "Feature", "properties": { "内容": "ベストケア・ショートステイ中村【短期入所生活介護】愛媛県松山市中村二丁目７番３３号　２・３階", "url": "https://www.kaigokensaku.mhlw.go.jp/38/index.php?action_kouhyou_detail_004_kani=true&JigyosyoCd=3870105800-00&ServiceCd=210&Type=search", "url2": "http://www.best-care.jp/" }, "geometry": { "type": "Point", "coordinates": [ 132.77791030000003, 33.833103 ] } },
{ "type": "Feature", "properties": { "内容": "松山特別養護老人ホーム　短期入所サービス【短期入所生活介護】松山市久万ノ台１７１７番地", "url": "https://www.kaigokensaku.mhlw.go.jp/38/index.php?action_kouhyou_detail_004_kani=true&JigyosyoCd=3870106394-00&ServiceCd=210&Type=search", "url2": "http://www.m-tokuro.com" }, "geometry": { "type": "Point", "coordinates": [ 132.7354252, 33.861626 ] } },
{ "type": "Feature", "properties": { "内容": "ショートステイ　ハピネス双葉【短期入所生活介護】愛媛県松山市土居田町90番地1", "url": "https://www.kaigokensaku.mhlw.go.jp/38/index.php?action_kouhyou_detail_004_kani=true&JigyosyoCd=3870106931-00&ServiceCd=210&Type=search", "url2": "https://dousinkai.jp/" }, "geometry": { "type": "Point", "coordinates": [ 132.752435099999957, 33.8223424 ] } },
{ "type": "Feature", "properties": { "内容": "ベストケア・ショートステイ来住【短期入所生活介護】愛媛県松山市来住町１３０７番地５", "url": "https://www.kaigokensaku.mhlw.go.jp/38/index.php?action_kouhyou_detail_004_kani=true&JigyosyoCd=3870107475-00&ServiceCd=210&Type=search", "url2": "http://www.best-care.jp/" }, "geometry": { "type": "Point", "coordinates": [ 132.7951253, 33.8045567 ] } },
{ "type": "Feature", "properties": { "内容": "ショートステイウェルケア高浜【短期入所生活介護】松山市松ノ木2丁目789番地", "url": "https://www.kaigokensaku.mhlw.go.jp/38/index.php?action_kouhyou_detail_004_kani=true&JigyosyoCd=3870107624-00&ServiceCd=210&Type=search", "url2": "http://kikuju.or.jp/" }, "geometry": { "type": "Point", "coordinates": [ 132.720373900000027, 33.8735853 ] } },
{ "type": "Feature", "properties": { "内容": "ユーミーケアたかのこショートステイ【短期入所生活介護】愛媛県松山市鷹子町403-1", "url": "https://www.kaigokensaku.mhlw.go.jp/38/index.php?action_kouhyou_detail_004_kani=true&JigyosyoCd=3870107780-00&ServiceCd=210&Type=search", "url2": "http://www.you-me-care.co.jp/" }, "geometry": { "type": "Point", "coordinates": [ 132.819142400000032, 33.8122922 ] } },
{ "type": "Feature", "properties": { "内容": "ショートステイ瀬戸風【短期入所生活介護】愛媛県松山市古三津四丁目600番地1", "url": "https://www.kaigokensaku.mhlw.go.jp/38/index.php?action_kouhyou_detail_004_kani=true&JigyosyoCd=3870108085-00&ServiceCd=210&Type=search", "url2": "http://www.mitsuseikei.jp/setokaze/" }, "geometry": { "type": "Point", "coordinates": [ 132.729897899999969, 33.8561765 ] } },
{ "type": "Feature", "properties": { "内容": "ショートステイ伊央里【短期入所生活介護】愛媛県松山市南土居町２９３－１", "url": "https://www.kaigokensaku.mhlw.go.jp/38/index.php?action_kouhyou_detail_004_kani=true&JigyosyoCd=3870108192-00&ServiceCd=210&Type=search", "url2": null }, "geometry": { "type": "Point", "coordinates": [ 132.8020358, 33.7997684 ] } },
{ "type": "Feature", "properties": { "内容": "ショートステイセンターモモ【短期入所生活介護】愛媛県松山市土居町６４４－１", "url": "https://www.kaigokensaku.mhlw.go.jp/38/index.php?action_kouhyou_detail_004_kani=true&JigyosyoCd=3870108721-00&ServiceCd=210&Type=search", "url2": null }, "geometry": { "type": "Point", "coordinates": [ 132.787937100000022, 33.7994627 ] } },
{ "type": "Feature", "properties": { "内容": "愛媛生協病院ショートスティ陽だまり【短期入所生活介護】愛媛県松山市来住町1091-1愛媛生協病院Ｃ棟３階", "url": "https://www.kaigokensaku.mhlw.go.jp/38/index.php?action_kouhyou_detail_004_kani=true&JigyosyoCd=3870109612-00&ServiceCd=210&Type=search", "url2": "http://www.ehime-med.or.jp/cms/?page_id=98" }, "geometry": { "type": "Point", "coordinates": [ 132.798375, 33.8086813 ] } },
{ "type": "Feature", "properties": { "内容": "ショートステイ　ジェントルハートみつ【短期入所生活介護】愛媛県松山市梅田町４番３５号高齢者福祉施設ジェントルハートみつ", "url": "https://www.kaigokensaku.mhlw.go.jp/38/index.php?action_kouhyou_detail_004_kani=true&JigyosyoCd=3870109810-00&ServiceCd=210&Type=search", "url2": "http://www.aijukai-group.com/" }, "geometry": { "type": "Point", "coordinates": [ 132.712833199999977, 33.8603087 ] } },
{ "type": "Feature", "properties": { "内容": "ショートステイ施設　姫ヶ浜荘（ユニット）【短期入所生活介護】愛媛県松山市長師156番地1", "url": "https://www.kaigokensaku.mhlw.go.jp/38/index.php?action_kouhyou_detail_004_kani=true&JigyosyoCd=3870110065-00&ServiceCd=210&Type=search", "url2": "tokuyou-himegahama@joy.ocn.ne.jp" }, "geometry": { "type": "Point", "coordinates": [ 132.626661099999978, 33.9587645 ] } },
{ "type": "Feature", "properties": { "内容": "ショートステイまちなか【短期入所生活介護】愛媛県松山市萱町五丁目１０番地２０", "url": "https://www.kaigokensaku.mhlw.go.jp/38/index.php?action_kouhyou_detail_004_kani=true&JigyosyoCd=3870110453-00&ServiceCd=210&Type=search", "url2": "https://jcare.xyz" }, "geometry": { "type": "Point", "coordinates": [ 132.75674813439332, 33.8506363 ] } },
{ "type": "Feature", "properties": { "内容": "ショートステイ梅本の里ゆにっと【短期入所生活介護】北梅本町1624-1", "url": "https://www.kaigokensaku.mhlw.go.jp/38/index.php?action_kouhyou_detail_004_kani=true&JigyosyoCd=3870110461-00&ServiceCd=210&Type=search", "url2": "http://www.umemotonosatocom/" }, "geometry": { "type": "Point", "coordinates": [ 132.85303650000003, 33.8145843 ] } },
{ "type": "Feature", "properties": { "内容": "ショートステイ愛【短期入所生活介護】愛媛県松山市南梅本町甲1281-1", "url": "https://www.kaigokensaku.mhlw.go.jp/38/index.php?action_kouhyou_detail_004_kani=true&JigyosyoCd=3870110685-00&ServiceCd=210&Type=search", "url2": null }, "geometry": { "type": "Point", "coordinates": [ 132.836157800000024, 33.8013353 ] } },
{ "type": "Feature", "properties": { "内容": "ショートステイ　竹の郷【短期入所生活介護】愛媛県松山市太山寺町1470番地社会福祉法人　瀬戸福慈会　竹の郷", "url": "https://www.kaigokensaku.mhlw.go.jp/38/index.php?action_kouhyou_detail_004_kani=true&JigyosyoCd=3870110990-00&ServiceCd=210&Type=search", "url2": "www.setofukuzikai.com" }, "geometry": { "type": "Point", "coordinates": [ 132.726442600000041, 33.8922061 ] } },
{ "type": "Feature", "properties": { "内容": "ショートステイふく【短期入所生活介護】愛媛県松山市空港通四丁目7番1号", "url": "https://www.kaigokensaku.mhlw.go.jp/38/index.php?action_kouhyou_detail_004_kani=true&JigyosyoCd=3870111048-00&ServiceCd=210&Type=search", "url2": "http://www.mitsuwat.co.jp/fukunokami/" }, "geometry": { "type": "Point", "coordinates": [ 132.734947499999947, 33.8288216 ] } },
{ "type": "Feature", "properties": { "内容": "ショートステイ　アトラス高木【短期入所生活介護】愛媛県松山市馬木町2480番地", "url": "https://www.kaigokensaku.mhlw.go.jp/38/index.php?action_kouhyou_detail_004_kani=true&JigyosyoCd=3870111675-00&ServiceCd=210&Type=search", "url2": null }, "geometry": { "type": "Point", "coordinates": [ 132.742921499999966, 33.8870598 ] } },
{ "type": "Feature", "properties": { "内容": "ショートステイガリラヤ久米【短期入所生活介護】愛媛県松山市久米窪田町667番地1高齢者総合福祉施設ガリラヤ久米", "url": "https://www.kaigokensaku.mhlw.go.jp/38/index.php?action_kouhyou_detail_004_kani=true&JigyosyoCd=3870111725-00&ServiceCd=210&Type=search", "url2": "https://www.galilaya-ailin.com/" }, "geometry": { "type": "Point", "coordinates": [ 132.813429742497192, 33.805682111477786 ] } },
{ "type": "Feature", "properties": { "内容": "ショートステイみかんの里【短期入所生活介護】愛媛県松山市志津川町200番地", "url": "https://www.kaigokensaku.mhlw.go.jp/38/index.php?action_kouhyou_detail_004_kani=true&JigyosyoCd=3870111865-00&ServiceCd=210&Type=search", "url2": "http://mikankai.com/" }, "geometry": { "type": "Point", "coordinates": [ 132.750134900000035, 33.8781386 ] } },
{ "type": "Feature", "properties": { "内容": "ショートステイセンター超【短期入所生活介護】愛媛県松山市東方町甲1842番地１", "url": "https://www.kaigokensaku.mhlw.go.jp/38/index.php?action_kouhyou_detail_004_kani=true&JigyosyoCd=3870111873-00&ServiceCd=210&Type=search", "url2": "http://www.syurikai.com" }, "geometry": { "type": "Point", "coordinates": [ 132.820918008026894, 33.776038301692715 ] } },
{ "type": "Feature", "properties": { "内容": "ショートステイゆうりん【短期入所生活介護】愛媛県松山市津吉町1008番地", "url": "https://www.kaigokensaku.mhlw.go.jp/38/index.php?action_kouhyou_detail_004_kani=true&JigyosyoCd=3870112145-00&ServiceCd=210&Type=search", "url2": "http://yurinen.com/" }, "geometry": { "type": "Point", "coordinates": [ 132.835661499999986, 33.774828 ] } },
{ "type": "Feature", "properties": { "内容": "ショートステイ　ウェルケア道後【短期入所生活介護】愛媛県松山市下伊台町乙129-9", "url": "https://www.kaigokensaku.mhlw.go.jp/38/index.php?action_kouhyou_detail_004_kani=true&JigyosyoCd=3870112178-00&ServiceCd=210&Type=search", "url2": "http://kikuju.or.jp/" }, "geometry": { "type": "Point", "coordinates": [ 132.783291382308789, 33.873833348793688 ] } },
{ "type": "Feature", "properties": { "内容": "特別養護老人ホームほしのおか【短期入所生活介護】愛媛県松山市星岡1丁目31番7号特別養護老人ホームほしのおか", "url": "https://www.kaigokensaku.mhlw.go.jp/38/index.php?action_kouhyou_detail_004_kani=true&JigyosyoCd=3870112194-00&ServiceCd=210&Type=search", "url2": "https://www.meishikai.info/" }, "geometry": { "type": "Point", "coordinates": [ 132.78842869999994, 33.8171358 ] } },
{ "type": "Feature", "properties": { "内容": "ショートステイサンシティ北条【短期入所生活介護】愛媛県松山市下難波甲1377番地2高齢者総合福祉施設　サンシティ北条", "url": "https://www.kaigokensaku.mhlw.go.jp/38/index.php?action_kouhyou_detail_004_kani=true&JigyosyoCd=3870112830-00&ServiceCd=210&Type=search", "url2": "https://suncity-hojo.jp/" }, "geometry": { "type": "Point", "coordinates": [ 132.77564943320462, 33.98775557164651 ] } },
{ "type": "Feature", "properties": { "内容": "梅本の里サテライト・ショートステイ【短期入所生活介護】愛媛県松山市平井町1287番地", "url": "https://www.kaigokensaku.mhlw.go.jp/38/index.php?action_kouhyou_detail_004_kani=true&JigyosyoCd=3870112970-00&ServiceCd=210&Type=search", "url2": "http://www.umemotonosato.com/" }, "geometry": { "type": "Point", "coordinates": [ 132.8296643, 33.8259839 ] } },
{ "type": "Feature", "properties": { "内容": "ショートステイ　あいじゅ祝谷【短期入所生活介護】愛媛県松山市祝谷６丁目1027番地1", "url": "https://www.kaigokensaku.mhlw.go.jp/38/index.php?action_kouhyou_detail_004_kani=true&JigyosyoCd=3870113036-00&ServiceCd=210&Type=search", "url2": "http://www.aijukai-group.com" }, "geometry": { "type": "Point", "coordinates": [ 132.775481500000012, 33.8629076 ] } },
{ "type": "Feature", "properties": { "内容": "ショートステイ四葉　安城寺【短期入所生活介護】愛媛県松山市安城寺町497番地", "url": "https://www.kaigokensaku.mhlw.go.jp/38/index.php?action_kouhyou_detail_004_kani=true&JigyosyoCd=3870113515-00&ServiceCd=210&Type=search", "url2": "https://www.midorikai-ehime.com/" }, "geometry": { "type": "Point", "coordinates": [ 132.7427295, 33.8752854 ] } },
{ "type": "Feature", "properties": { "内容": "指定短期入所生活介護事業所　高縄荘【短期入所生活介護】愛媛県松山市立岩中村甲345番地", "url": "https://www.kaigokensaku.mhlw.go.jp/38/index.php?action_kouhyou_detail_004_kani=true&JigyosyoCd=3871100149-00&ServiceCd=210&Type=search", "url2": "http://www.takanawasou.jp" }, "geometry": { "type": "Point", "coordinates": [ 132.820236012304036, 33.946043534835134 ] } },
{ "type": "Feature", "properties": { "内容": "聖マルチンの家【短期入所生活介護】愛媛県松山市中西内250番地2", "url": "https://www.kaigokensaku.mhlw.go.jp/38/index.php?action_kouhyou_detail_004_kani=true&JigyosyoCd=3871100289-00&ServiceCd=210&Type=search", "url2": "http://www.martin.or.jp/" }, "geometry": { "type": "Point", "coordinates": [ 132.782552200000026, 33.9738975 ] } },
{ "type": "Feature", "properties": { "内容": "ショートスティ施設　姫ヶ浜荘【短期入所生活介護】愛媛県松山市長師156番地1", "url": "https://www.kaigokensaku.mhlw.go.jp/38/index.php?action_kouhyou_detail_004_kani=true&JigyosyoCd=3873300184-00&ServiceCd=210&Type=search", "url2": "tokuyou-himegahama@joy.ocn.ne.jp" }, "geometry": { "type": "Point", "coordinates": [ 132.626661099999978, 33.9587645 ] } },
{ "type": "Feature", "properties": { "内容": "ショートステイであい【短期入所生活介護】愛媛県松山市余戸南5丁目3番18号", "url": "https://www.kaigokensaku.mhlw.go.jp/38/index.php?action_kouhyou_detail_004_kani=true&JigyosyoCd=3870104431-00&ServiceCd=210&Type=search", "url2": "sp4ｂ36ｔ9＠chime.ocn.ne.jp" }, "geometry": { "type": "Point", "coordinates": [ 132.7246477, 33.8084748 ] } },
{ "type": "Feature", "properties": { "内容": "短期入所生活介護事業所アテーナ【短期入所生活介護】愛媛県松山市保免中三丁目3番23号", "url": "https://www.kaigokensaku.mhlw.go.jp/38/index.php?action_kouhyou_detail_004_kani=true&JigyosyoCd=3870106246-00&ServiceCd=210&Type=search", "url2": "http://ate-na.jp" }, "geometry": { "type": "Point", "coordinates": [ 132.74595249999993, 33.814482 ] } },
{ "type": "Feature", "properties": { "内容": "松山南ケアセンターそよ風【短期入所生活介護】森松町992-1", "url": "https://www.kaigokensaku.mhlw.go.jp/38/index.php?action_kouhyou_detail_004_kani=true&JigyosyoCd=3870106758-00&ServiceCd=210&Type=search", "url2": "https://www.sykz.co.jp/map/search?pref_name=%E6%84%9B%E5%AA%9B%E7%9C%8C" }, "geometry": { "type": "Point", "coordinates": [ 132.792667199999954, 33.79436050000001 ] } },
{ "type": "Feature", "properties": { "内容": "ショートステイ施設梅津寺ヒルズすみれ【短期入所生活介護】松山市梅津寺町乙56-214", "url": "https://www.kaigokensaku.mhlw.go.jp/38/index.php?action_kouhyou_detail_004_kani=true&JigyosyoCd=3870107418-00&ServiceCd=210&Type=search", "url2": "https://sumire-group.jp/" }, "geometry": { "type": "Point", "coordinates": [ 132.70717860000002, 33.8777454 ] } },
{ "type": "Feature", "properties": { "内容": "おぐり【短期入所生活介護】愛媛県松山市小栗五丁目１番２５号", "url": "https://www.kaigokensaku.mhlw.go.jp/38/index.php?action_kouhyou_detail_004_kani=true&JigyosyoCd=3870109174-00&ServiceCd=210&Type=search", "url2": "https://jcare.xyz/" }, "geometry": { "type": "Point", "coordinates": [ 132.75978396004939, 33.828928593691238 ] } },
{ "type": "Feature", "properties": { "内容": "ミネルワステイ【短期入所生活介護】愛媛県松山市南吉田町1510番地1", "url": "https://www.kaigokensaku.mhlw.go.jp/38/index.php?action_kouhyou_detail_004_kani=true&JigyosyoCd=3870109737-00&ServiceCd=210&Type=search", "url2": "http://www.m-m-corp.jp/mineruwa-stay/" }, "geometry": { "type": "Point", "coordinates": [ 132.708359614155597, 33.828052943714404 ] } },
{ "type": "Feature", "properties": { "内容": "ショートステイ福寿【短期入所生活介護】愛媛県松山市権現町甲１０", "url": "https://www.kaigokensaku.mhlw.go.jp/38/index.php?action_kouhyou_detail_004_kani=true&JigyosyoCd=3870112020-00&ServiceCd=210&Type=search", "url2": "http://jurakukai.jp/facility-info/fukuju" }, "geometry": { "type": "Point", "coordinates": [ 132.762316593254127, 33.899826963076237 ] } },
{ "type": "Feature", "properties": { "内容": "松山福音寺ケアセンターそよ風【短期入所生活介護】愛媛県松山市福音寺町31番地1", "url": "https://www.kaigokensaku.mhlw.go.jp/38/index.php?action_kouhyou_detail_004_kani=true&JigyosyoCd=3870113010-00&ServiceCd=210&Type=search", "url2": "https://www.sykz.co.jp" }, "geometry": { "type": "Point", "coordinates": [ 132.793795087597601, 33.819766881298854 ] } },
{ "type": "Feature", "properties": { "内容": "ショートステイ　すぼき【短期入所生活介護】愛媛県松山市苞木甲２００番地", "url": "https://www.kaigokensaku.mhlw.go.jp/38/index.php?action_kouhyou_detail_004_kani=true&JigyosyoCd=3870108853-00&ServiceCd=210&Type=search", "url2": "http://www.taitofukushikai.jp/" }, "geometry": { "type": "Point", "coordinates": [ 132.776047592095921, 33.941168395382121 ] } },
{ "type": "Feature", "properties": { "内容": "ショートステイ廣寿苑【短期入所生活介護】愛媛県今治市高橋甲1142-1廣寿苑", "url": "https://www.kaigokensaku.mhlw.go.jp/38/index.php?action_kouhyou_detail_004_kani=true&JigyosyoCd=3870202219-00&ServiceCd=210&Type=search", "url2": null }, "geometry": { "type": "Point", "coordinates": [ 132.993098539497652, 34.067887597622317 ] } },
{ "type": "Feature", "properties": { "内容": "シルバーハウス吹揚【短期入所生活介護】愛媛県今治市黄金町3丁目2番地6", "url": "https://www.kaigokensaku.mhlw.go.jp/38/index.php?action_kouhyou_detail_004_kani=true&JigyosyoCd=3870200247-00&ServiceCd=210&Type=search", "url2": "http://www.yuyukaifukiage.com/" }, "geometry": { "type": "Point", "coordinates": [ 133.004784, 34.0629988 ] } },
{ "type": "Feature", "properties": { "内容": "ショートステイみどりの郷【短期入所生活介護】愛媛県今治市上徳甲１１０番地１", "url": "https://www.kaigokensaku.mhlw.go.jp/38/index.php?action_kouhyou_detail_004_kani=true&JigyosyoCd=3870200254-00&ServiceCd=210&Type=search", "url2": "https://www.kiharabyouin.jp/midori/" }, "geometry": { "type": "Point", "coordinates": [ 133.020469848787684, 34.03733868364283 ] } },
{ "type": "Feature", "properties": { "内容": "短期入所生活介護事業所唐子荘【短期入所生活介護】愛媛県今治市旦甲472番地1", "url": "https://www.kaigokensaku.mhlw.go.jp/38/index.php?action_kouhyou_detail_004_kani=true&JigyosyoCd=3870200270-00&ServiceCd=210&Type=search", "url2": "http://imabari-shisetsukyo.or.jp" }, "geometry": { "type": "Point", "coordinates": [ 133.029856776751672, 34.015882027036113 ] } },
{ "type": "Feature", "properties": { "内容": "今治なごみ苑【短期入所生活介護】愛媛県今治市別名251番地", "url": "https://www.kaigokensaku.mhlw.go.jp/38/index.php?action_kouhyou_detail_004_kani=true&JigyosyoCd=3870200684-00&ServiceCd=210&Type=search", "url2": "http://www.islands.ne.jp/nagomi/" }, "geometry": { "type": "Point", "coordinates": [ 132.975458600000024, 34.0419588 ] } },
{ "type": "Feature", "properties": { "内容": "短期入所生活介護事業所　かのこ【短期入所生活介護】愛媛県今治市宮ヶ崎甲700番地1", "url": "https://www.kaigokensaku.mhlw.go.jp/38/index.php?action_kouhyou_detail_004_kani=true&JigyosyoCd=3870202151-00&ServiceCd=210&Type=search", "url2": "http://www.kurushimakai.jp" }, "geometry": { "type": "Point", "coordinates": [ 133.006548841880772, 34.015978916406503 ] } },
{ "type": "Feature", "properties": { "内容": "指定短期入所生活介護事業所瑞鶴荘【短期入所生活介護】愛媛県今治市玉川町畑寺甲15-1", "url": "https://www.kaigokensaku.mhlw.go.jp/38/index.php?action_kouhyou_detail_004_kani=true&JigyosyoCd=3873200491-00&ServiceCd=210&Type=search", "url2": "http://www.toujukai.jp/" }, "geometry": { "type": "Point", "coordinates": [ 132.949238, 34.0033571 ] } },
{ "type": "Feature", "properties": { "内容": "指定短期入所生活介護事業所菊仙荘【短期入所生活介護】愛媛県今治市菊間町種3560番地5", "url": "https://www.kaigokensaku.mhlw.go.jp/38/index.php?action_kouhyou_detail_004_kani=true&JigyosyoCd=3873200541-00&ServiceCd=210&Type=search", "url2": "http://www.kazahaya-k.org/" }, "geometry": { "type": "Point", "coordinates": [ 132.865896900000052, 34.0485478 ] } },
{ "type": "Feature", "properties": { "内容": "短期入所生活介護事業所はかた寿園【短期入所生活介護】愛媛県今治市伯方町木浦甲3930番地3", "url": "https://www.kaigokensaku.mhlw.go.jp/38/index.php?action_kouhyou_detail_004_kani=true&JigyosyoCd=3873200608-00&ServiceCd=210&Type=search", "url2": "http://www.hk-kotobuki.com" }, "geometry": { "type": "Point", "coordinates": [ 133.112983886894227, 34.211487605423578 ] } },
{ "type": "Feature", "properties": { "内容": "リーフガーデンあさくら【短期入所生活介護】愛媛県今治市朝倉下乙102番地2", "url": "https://www.kaigokensaku.mhlw.go.jp/38/index.php?action_kouhyou_detail_004_kani=true&JigyosyoCd=3873200681-00&ServiceCd=210&Type=search", "url2": "http://www.hirose-youseikai.org/" }, "geometry": { "type": "Point", "coordinates": [ 133.005594100000053, 34.0010146 ] } },
{ "type": "Feature", "properties": { "内容": "短期入所生活介護事業所多々羅の里【短期入所生活介護】愛媛県今治市上浦町井口3865番地1", "url": "https://www.kaigokensaku.mhlw.go.jp/38/index.php?action_kouhyou_detail_004_kani=true&JigyosyoCd=3873200723-00&ServiceCd=210&Type=search", "url2": "http://www.tataranosato.jp/" }, "geometry": { "type": "Point", "coordinates": [ 133.0335907, 34.2675296 ] } },
{ "type": "Feature", "properties": { "内容": "短期入所生活介護　幸風園【短期入所生活介護】愛媛県今治市大西町紺原甲290番地1", "url": "https://www.kaigokensaku.mhlw.go.jp/38/index.php?action_kouhyou_detail_004_kani=true&JigyosyoCd=3873200814-00&ServiceCd=210&Type=search", "url2": "http://kouhukai.com" }, "geometry": { "type": "Point", "coordinates": [ 132.937963500000023, 34.0678222 ] } },
{ "type": "Feature", "properties": { "内容": "阿育苑【短期入所生活介護】愛媛県今治市吉海町仁江262番地1", "url": "https://www.kaigokensaku.mhlw.go.jp/38/index.php?action_kouhyou_detail_004_kani=true&JigyosyoCd=3873200483-00&ServiceCd=210&Type=search", "url2": "http://asyokaen.jp/" }, "geometry": { "type": "Point", "coordinates": [ 133.053910299999984, 34.1511437 ] } },
{ "type": "Feature", "properties": { "内容": "指定短期入所生活介護寿山苑【短期入所生活介護】愛媛県今治市波方町養老甲1006番地", "url": "https://www.kaigokensaku.mhlw.go.jp/38/index.php?action_kouhyou_detail_004_kani=true&JigyosyoCd=3873200475-00&ServiceCd=210&Type=search", "url2": "http://www.jyuzanen.com/" }, "geometry": { "type": "Point", "coordinates": [ 132.946664599999963, 34.1074471 ] } },
{ "type": "Feature", "properties": { "内容": "ショートステイいづみ【短期入所生活介護】愛媛県宇和島市泉町1丁目1番40号", "url": "https://www.kaigokensaku.mhlw.go.jp/38/index.php?action_kouhyou_detail_004_kani=true&JigyosyoCd=3870301425-00&ServiceCd=210&Type=search", "url2": "http://jurakukai.jp/facility-info/izumi" }, "geometry": { "type": "Point", "coordinates": [ 132.571784200000025, 33.2327978 ] } },
{ "type": "Feature", "properties": { "内容": "老人短期入所施設光来園【短期入所生活介護】愛媛県宇和島市保田甲806番地", "url": "https://www.kaigokensaku.mhlw.go.jp/38/index.php?action_kouhyou_detail_004_kani=true&JigyosyoCd=3870300278-00&ServiceCd=210&Type=search", "url2": "https://www.nanpu.or.jp/" }, "geometry": { "type": "Point", "coordinates": [ 132.545923, 33.1908461 ] } },
{ "type": "Feature", "properties": { "内容": "短期入所施設　あさひ苑【短期入所生活介護】愛媛県宇和島市三浦西4979", "url": "https://www.kaigokensaku.mhlw.go.jp/38/index.php?action_kouhyou_detail_004_kani=true&JigyosyoCd=3870301045-00&ServiceCd=210&Type=search", "url2": "http://wwwd.pikara.ne.jp/uwajima-asahien/" }, "geometry": { "type": "Point", "coordinates": [ 132.503451139811659, 33.168091927423205 ] } },
{ "type": "Feature", "properties": { "内容": "ショートステイ事業所祝の郷【短期入所生活介護】愛媛県宇和島市祝森甲２４０７番地特別養護老人ホーム祝の郷", "url": "https://www.kaigokensaku.mhlw.go.jp/38/index.php?action_kouhyou_detail_004_kani=true&JigyosyoCd=3870301862-00&ServiceCd=210&Type=search", "url2": "http://iwainosato2605.wix.com/iwainosato" }, "geometry": { "type": "Point", "coordinates": [ 132.557330971238713, 33.173825236807929 ] } },
{ "type": "Feature", "properties": { "内容": "ショートステイ番城【短期入所生活介護】愛媛県宇和島市宮下甲143番地5", "url": "https://www.kaigokensaku.mhlw.go.jp/38/index.php?action_kouhyou_detail_004_kani=true&JigyosyoCd=3870302233-00&ServiceCd=210&Type=search", "url2": "http://jurakukai.jp/facility-info/banjo" }, "geometry": { "type": "Point", "coordinates": [ 132.551787916144235, 33.19957771815767 ] } },
{ "type": "Feature", "properties": { "内容": "指定短期入所生活介護事業所　白浦茜荘【短期入所生活介護】愛媛県宇和島市吉田町白浦3番地2", "url": "https://www.kaigokensaku.mhlw.go.jp/38/index.php?action_kouhyou_detail_004_kani=true&JigyosyoCd=3873900322-00&ServiceCd=210&Type=search", "url2": "akanesou@mf.pikara.ne.jp" }, "geometry": { "type": "Point", "coordinates": [ 132.527081400000043, 33.3126467 ] } },
{ "type": "Feature", "properties": { "内容": "短期入所施設サンランド【短期入所生活介護】愛媛県宇和島市吉田町立間尻甲727番地1", "url": "https://www.kaigokensaku.mhlw.go.jp/38/index.php?action_kouhyou_detail_004_kani=true&JigyosyoCd=3873900462-00&ServiceCd=210&Type=search", "url2": "http//www.sanland.or.jp" }, "geometry": { "type": "Point", "coordinates": [ 132.545749518446314, 33.272625413149207 ] } },
{ "type": "Feature", "properties": { "内容": "ショートステイ　笑歩会　和霊【短期入所生活介護】愛媛県宇和島市和霊中町２丁目3-17", "url": "https://www.kaigokensaku.mhlw.go.jp/38/index.php?action_kouhyou_detail_004_kani=true&JigyosyoCd=3870302084-00&ServiceCd=210&Type=search", "url2": "http://shouhokai.jp/" }, "geometry": { "type": "Point", "coordinates": [ 132.56914, 33.2292676 ] } },
{ "type": "Feature", "properties": { "内容": "老人短期入所施設美沼荘【短期入所生活介護】愛媛県宇和島市三間町宮野下129番地", "url": "https://www.kaigokensaku.mhlw.go.jp/38/index.php?action_kouhyou_detail_004_kani=true&JigyosyoCd=3873900207-00&ServiceCd=210&Type=search", "url2": null }, "geometry": { "type": "Point", "coordinates": [ 132.61115940000002, 33.2995277 ] } },
{ "type": "Feature", "properties": { "内容": "老人短期入所施設湯乃香荘【短期入所生活介護】愛媛県宇和島市津島町山財5861番地", "url": "https://www.kaigokensaku.mhlw.go.jp/38/index.php?action_kouhyou_detail_004_kani=true&JigyosyoCd=3873900736-00&ServiceCd=210&Type=search", "url2": null }, "geometry": { "type": "Point", "coordinates": [ 132.575413700000013, 33.1068487 ] } },
{ "type": "Feature", "properties": { "内容": "ショートスティ　コンフォート松柏【短期入所生活介護】愛媛県八幡浜市松柏丙１３２", "url": "https://www.kaigokensaku.mhlw.go.jp/38/index.php?action_kouhyou_detail_004_kani=true&JigyosyoCd=3870400995-00&ServiceCd=210&Type=search", "url2": "http://kouseikai.kujira.biz/" }, "geometry": { "type": "Point", "coordinates": [ 132.446898, 33.46409 ] } },
{ "type": "Feature", "properties": { "内容": "特別養護老人ホームことぶき荘【短期入所生活介護】愛媛県八幡浜市向灘229番地18", "url": "https://www.kaigokensaku.mhlw.go.jp/38/index.php?action_kouhyou_detail_004_kani=true&JigyosyoCd=3870400185-00&ServiceCd=210&Type=search", "url2": "http://tokuyou-kotobuki.or.jp/" }, "geometry": { "type": "Point", "coordinates": [ 132.424597100000028, 33.4663947 ] } },
{ "type": "Feature", "properties": { "内容": "地域密着型小規模特別養護老人ホーム　　コンフォート神山【短期入所生活介護】愛媛県八幡浜市五反田１番耕地７６番地３", "url": "https://www.kaigokensaku.mhlw.go.jp/38/index.php?action_kouhyou_detail_004_kani=true&JigyosyoCd=3870400813-00&ServiceCd=210&Type=search", "url2": "http://kouseikai.kujira/biz/" }, "geometry": { "type": "Point", "coordinates": [ 132.43575157928467, 33.448777974978405 ] } },
{ "type": "Feature", "properties": { "内容": "おるde新町短期入所生活介護事業所【短期入所生活介護】愛媛県八幡浜市新町三丁目272番地1", "url": "https://www.kaigokensaku.mhlw.go.jp/38/index.php?action_kouhyou_detail_004_kani=true&JigyosyoCd=3870400888-00&ServiceCd=210&Type=search", "url2": "http://www.orude.jp/" }, "geometry": { "type": "Point", "coordinates": [ 132.424075099999953, 33.4615703 ] } },
{ "type": "Feature", "properties": { "内容": "豊園荘【短期入所生活介護】愛媛県新居浜市船木甲2216番地の29", "url": "https://www.kaigokensaku.mhlw.go.jp/38/index.php?action_kouhyou_detail_004_kani=true&JigyosyoCd=3870500083-00&ServiceCd=210&Type=search", "url2": "http://www.hapinesu.com/" }, "geometry": { "type": "Point", "coordinates": [ 133.329006700000036, 33.9393813 ] } },
{ "type": "Feature", "properties": { "内容": "さわやか新居浜館ショートステイ【短期入所生活介護】新居浜市東田３丁目乙１１－７７", "url": "https://www.kaigokensaku.mhlw.go.jp/38/index.php?action_kouhyou_detail_004_kani=true&JigyosyoCd=3870502329-00&ServiceCd=210&Type=search", "url2": "http://www.sawayakaclub.jp" }, "geometry": { "type": "Point", "coordinates": [ 133.321029800000019, 33.9445501 ] } },
{ "type": "Feature", "properties": { "内容": "短期入所生活介護事業所きぼうの苑【短期入所生活介護】愛媛県新居浜市西の土居町二丁目８番１２号", "url": "https://www.kaigokensaku.mhlw.go.jp/38/index.php?action_kouhyou_detail_004_kani=true&JigyosyoCd=3870500489-00&ServiceCd=210&Type=search", "url2": "http://www.sankeikai.or.jp" }, "geometry": { "type": "Point", "coordinates": [ 133.27488470000003, 33.949421 ] } },
{ "type": "Feature", "properties": { "内容": "短期入所生活介護事業所ハートランド三恵【短期入所生活介護】愛媛県新居浜市萩生17", "url": "https://www.kaigokensaku.mhlw.go.jp/38/index.php?action_kouhyou_detail_004_kani=true&JigyosyoCd=3870500497-00&ServiceCd=210&Type=search", "url2": "http://www.heartland.sankeikai.com/" }, "geometry": { "type": "Point", "coordinates": [ 133.259788, 33.9304507 ] } },
{ "type": "Feature", "properties": { "内容": "指定短期入所生活介護事業所ふたば荘【短期入所生活介護】愛媛県新居浜市船木959-3", "url": "https://www.kaigokensaku.mhlw.go.jp/38/index.php?action_kouhyou_detail_004_kani=true&JigyosyoCd=3870500505-00&ServiceCd=210&Type=search", "url2": "https://www.futabakai.group" }, "geometry": { "type": "Point", "coordinates": [ 133.346705, 33.9348874 ] } },
{ "type": "Feature", "properties": { "内容": "アソカ園【短期入所生活介護】愛媛県新居浜市清住町1-36", "url": "https://www.kaigokensaku.mhlw.go.jp/38/index.php?action_kouhyou_detail_004_kani=true&JigyosyoCd=3870500513-00&ServiceCd=210&Type=search", "url2": "https://www.suiyoukai.jp" }, "geometry": { "type": "Point", "coordinates": [ 133.310934300000014, 33.9607426 ] } },
{ "type": "Feature", "properties": { "内容": "短期入所生活介護事業所若水館【短期入所生活介護】愛媛県新居浜市若水町一丁目9番13号", "url": "https://www.kaigokensaku.mhlw.go.jp/38/index.php?action_kouhyou_detail_004_kani=true&JigyosyoCd=3870500802-00&ServiceCd=210&Type=search", "url2": "https://www.hapinesu.com/" }, "geometry": { "type": "Point", "coordinates": [ 133.277701699999966, 33.9659138 ] } },
{ "type": "Feature", "properties": { "内容": "短期入所生活介護事業所　おくらの里【短期入所生活介護】愛媛県新居浜市御蔵町11番23号", "url": "https://www.kaigokensaku.mhlw.go.jp/38/index.php?action_kouhyou_detail_004_kani=true&JigyosyoCd=3870500877-00&ServiceCd=210&Type=search", "url2": "http://www.okuranosato.com/" }, "geometry": { "type": "Point", "coordinates": [ 133.285511400000019, 33.9165802 ] } },
{ "type": "Feature", "properties": { "内容": "短期入所生活介護事業所シニアリビング八雲ガーデン【短期入所生活介護】愛媛県新居浜市八雲町８番２４号", "url": "https://www.kaigokensaku.mhlw.go.jp/38/index.php?action_kouhyou_detail_004_kani=true&JigyosyoCd=3870501826-00&ServiceCd=210&Type=search", "url2": "http://www.hapinesu.com/" }, "geometry": { "type": "Point", "coordinates": [ 133.289336899999967, 33.961009 ] } },
{ "type": "Feature", "properties": { "内容": "ベストケア・ショートステイひうち【短期入所生活介護】愛媛県新居浜市泉池町１１番１１号", "url": "https://www.kaigokensaku.mhlw.go.jp/38/index.php?action_kouhyou_detail_004_kani=true&JigyosyoCd=3870502030-00&ServiceCd=210&Type=search", "url2": "http://www.best-care.jp" }, "geometry": { "type": "Point", "coordinates": [ 133.274015800000029, 33.966422 ] } },
{ "type": "Feature", "properties": { "内容": "指定短期入所生活介護事業所なの花【短期入所生活介護】愛媛県新居浜市郷三丁目１６番５８号", "url": "https://www.kaigokensaku.mhlw.go.jp/38/index.php?action_kouhyou_detail_004_kani=true&JigyosyoCd=3870502139-00&ServiceCd=210&Type=search", "url2": "http://www.asokaen.jp/" }, "geometry": { "type": "Point", "coordinates": [ 133.309537299999988, 33.9617785 ] } },
{ "type": "Feature", "properties": { "内容": "ショートステイふたばの森【短期入所生活介護】愛媛県新居浜市船木3101-1", "url": "https://www.kaigokensaku.mhlw.go.jp/38/index.php?action_kouhyou_detail_004_kani=true&JigyosyoCd=3870502162-00&ServiceCd=210&Type=search", "url2": "http://ww9.tiki.ne.jp/~futaba/" }, "geometry": { "type": "Point", "coordinates": [ 133.333547900000013, 33.9335847 ] } },
{ "type": "Feature", "properties": { "内容": "ユニット型短期入所生活介護事業所うみかぜ【短期入所生活介護】愛媛県新居浜市阿島1丁目7-20", "url": "https://www.kaigokensaku.mhlw.go.jp/38/index.php?action_kouhyou_detail_004_kani=true&JigyosyoCd=3870502246-00&ServiceCd=210&Type=search", "url2": "http://megumi.sankeikai.com" }, "geometry": { "type": "Point", "coordinates": [ 133.353732199999968, 33.9789846 ] } },
{ "type": "Feature", "properties": { "内容": "短期入所生活介護事業所　広瀬の里【短期入所生活介護】愛媛県新居浜市御蔵町11番20号", "url": "https://www.kaigokensaku.mhlw.go.jp/38/index.php?action_kouhyou_detail_004_kani=true&JigyosyoCd=3870502253-00&ServiceCd=210&Type=search", "url2": "http://www.okuranosato.com" }, "geometry": { "type": "Point", "coordinates": [ 133.286399452778653, 33.916777140513986 ] } },
{ "type": "Feature", "properties": { "内容": "短期入所生活介護事業所　ハートランド三恵南館【短期入所生活介護】愛媛県新居浜市萩生１７番地", "url": "https://www.kaigokensaku.mhlw.go.jp/38/index.php?action_kouhyou_detail_004_kani=true&JigyosyoCd=3870502741-00&ServiceCd=210&Type=search", "url2": "http://www.heartland.sankeikai.com/" }, "geometry": { "type": "Point", "coordinates": [ 133.259957, 33.9303842 ] } },
{ "type": "Feature", "properties": { "内容": "特別養護老人ホーム　福武荘【短期入所生活介護】愛媛県西条市飯岡３４０２番地", "url": "https://www.kaigokensaku.mhlw.go.jp/38/index.php?action_kouhyou_detail_004_kani=true&JigyosyoCd=3870600271-00&ServiceCd=210&Type=search", "url2": "http://www.saijo-kaiseikai.jp/" }, "geometry": { "type": "Point", "coordinates": [ 133.210247900000013, 33.9113566 ] } },
{ "type": "Feature", "properties": { "内容": "指定短期入所生活介護事業所　光風館【短期入所生活介護】愛媛県西条市氷見字上寺丙１９５番地", "url": "https://www.kaigokensaku.mhlw.go.jp/38/index.php?action_kouhyou_detail_004_kani=true&JigyosyoCd=3870600263-00&ServiceCd=210&Type=search", "url2": "http://saijo-seifuukai.or.jp/facilities/tokuyou-koufuukan/" }, "geometry": { "type": "Point", "coordinates": [ 133.181169700000027, 33.9195105 ] } },
{ "type": "Feature", "properties": { "内容": "短期入所生活介護事業所　ル・ソレイユ【短期入所生活介護】愛媛県西条市丹原町今井457番地1", "url": "https://www.kaigokensaku.mhlw.go.jp/38/index.php?action_kouhyou_detail_004_kani=true&JigyosyoCd=3870600826-00&ServiceCd=210&Type=search", "url2": "http://www.le-soleil.or.jp/" }, "geometry": { "type": "Point", "coordinates": [ 133.060478, 33.9014734 ] } },
{ "type": "Feature", "properties": { "内容": "指定短期入所生活介護事業所　道前荘【短期入所生活介護】愛媛県西条市小松町大頭甲1085番地1", "url": "https://www.kaigokensaku.mhlw.go.jp/38/index.php?action_kouhyou_detail_004_kani=true&JigyosyoCd=3870601147-00&ServiceCd=210&Type=search", "url2": "http://saijo-seifuukai.or.jp/facilities/tokuyou-douzensou/short-stay/" }, "geometry": { "type": "Point", "coordinates": [ 133.0750243, 33.8811507 ] } },
{ "type": "Feature", "properties": { "内容": "ショートステイついたちの里【短期入所生活介護】愛媛県西条市朔日市892番地25", "url": "https://www.kaigokensaku.mhlw.go.jp/38/index.php?action_kouhyou_detail_004_kani=true&JigyosyoCd=3870601154-00&ServiceCd=210&Type=search", "url2": "http://www.tsuitachi-no-sato.com" }, "geometry": { "type": "Point", "coordinates": [ 133.177675499999964, 33.9304178 ] } },
{ "type": "Feature", "properties": { "内容": "指定短期入所生活介護事業所　大師苑【短期入所生活介護】愛媛県西条市大師町182番地2", "url": "https://www.kaigokensaku.mhlw.go.jp/38/index.php?action_kouhyou_detail_004_kani=true&JigyosyoCd=3870601188-00&ServiceCd=210&Type=search", "url2": "http://kitenkai.or.jp" }, "geometry": { "type": "Point", "coordinates": [ 133.182591799999955, 33.9213882 ] } },
{ "type": "Feature", "properties": { "内容": "ショートステイたらちね【短期入所生活介護】愛媛県西条市三津屋南9番10", "url": "https://www.kaigokensaku.mhlw.go.jp/38/index.php?action_kouhyou_detail_004_kani=true&JigyosyoCd=3870601253-00&ServiceCd=210&Type=search", "url2": "http:www.koujin.net/" }, "geometry": { "type": "Point", "coordinates": [ 133.089106872352602, 33.931697554713466 ] } },
{ "type": "Feature", "properties": { "内容": "せせらぎ短期入所生活介護事業所【短期入所生活介護】愛媛県西条市大町776番地23", "url": "https://www.kaigokensaku.mhlw.go.jp/38/index.php?action_kouhyou_detail_004_kani=true&JigyosyoCd=3870601287-00&ServiceCd=210&Type=search", "url2": null }, "geometry": { "type": "Point", "coordinates": [ 133.1894231, 33.9143537 ] } },
{ "type": "Feature", "properties": { "内容": "済生会西条短期入所事業所【短期入所生活介護】愛媛県西条市新田109番地1", "url": "https://www.kaigokensaku.mhlw.go.jp/38/index.php?action_kouhyou_detail_004_kani=true&JigyosyoCd=3870601485-00&ServiceCd=210&Type=search", "url2": "http:/www.saiseikaisaijo.jp/" }, "geometry": { "type": "Point", "coordinates": [ 133.192700244380148, 33.928735346497376 ] } },
{ "type": "Feature", "properties": { "内容": "指定短期入所生活介護事業所　亀天荘【短期入所生活介護】西条市大野１９０番地１", "url": "https://www.kaigokensaku.mhlw.go.jp/38/index.php?action_kouhyou_detail_004_kani=true&JigyosyoCd=3871200071-00&ServiceCd=210&Type=search", "url2": "http://kitenkai.or.jp/" }, "geometry": { "type": "Point", "coordinates": [ 133.049846500000058, 33.9463514 ] } },
{ "type": "Feature", "properties": { "内容": "指定短期入所生活介護事業所なごみ【短期入所生活介護】愛媛県西条市周布326番地", "url": "https://www.kaigokensaku.mhlw.go.jp/38/index.php?action_kouhyou_detail_004_kani=true&JigyosyoCd=3871200253-00&ServiceCd=210&Type=search", "url2": "www.nagomi2012.com" }, "geometry": { "type": "Point", "coordinates": [ 133.088164399999982, 33.9259575 ] } },
{ "type": "Feature", "properties": { "内容": "複合型介護施設キネマショートステイ【短期入所生活介護】愛媛県大洲市新谷乙５７３番地１", "url": "https://www.kaigokensaku.mhlw.go.jp/38/index.php?action_kouhyou_detail_004_kani=true&JigyosyoCd=3870700824-00&ServiceCd=210&Type=search", "url2": null }, "geometry": { "type": "Point", "coordinates": [ 132.592042600000013, 33.5346086 ] } },
{ "type": "Feature", "properties": { "内容": "指定短期入所生活介護事業所希望ヶ丘荘【短期入所生活介護】愛媛県大洲市菅田町菅田丙495番地34", "url": "https://www.kaigokensaku.mhlw.go.jp/38/index.php?action_kouhyou_detail_004_kani=true&JigyosyoCd=3870700162-00&ServiceCd=210&Type=search", "url2": "https://kibougaokasou.jp/" }, "geometry": { "type": "Point", "coordinates": [ 132.573417400000039, 33.5121937 ] } },
{ "type": "Feature", "properties": { "内容": "株式会社　悠遊社　大洲事業所【短期入所生活介護】愛媛県大洲市田口甲１８９５番地２ゆうゆう大洲", "url": "https://www.kaigokensaku.mhlw.go.jp/38/index.php?action_kouhyou_detail_004_kani=true&JigyosyoCd=3870700741-00&ServiceCd=210&Type=search", "url2": null }, "geometry": { "type": "Point", "coordinates": [ 132.563504064941412, 33.517631673667914 ] } },
{ "type": "Feature", "properties": { "内容": "短期入所生活介護事業所希望ヶ丘荘アネックス【短期入所生活介護】愛媛県大洲市菅田町菅田丙495番地34", "url": "https://www.kaigokensaku.mhlw.go.jp/38/index.php?action_kouhyou_detail_004_kani=true&JigyosyoCd=3870700766-00&ServiceCd=210&Type=search", "url2": "http://kibougaokasou.jp/" }, "geometry": { "type": "Point", "coordinates": [ 132.573269900000014, 33.5122926 ] } },
{ "type": "Feature", "properties": { "内容": "清祥会ひまわり【短期入所生活介護】愛媛県大洲市柴甲595番地１", "url": "https://www.kaigokensaku.mhlw.go.jp/38/index.php?action_kouhyou_detail_004_kani=true&JigyosyoCd=3870700857-00&ServiceCd=210&Type=search", "url2": "seishoukai-himawari.com/index.html" }, "geometry": { "type": "Point", "coordinates": [ 132.526121694750941, 33.570739240054088 ] } },
{ "type": "Feature", "properties": { "内容": "地域密着型特別養護老人ホームぎおん【短期入所生活介護】愛媛県大洲市八多喜町甲１００番地", "url": "https://www.kaigokensaku.mhlw.go.jp/38/index.php?action_kouhyou_detail_004_kani=true&JigyosyoCd=3870700949-00&ServiceCd=210&Type=search", "url2": "http://www.ecomnet.or.jp/~ohzuhome" }, "geometry": { "type": "Point", "coordinates": [ 132.5419738, 33.5629024 ] } },
{ "type": "Feature", "properties": { "内容": "地域密着型特別養護老人ホームぎおん【短期入所生活介護】愛媛県大洲市八多喜町甲１００番地", "url": "https://www.kaigokensaku.mhlw.go.jp/38/index.php?action_kouhyou_detail_004_kani=true&JigyosyoCd=3870700956-00&ServiceCd=210&Type=search", "url2": "https://www.ecomnet.or.jp/~ohzuhome/" }, "geometry": { "type": "Point", "coordinates": [ 132.5419738, 33.5629024 ] } },
{ "type": "Feature", "properties": { "内容": "特別養護老人ホームかわかみ荘【短期入所生活介護】愛媛県大洲市肱川町山鳥坂2800番地", "url": "https://www.kaigokensaku.mhlw.go.jp/38/index.php?action_kouhyou_detail_004_kani=true&JigyosyoCd=3873600146-00&ServiceCd=210&Type=search", "url2": "https://kawakamisou.com/" }, "geometry": { "type": "Point", "coordinates": [ 132.711754499999984, 33.4785675 ] } },
{ "type": "Feature", "properties": { "内容": "指定介護老人福祉施設特別養護老人ホームとみす寮【短期入所生活介護】愛媛県大洲市大洲810番地1", "url": "https://www.kaigokensaku.mhlw.go.jp/38/index.php?action_kouhyou_detail_004_kani=true&JigyosyoCd=3870700188-00&ServiceCd=210&Type=search", "url2": "https://tomisuryou.com/" }, "geometry": { "type": "Point", "coordinates": [ 132.5382535, 33.5100013 ] } },
{ "type": "Feature", "properties": { "内容": "ショートステイふだかけの里【短期入所生活介護】愛媛県大洲市野佐来479番地", "url": "https://www.kaigokensaku.mhlw.go.jp/38/index.php?action_kouhyou_detail_004_kani=true&JigyosyoCd=3870700873-00&ServiceCd=210&Type=search", "url2": "https://fudakakenosato.wixsite.com/fudakake" }, "geometry": { "type": "Point", "coordinates": [ 132.545399996609973, 33.468142657452823 ] } },
{ "type": "Feature", "properties": { "内容": "介護老人福祉施設伊予あいじゅ【短期入所生活介護】愛媛県伊予市下吾川字北西原1781番地1", "url": "https://www.kaigokensaku.mhlw.go.jp/38/index.php?action_kouhyou_detail_004_kani=true&JigyosyoCd=3871000133-00&ServiceCd=210&Type=search", "url2": "http://www.aijukai-group.com/" }, "geometry": { "type": "Point", "coordinates": [ 132.70017387842401, 33.772169621871861 ] } },
{ "type": "Feature", "properties": { "内容": "ショートステイ森の園【短期入所生活介護】愛媛県伊予市森甲440-1", "url": "https://www.kaigokensaku.mhlw.go.jp/38/index.php?action_kouhyou_detail_004_kani=true&JigyosyoCd=3871000273-00&ServiceCd=210&Type=search", "url2": "http://morinosono.sakura.ne.jp" }, "geometry": { "type": "Point", "coordinates": [ 132.688389596005209, 33.739093373404614 ] } },
{ "type": "Feature", "properties": { "内容": "指定短期入所生活介護事業所　なかやま幸梅園【短期入所生活介護】愛媛県伊予市中山町中山寅381番地", "url": "https://www.kaigokensaku.mhlw.go.jp/38/index.php?action_kouhyou_detail_004_kani=true&JigyosyoCd=3873500296-00&ServiceCd=210&Type=search", "url2": "http://www.koubaien-b.jp/" }, "geometry": { "type": "Point", "coordinates": [ 132.706624599999941, 33.6386598 ] } },
{ "type": "Feature", "properties": { "内容": "双海夕なぎ荘【短期入所生活介護】愛媛県伊予市双海町上灘甲5269番地1", "url": "https://www.kaigokensaku.mhlw.go.jp/38/index.php?action_kouhyou_detail_004_kani=true&JigyosyoCd=3873500288-00&ServiceCd=210&Type=search", "url2": "https://yunagisou.com/" }, "geometry": { "type": "Point", "coordinates": [ 132.649593523895334, 33.685121500287117 ] } },
{ "type": "Feature", "properties": { "内容": "ショートステイだんだん【短期入所生活介護】愛媛県四国中央市川之江町701-4", "url": "https://www.kaigokensaku.mhlw.go.jp/38/index.php?action_kouhyou_detail_004_kani=true&JigyosyoCd=3871301341-00&ServiceCd=210&Type=search", "url2": null }, "geometry": { "type": "Point", "coordinates": [ 133.577512899999988, 34.0163191 ] } },
{ "type": "Feature", "properties": { "内容": "短期入所生活介護　川之江荘【短期入所生活介護】愛媛県四国中央市川之江町長須713番地", "url": "https://www.kaigokensaku.mhlw.go.jp/38/index.php?action_kouhyou_detail_004_kani=true&JigyosyoCd=3870800160-00&ServiceCd=210&Type=search", "url2": "http://care-net.biz/38/kawanoesou/" }, "geometry": { "type": "Point", "coordinates": [ 133.586708, 34.0305898 ] } },
{ "type": "Feature", "properties": { "内容": "樋谷荘【短期入所生活介護】愛媛県四国中央市上分町乙8-2", "url": "https://www.kaigokensaku.mhlw.go.jp/38/index.php?action_kouhyou_detail_004_kani=true&JigyosyoCd=3870800178-00&ServiceCd=210&Type=search", "url2": "https://www.aibikai.jp/" }, "geometry": { "type": "Point", "coordinates": [ 133.587130300000013, 33.9803829 ] } },
{ "type": "Feature", "properties": { "内容": "ショートステイしあわせの家【短期入所生活介護】愛媛県四国中央市豊岡町大町2786番地2", "url": "https://www.kaigokensaku.mhlw.go.jp/38/index.php?action_kouhyou_detail_004_kani=true&JigyosyoCd=3870900291-00&ServiceCd=210&Type=search", "url2": "http://shiawasenoie.jp/" }, "geometry": { "type": "Point", "coordinates": [ 133.487218200000029, 33.9701695 ] } },
{ "type": "Feature", "properties": { "内容": "ショートステイそよ風の家【短期入所生活介護】愛媛県四国中央市金生町下分１３３０番地陽だまり4階", "url": "https://www.kaigokensaku.mhlw.go.jp/38/index.php?action_kouhyou_detail_004_kani=true&JigyosyoCd=3871300558-00&ServiceCd=210&Type=search", "url2": null }, "geometry": { "type": "Point", "coordinates": [ 133.5803056, 33.9996883 ] } },
{ "type": "Feature", "properties": { "内容": "短期入所生活介護くりのみ土居【短期入所生活介護】愛媛県四国中央市土居町津根3008番地1", "url": "https://www.kaigokensaku.mhlw.go.jp/38/index.php?action_kouhyou_detail_004_kani=true&JigyosyoCd=3871300582-00&ServiceCd=210&Type=search", "url2": null }, "geometry": { "type": "Point", "coordinates": [ 133.45356860000004, 33.9663965 ] } },
{ "type": "Feature", "properties": { "内容": "短期入所生活介護事業所　山田井の郷【短期入所生活介護】愛媛県四国中央市金生町山田井８８７番地２", "url": "https://www.kaigokensaku.mhlw.go.jp/38/index.php?action_kouhyou_detail_004_kani=true&JigyosyoCd=3871300608-00&ServiceCd=210&Type=search", "url2": "http://www.aibikai.jp/" }, "geometry": { "type": "Point", "coordinates": [ 133.5949898, 34.0103089 ] } },
{ "type": "Feature", "properties": { "内容": "短期入所生活介護くりのみ２【短期入所生活介護】愛媛県四国中央市中之庄町４０２番地１くりのみ２", "url": "https://www.kaigokensaku.mhlw.go.jp/38/index.php?action_kouhyou_detail_004_kani=true&JigyosyoCd=3871300814-00&ServiceCd=210&Type=search", "url2": null }, "geometry": { "type": "Point", "coordinates": [ 133.532498700000019, 33.9763246 ] } },
{ "type": "Feature", "properties": { "内容": "短期入所生活介護事業所　三島の杜【短期入所生活介護】愛媛県四国中央市上柏町202番地1", "url": "https://www.kaigokensaku.mhlw.go.jp/38/index.php?action_kouhyou_detail_004_kani=true&JigyosyoCd=3871300897-00&ServiceCd=210&Type=search", "url2": "http://www.aibikai.jp/" }, "geometry": { "type": "Point", "coordinates": [ 133.5588553, 33.9803912 ] } },
{ "type": "Feature", "properties": { "内容": "ショートステイ四つ葉【短期入所生活介護】愛媛県四国中央市川之江町700-1", "url": "https://www.kaigokensaku.mhlw.go.jp/38/index.php?action_kouhyou_detail_004_kani=true&JigyosyoCd=3871300970-00&ServiceCd=210&Type=search", "url2": "https://yotuba-soudan.jimdofree.com" }, "geometry": { "type": "Point", "coordinates": [ 133.567963883735274, 34.006617926932414 ] } },
{ "type": "Feature", "properties": { "内容": "短期入所生活介護事業所　豊寿園【短期入所生活介護】愛媛県四国中央市土居町津根2639番地", "url": "https://www.kaigokensaku.mhlw.go.jp/38/index.php?action_kouhyou_detail_004_kani=true&JigyosyoCd=3871301010-00&ServiceCd=210&Type=search", "url2": "https://www.aibikai.jp" }, "geometry": { "type": "Point", "coordinates": [ 133.458132, 33.9671271 ] } },
{ "type": "Feature", "properties": { "内容": "短期入所生活介護事業所萬翠荘【短期入所生活介護】中之庄町542", "url": "https://www.kaigokensaku.mhlw.go.jp/38/index.php?action_kouhyou_detail_004_kani=true&JigyosyoCd=3871301226-00&ServiceCd=210&Type=search", "url2": "http://www.aibikai.jp" }, "geometry": { "type": "Point", "coordinates": [ 133.534736082803306, 33.977683031735545 ] } },
{ "type": "Feature", "properties": { "内容": "ショートステイしあわせの家寒川【短期入所生活介護】愛媛県四国中央市寒川町3677", "url": "https://www.kaigokensaku.mhlw.go.jp/38/index.php?action_kouhyou_detail_004_kani=true&JigyosyoCd=3871301390-00&ServiceCd=210&Type=search", "url2": "http://shiawasenoie.jp/" }, "geometry": { "type": "Point", "coordinates": [ 133.507799799999987, 33.9588134 ] } },
{ "type": "Feature", "properties": { "内容": "ななほし中川【短期入所生活介護】愛媛県西予市宇和町田苗真土1994番地1", "url": "https://www.kaigokensaku.mhlw.go.jp/38/index.php?action_kouhyou_detail_004_kani=true&JigyosyoCd=3881400042-00&ServiceCd=210&Type=search", "url2": "http://www.seiyofukushi.com" }, "geometry": { "type": "Point", "coordinates": [ 132.507722199999989, 33.3998042 ] } },
{ "type": "Feature", "properties": { "内容": "短期入所生活介護事業所皆楽園【短期入所生活介護】愛媛県西予市三瓶町皆江2598-1", "url": "https://www.kaigokensaku.mhlw.go.jp/38/index.php?action_kouhyou_detail_004_kani=true&JigyosyoCd=3871400382-00&ServiceCd=210&Type=search", "url2": "http://wwwa.seiyofukushi.com/" }, "geometry": { "type": "Point", "coordinates": [ 132.411467499999958, 33.348399100000016 ] } },
{ "type": "Feature", "properties": { "内容": "短期入所生活介護事業所あけはま荘【短期入所生活介護】愛媛県西予市明浜町狩浜２番耕地１１７７番地特別養護老人ホームあけはま荘", "url": "https://www.kaigokensaku.mhlw.go.jp/38/index.php?action_kouhyou_detail_004_kani=true&JigyosyoCd=3871400481-00&ServiceCd=210&Type=search", "url2": "http://www.seiyofukushi.com/" }, "geometry": { "type": "Point", "coordinates": [ 132.464617, 33.3205237 ] } },
{ "type": "Feature", "properties": { "内容": "短期入所生活介護事業所寿楽苑【短期入所生活介護】愛媛県西予市城川町魚成7026番地1", "url": "https://www.kaigokensaku.mhlw.go.jp/38/index.php?action_kouhyou_detail_004_kani=true&JigyosyoCd=3871400697-00&ServiceCd=210&Type=search", "url2": "http://noshiro-f.jp/" }, "geometry": { "type": "Point", "coordinates": [ 132.731020599999965, 33.379989 ] } },
{ "type": "Feature", "properties": { "内容": "短期入所生活介護事業所法正園【短期入所生活介護】愛媛県西予市野村町野村13-288特別養護老人ホーム法正園", "url": "https://www.kaigokensaku.mhlw.go.jp/38/index.php?action_kouhyou_detail_004_kani=true&JigyosyoCd=3873800258-00&ServiceCd=210&Type=search", "url2": "http://noshiro-f.jp/" }, "geometry": { "type": "Point", "coordinates": [ 132.639563400000043, 33.3772783 ] } },
{ "type": "Feature", "properties": { "内容": "短期入所生活介護事業所　しいのき園【短期入所生活介護】愛媛県西予市野村町野村8号467番地", "url": "https://www.kaigokensaku.mhlw.go.jp/38/index.php?action_kouhyou_detail_004_kani=true&JigyosyoCd=3873800308-00&ServiceCd=210&Type=search", "url2": "http://www.noshiro-f.jp/" }, "geometry": { "type": "Point", "coordinates": [ 132.631317299999978, 33.3678738 ] } },
{ "type": "Feature", "properties": { "内容": "短期入所生活介護事業所　松葉寮【短期入所生活介護】愛媛県西予市宇和町久枝甲1434-1", "url": "https://www.kaigokensaku.mhlw.go.jp/38/index.php?action_kouhyou_detail_004_kani=true&JigyosyoCd=3873800340-00&ServiceCd=210&Type=search", "url2": "http://www.seiyofukushi.com/" }, "geometry": { "type": "Point", "coordinates": [ 132.493416011886666, 33.365126358189897 ] } },
{ "type": "Feature", "properties": { "内容": "短期入所生活介護事業所　開明の杜【短期入所生活介護】愛媛県西予市宇和町卯之町一丁目246-6", "url": "https://www.kaigokensaku.mhlw.go.jp/38/index.php?action_kouhyou_detail_004_kani=true&JigyosyoCd=3871400804-00&ServiceCd=210&Type=search", "url2": "http://www.seiyofukushi.com/" }, "geometry": { "type": "Point", "coordinates": [ 132.509970228172278, 33.368860194270979 ] } },
{ "type": "Feature", "properties": { "内容": "ショートステイ　ガリラヤ荘【短期入所生活介護】愛媛県東温市南方１７６６番地１", "url": "https://www.kaigokensaku.mhlw.go.jp/38/index.php?action_kouhyou_detail_004_kani=true&JigyosyoCd=3871500074-00&ServiceCd=210&Type=search", "url2": "https://www.ailinen.jp/" }, "geometry": { "type": "Point", "coordinates": [ 132.897706552114869, 33.797677014492677 ] } },
{ "type": "Feature", "properties": { "内容": "短期入所生活介護事業所　ミュゲの里【短期入所生活介護】愛媛県東温市見奈良７３８番地", "url": "https://www.kaigokensaku.mhlw.go.jp/38/index.php?action_kouhyou_detail_004_kani=true&JigyosyoCd=3871500090-00&ServiceCd=210&Type=search", "url2": "ｈｔｔｐ：//muguet-kai.com" }, "geometry": { "type": "Point", "coordinates": [ 132.874804300000051, 33.7954899 ] } },
{ "type": "Feature", "properties": { "内容": "ショートステイウェルケア重信【短期入所生活介護】愛媛県東温市北野田533番1", "url": "https://www.kaigokensaku.mhlw.go.jp/38/index.php?action_kouhyou_detail_004_kani=true&JigyosyoCd=3873300192-00&ServiceCd=210&Type=search", "url2": "http://kikuju.or.jp/" }, "geometry": { "type": "Point", "coordinates": [ 132.832910800000036, 33.7934473 ] } },
{ "type": "Feature", "properties": { "内容": "上島町老人短期入所施設【短期入所生活介護】愛媛県越智郡上島町生名1268番地1", "url": "https://www.kaigokensaku.mhlw.go.jp/38/index.php?action_kouhyou_detail_004_kani=true&JigyosyoCd=3873200947-00&ServiceCd=210&Type=search", "url2": null }, "geometry": { "type": "Point", "coordinates": [ 133.183093900000017, 34.2705127 ] } },
{ "type": "Feature", "properties": { "内容": "指定短期入所生活介護事業所ショートステイ施設久万の里【短期入所生活介護】愛媛県上浮穴郡久万高原町菅生3番耕地580番地24", "url": "https://www.kaigokensaku.mhlw.go.jp/38/index.php?action_kouhyou_detail_004_kani=true&JigyosyoCd=3873400141-00&ServiceCd=210&Type=search", "url2": "http://kikuju.or.jp/" }, "geometry": { "type": "Point", "coordinates": [ 132.9044844, 33.6592303 ] } },
{ "type": "Feature", "properties": { "内容": "指定短期入所生活介護事業所　鶴寿荘【短期入所生活介護】愛媛県伊予郡松前町大字鶴吉635番地1", "url": "https://www.kaigokensaku.mhlw.go.jp/38/index.php?action_kouhyou_detail_004_kani=true&JigyosyoCd=3873500270-00&ServiceCd=210&Type=search", "url2": "http://kakuju.or.jp/" }, "geometry": { "type": "Point", "coordinates": [ 132.735822900000016, 33.782838 ] } },
{ "type": "Feature", "properties": { "内容": "指定短期入所生活介護事業所玉泉【短期入所生活介護】愛媛県伊予郡松前町北川原33番地1", "url": "https://www.kaigokensaku.mhlw.go.jp/38/index.php?action_kouhyou_detail_004_kani=true&JigyosyoCd=3873500486-00&ServiceCd=210&Type=search", "url2": "http://www.angel-welfare.jp/" }, "geometry": { "type": "Point", "coordinates": [ 132.713016399999987, 33.7993023 ] } },
{ "type": "Feature", "properties": { "内容": "ショートステイ　こより【短期入所生活介護】愛媛県伊予郡松前町大字神崎586番地3", "url": "https://www.kaigokensaku.mhlw.go.jp/38/index.php?action_kouhyou_detail_004_kani=true&JigyosyoCd=3873501013-00&ServiceCd=210&Type=search", "url2": "https://care-net.biz/38/koyori/" }, "geometry": { "type": "Point", "coordinates": [ 132.73797888175352, 33.787705103718189 ] } },
{ "type": "Feature", "properties": { "内容": "ショートステイ　笑歩会　松前【短期入所生活介護】愛媛県伊予郡松前町筒井317番地2", "url": "https://www.kaigokensaku.mhlw.go.jp/38/index.php?action_kouhyou_detail_004_kani=true&JigyosyoCd=3873501195-00&ServiceCd=210&Type=search", "url2": "http://shouhokai.jp/" }, "geometry": { "type": "Point", "coordinates": [ 132.706068596047999, 33.791573608358455 ] } },
{ "type": "Feature", "properties": { "内容": "指定短期入所生活介護事業所　砥部オレンジ荘【短期入所生活介護】愛媛県伊予郡砥部町大南2267", "url": "https://www.kaigokensaku.mhlw.go.jp/38/index.php?action_kouhyou_detail_004_kani=true&JigyosyoCd=3873500304-00&ServiceCd=210&Type=search", "url2": "https://tobe-k.com" }, "geometry": { "type": "Point", "coordinates": [ 132.792960799999946, 33.7295898 ] } },
{ "type": "Feature", "properties": { "内容": "短期入所生活介護事業所ひろた【短期入所生活介護】愛媛県伊予郡砥部町総津405番地", "url": "https://www.kaigokensaku.mhlw.go.jp/38/index.php?action_kouhyou_detail_004_kani=true&JigyosyoCd=3873500445-00&ServiceCd=210&Type=search", "url2": "https://koujyukai-hirota.com/" }, "geometry": { "type": "Point", "coordinates": [ 132.798893499999963, 33.6300689 ] } },
{ "type": "Feature", "properties": { "内容": "済生会小田指定短期入所生活介護事業所緑風荘【短期入所生活介護】愛媛県喜多郡内子町小田149番地1", "url": "https://www.kaigokensaku.mhlw.go.jp/38/index.php?action_kouhyou_detail_004_kani=true&JigyosyoCd=3873400158-00&ServiceCd=210&Type=search", "url2": null }, "geometry": { "type": "Point", "coordinates": [ 132.8042021, 33.567929 ] } },
{ "type": "Feature", "properties": { "内容": "特別養護老人ホームみどり苑【短期入所生活介護】愛媛県喜多郡内子町立山4740-1", "url": "https://www.kaigokensaku.mhlw.go.jp/38/index.php?action_kouhyou_detail_004_kani=true&JigyosyoCd=3873600021-00&ServiceCd=210&Type=search", "url2": "http://userweb.u-broad.jp/ozukita-midori" }, "geometry": { "type": "Point", "coordinates": [ 132.672145300000011, 33.591434400000011 ] } },
{ "type": "Feature", "properties": { "内容": "ユーミーケア内子ショートステイ【短期入所生活介護】愛媛県喜多郡内子町内子251番1", "url": "https://www.kaigokensaku.mhlw.go.jp/38/index.php?action_kouhyou_detail_004_kani=true&JigyosyoCd=3873600542-00&ServiceCd=210&Type=search", "url2": "http://www.you‐me‐care.co.jp" }, "geometry": { "type": "Point", "coordinates": [ 132.647573800000032, 33.5492748 ] } },
{ "type": "Feature", "properties": { "内容": "特別養護老人ホーム神南荘【短期入所生活介護】愛媛県喜多郡内子町五十崎甲881番地", "url": "https://www.kaigokensaku.mhlw.go.jp/38/index.php?action_kouhyou_detail_004_kani=true&JigyosyoCd=3873600195-00&ServiceCd=210&Type=search", "url2": "http://kannansou.server-shared.com/" }, "geometry": { "type": "Point", "coordinates": [ 132.653988572877523, 33.531657121882446 ] } },
{ "type": "Feature", "properties": { "内容": "短期入所生活介護事業所　つわぶき荘【短期入所生活介護】愛媛県西宇和郡伊方町湊浦861-1", "url": "https://www.kaigokensaku.mhlw.go.jp/38/index.php?action_kouhyou_detail_004_kani=true&JigyosyoCd=3873700177-00&ServiceCd=210&Type=search", "url2": "https://tuwabuki-sou.jp" }, "geometry": { "type": "Point", "coordinates": [ 132.356017299999962, 33.490021 ] } },
{ "type": "Feature", "properties": { "内容": "老人短期入所施設古城園【短期入所生活介護】愛媛県北宇和郡松野町大字豊岡4598番地第1", "url": "https://www.kaigokensaku.mhlw.go.jp/38/index.php?action_kouhyou_detail_004_kani=true&JigyosyoCd=3873900215-00&ServiceCd=210&Type=search", "url2": null }, "geometry": { "type": "Point", "coordinates": [ 132.704549300000053, 33.2226341 ] } },
{ "type": "Feature", "properties": { "内容": "短期入所生活介護　虹の森【短期入所生活介護】北宇和郡松野町大字松丸５５２番地", "url": "https://www.kaigokensaku.mhlw.go.jp/38/index.php?action_kouhyou_detail_004_kani=true&JigyosyoCd=3873900843-00&ServiceCd=210&Type=search", "url2": null }, "geometry": { "type": "Point", "coordinates": [ 132.712556799999987, 33.2240314 ] } },
{ "type": "Feature", "properties": { "内容": "老人短期入所施設勝山荘【短期入所生活介護】愛媛県北宇和郡鬼北町大字上大野322番地", "url": "https://www.kaigokensaku.mhlw.go.jp/38/index.php?action_kouhyou_detail_004_kani=true&JigyosyoCd=3873900199-00&ServiceCd=210&Type=search", "url2": "http://www.nanpu.or.jp" }, "geometry": { "type": "Point", "coordinates": [ 132.796038599999946, 33.3258185 ] } },
{ "type": "Feature", "properties": { "内容": "老人短期入所施設ひろみ奈良の里【短期入所生活介護】愛媛県北宇和郡鬼北町大字奈良2067番地", "url": "https://www.kaigokensaku.mhlw.go.jp/38/index.php?action_kouhyou_detail_004_kani=true&JigyosyoCd=3873900389-00&ServiceCd=210&Type=search", "url2": "https://www.nanpu.or.jp/" }, "geometry": { "type": "Point", "coordinates": [ 132.657425500000045, 33.2512321 ] } },
{ "type": "Feature", "properties": { "内容": "指定短期入所生活介護事業所自在園【短期入所生活介護】愛媛県南宇和郡愛南町満倉2301番地1", "url": "https://www.kaigokensaku.mhlw.go.jp/38/index.php?action_kouhyou_detail_004_kani=true&JigyosyoCd=3874000189-00&ServiceCd=210&Type=search", "url2": "https://m-fukushi.or.jp/" }, "geometry": { "type": "Point", "coordinates": [ 132.603263278384333, 32.95293968986725 ] } },
{ "type": "Feature", "properties": { "内容": "老人短期入所施設一本松荘【短期入所生活介護】愛媛県南宇和郡愛南町中川1438番地1", "url": "https://www.kaigokensaku.mhlw.go.jp/38/index.php?action_kouhyou_detail_004_kani=true&JigyosyoCd=3874000197-00&ServiceCd=210&Type=search", "url2": "http://www.nanpu.or.jp" }, "geometry": { "type": "Point", "coordinates": [ 132.6448418, 32.9566424 ] } },
{ "type": "Feature", "properties": { "内容": "老人短期入所施設城辺みしま荘【短期入所生活介護】愛媛県南宇和郡愛南町城辺乙561番地", "url": "https://www.kaigokensaku.mhlw.go.jp/38/index.php?action_kouhyou_detail_004_kani=true&JigyosyoCd=3874000205-00&ServiceCd=210&Type=search", "url2": null }, "geometry": { "type": "Point", "coordinates": [ 132.578268900000012, 32.9637832 ] } },
{ "type": "Feature", "properties": { "内容": "老人短期入所施設柏寿園【短期入所生活介護】愛媛県南宇和郡愛南町柏1542番地1", "url": "https://www.kaigokensaku.mhlw.go.jp/38/index.php?action_kouhyou_detail_004_kani=true&JigyosyoCd=3874000346-00&ServiceCd=210&Type=search", "url2": "https://www.nanpu.or.jp/gyosei/tokuyo.html" }, "geometry": { "type": "Point", "coordinates": [ 132.50468079999996, 33.0227204 ] } }
]
}
