{
"type": "FeatureCollection",
"name": "geo_38_通所リハビリテーション",
"crs": { "type": "name", "properties": { "name": "urn:ogc:def:crs:OGC:1.3:CRS84" } },
"features": [
{ "type": "Feature", "properties": { "内容": "松山協和病院【通所リハビリテーション】愛媛県松山市立花五丁目1番53号", "url": "https://www.kaigokensaku.mhlw.go.jp/38/index.php?action_kouhyou_detail_004_kani=true&JigyosyoCd=3810128326-00&ServiceCd=160&Type=search", "url2": "http://www.kyowahp.com" }, "geometry": { "type": "Point", "coordinates": [ 132.772019199999932, 33.8274896 ] } },
{ "type": "Feature", "properties": { "内容": "浦屋医院【通所リハビリテーション】愛媛県松山市中一万町5番地10", "url": "https://www.kaigokensaku.mhlw.go.jp/38/index.php?action_kouhyou_detail_004_kani=true&JigyosyoCd=3810115992-00&ServiceCd=160&Type=search", "url2": "http://uraya0150.byoinnavi.jp/pc/" }, "geometry": { "type": "Point", "coordinates": [ 132.7741912, 33.8467611 ] } },
{ "type": "Feature", "properties": { "内容": "石手内科【通所リハビリテーション】愛媛県松山市紅葉町2番16号", "url": "https://www.kaigokensaku.mhlw.go.jp/38/index.php?action_kouhyou_detail_004_kani=true&JigyosyoCd=3810129027-00&ServiceCd=160&Type=search", "url2": "http://www.ishite-naika.com/" }, "geometry": { "type": "Point", "coordinates": [ 132.789192500000013, 33.8426494 ] } },
{ "type": "Feature", "properties": { "内容": "介護老人保健施設ハピネス椿【通所リハビリテーション】愛媛県松山市今在家3丁目9番29号", "url": "https://www.kaigokensaku.mhlw.go.jp/38/index.php?action_kouhyou_detail_004_kani=true&JigyosyoCd=3857780609-00&ServiceCd=160&Type=search", "url2": "https://www.kawahara-cln.jp/" }, "geometry": { "type": "Point", "coordinates": [ 132.7936588, 33.8048706 ] } },
{ "type": "Feature", "properties": { "内容": "近藤内科【通所リハビリテーション】愛媛県松山市中野町甲404", "url": "https://www.kaigokensaku.mhlw.go.jp/38/index.php?action_kouhyou_detail_004_kani=true&JigyosyoCd=3810110266-00&ServiceCd=160&Type=search", "url2": null }, "geometry": { "type": "Point", "coordinates": [ 132.826866900000027, 33.7786016 ] } },
{ "type": "Feature", "properties": { "内容": "増田整形外科【通所リハビリテーション】愛媛県松山市南梅本町1136-2", "url": "https://www.kaigokensaku.mhlw.go.jp/38/index.php?action_kouhyou_detail_004_kani=true&JigyosyoCd=3810112122-00&ServiceCd=160&Type=search", "url2": null }, "geometry": { "type": "Point", "coordinates": [ 132.832102599999985, 33.7976134 ] } },
{ "type": "Feature", "properties": { "内容": "たいさんじ整形外科【通所リハビリテーション】愛媛県松山市太山寺町912－21", "url": "https://www.kaigokensaku.mhlw.go.jp/38/index.php?action_kouhyou_detail_004_kani=true&JigyosyoCd=3810110993-00&ServiceCd=160&Type=search", "url2": "http://taisanji-seikei.com" }, "geometry": { "type": "Point", "coordinates": [ 132.7301923, 33.8955643 ] } },
{ "type": "Feature", "properties": { "内容": "中川病院【通所リハビリテーション】松山市南梅本町甲58番地", "url": "https://www.kaigokensaku.mhlw.go.jp/38/index.php?action_kouhyou_detail_004_kani=true&JigyosyoCd=3810111025-00&ServiceCd=160&Type=search", "url2": "https://www.nakagawa-hp.jp" }, "geometry": { "type": "Point", "coordinates": [ 132.836157800000024, 33.8013353 ] } },
{ "type": "Feature", "properties": { "内容": "明星クリニック　通所リハビリテーション【通所リハビリテーション】愛媛県松山市井門町462番地1", "url": "https://www.kaigokensaku.mhlw.go.jp/38/index.php?action_kouhyou_detail_004_kani=true&JigyosyoCd=3810111462-00&ServiceCd=160&Type=search", "url2": null }, "geometry": { "type": "Point", "coordinates": [ 132.784870800000022, 33.8001404 ] } },
{ "type": "Feature", "properties": { "内容": "金澤整形外科【通所リハビリテーション】愛媛県松山市小村町87番地６", "url": "https://www.kaigokensaku.mhlw.go.jp/38/index.php?action_kouhyou_detail_004_kani=true&JigyosyoCd=3810111553-00&ServiceCd=160&Type=search", "url2": "http://www.kanazawa-seikei.com/" }, "geometry": { "type": "Point", "coordinates": [ 132.814790200000061, 33.7776598 ] } },
{ "type": "Feature", "properties": { "内容": "通所リハビリテーションゆうわ【通所リハビリテーション】愛媛県松山市富久町360番地１", "url": "https://www.kaigokensaku.mhlw.go.jp/38/index.php?action_kouhyou_detail_004_kani=true&JigyosyoCd=3810111561-00&ServiceCd=160&Type=search", "url2": "http://www.yu-wakai.or.jp/" }, "geometry": { "type": "Point", "coordinates": [ 132.726991, 33.8219148 ] } },
{ "type": "Feature", "properties": { "内容": "椿クリニック【通所リハビリテーション】愛媛県松山市市坪南1丁目5-26", "url": "https://www.kaigokensaku.mhlw.go.jp/38/index.php?action_kouhyou_detail_004_kani=true&JigyosyoCd=3810111678-00&ServiceCd=160&Type=search", "url2": "http://www.tsubaki-clinic.jp/" }, "geometry": { "type": "Point", "coordinates": [ 132.7547631, 33.8093468 ] } },
{ "type": "Feature", "properties": { "内容": "ベテル三番町クリニック　通所リハビリテーション【通所リハビリテーション】愛媛県松山市三番町3丁目4番地12", "url": "https://www.kaigokensaku.mhlw.go.jp/38/index.php?action_kouhyou_detail_004_kani=true&JigyosyoCd=3810113013-00&ServiceCd=160&Type=search", "url2": "https://bethel.or.jp" }, "geometry": { "type": "Point", "coordinates": [ 132.768724900000052, 33.8374327 ] } },
{ "type": "Feature", "properties": { "内容": "医療法人　友朋会　なかじま中央病院【通所リハビリテーション】愛媛県松山市中島大浦3081-1", "url": "https://www.kaigokensaku.mhlw.go.jp/38/index.php?action_kouhyou_detail_004_kani=true&JigyosyoCd=3810113849-00&ServiceCd=160&Type=search", "url2": "http://yuhokai.net/" }, "geometry": { "type": "Point", "coordinates": [ 132.6271832, 33.9723967 ] } },
{ "type": "Feature", "properties": { "内容": "鎌田リウマチ・整形外科【通所リハビリテーション】愛媛県松山市東垣生町１７３－１", "url": "https://www.kaigokensaku.mhlw.go.jp/38/index.php?action_kouhyou_detail_004_kani=true&JigyosyoCd=3810115877-00&ServiceCd=160&Type=search", "url2": null }, "geometry": { "type": "Point", "coordinates": [ 132.715072099999986, 33.812585700000035 ] } },
{ "type": "Feature", "properties": { "内容": "上甲整形外科【通所リハビリテーション】愛媛県松山市福音寺町２６-１", "url": "https://www.kaigokensaku.mhlw.go.jp/38/index.php?action_kouhyou_detail_004_kani=true&JigyosyoCd=3810126379-00&ServiceCd=160&Type=search", "url2": null }, "geometry": { "type": "Point", "coordinates": [ 132.794828100000018, 33.8195078 ] } },
{ "type": "Feature", "properties": { "内容": "医療法人順風会　天山病院【通所リハビリテーション】愛媛県松山市天山二丁目3番30号", "url": "https://www.kaigokensaku.mhlw.go.jp/38/index.php?action_kouhyou_detail_004_kani=true&JigyosyoCd=3810128540-00&ServiceCd=160&Type=search", "url2": "http://junpu.or.jp/amayamahp/" }, "geometry": { "type": "Point", "coordinates": [ 132.777954799999947, 33.8192824 ] } },
{ "type": "Feature", "properties": { "内容": "鷹の子病院【通所リハビリテーション】愛媛県松山市鷹子町525番地1", "url": "https://www.kaigokensaku.mhlw.go.jp/38/index.php?action_kouhyou_detail_004_kani=true&JigyosyoCd=3810128649-00&ServiceCd=160&Type=search", "url2": "http://www.takanoko-hsp.jp" }, "geometry": { "type": "Point", "coordinates": [ 132.815528800000038, 33.8133531 ] } },
{ "type": "Feature", "properties": { "内容": "愛媛生協病院【通所リハビリテーション】愛媛県松山市来住町1091番地の1", "url": "https://www.kaigokensaku.mhlw.go.jp/38/index.php?action_kouhyou_detail_004_kani=true&JigyosyoCd=3810128722-00&ServiceCd=160&Type=search", "url2": "https://www.e-seikyo-hp.jp/index.php" }, "geometry": { "type": "Point", "coordinates": [ 132.798375, 33.8086813 ] } },
{ "type": "Feature", "properties": { "内容": "久米窪田クリニック【通所リハビリテーション】愛媛県松山市久米窪田町1147", "url": "https://www.kaigokensaku.mhlw.go.jp/38/index.php?action_kouhyou_detail_004_kani=true&JigyosyoCd=3810129688-00&ServiceCd=160&Type=search", "url2": null }, "geometry": { "type": "Point", "coordinates": [ 132.808568499999978, 33.8083675 ] } },
{ "type": "Feature", "properties": { "内容": "通所リハビリテーション　アトラス若葉【通所リハビリテーション】愛媛県松山市小川甲８２番地", "url": "https://www.kaigokensaku.mhlw.go.jp/38/index.php?action_kouhyou_detail_004_kani=true&JigyosyoCd=3811110133-00&ServiceCd=160&Type=search", "url2": "http://miyoshi-s.jp/index.html" }, "geometry": { "type": "Point", "coordinates": [ 132.763795750451067, 33.927276506465233 ] } },
{ "type": "Feature", "properties": { "内容": "医療法人社団樹人会北条病院【通所リハビリテーション】愛媛県松山市河野中須賀288番地5", "url": "https://www.kaigokensaku.mhlw.go.jp/38/index.php?action_kouhyou_detail_004_kani=true&JigyosyoCd=3811110141-00&ServiceCd=160&Type=search", "url2": "http://www.hojo-hosp.jp" }, "geometry": { "type": "Point", "coordinates": [ 132.769568, 33.9465591 ] } },
{ "type": "Feature", "properties": { "内容": "介護老人保健施設　合歓の木【通所リハビリテーション】愛媛県松山市古三津3丁目5-5", "url": "https://www.kaigokensaku.mhlw.go.jp/38/index.php?action_kouhyou_detail_004_kani=true&JigyosyoCd=3850180047-00&ServiceCd=160&Type=search", "url2": "http://www.mitsuseikei.jp/nemunoki/" }, "geometry": { "type": "Point", "coordinates": [ 132.730331200000023, 33.8569265 ] } },
{ "type": "Feature", "properties": { "内容": "老人保健施設　れんげ荘【通所リハビリテーション】愛媛県松山市東石井一丁目11番30号", "url": "https://www.kaigokensaku.mhlw.go.jp/38/index.php?action_kouhyou_detail_004_kani=true&JigyosyoCd=3857780013-00&ServiceCd=160&Type=search", "url2": "http://www.atomgroup.jp/" }, "geometry": { "type": "Point", "coordinates": [ 132.781476699999985, 33.8197686 ] } },
{ "type": "Feature", "properties": { "内容": "通所ﾘﾊﾋﾞﾘﾃｰｼｮﾝ福角の里【通所リハビリテーション】愛媛県松山市福角町乙69-1", "url": "https://www.kaigokensaku.mhlw.go.jp/38/index.php?action_kouhyou_detail_004_kani=true&JigyosyoCd=3857780062-00&ServiceCd=160&Type=search", "url2": "http://www.fukuzumi-hp.jp" }, "geometry": { "type": "Point", "coordinates": [ 132.766841699999986, 33.9056557 ] } },
{ "type": "Feature", "properties": { "内容": "老人保健施設あいじゅ　通所リハビリテーション【通所リハビリテーション】愛媛県松山市来住町1171番地1", "url": "https://www.kaigokensaku.mhlw.go.jp/38/index.php?action_kouhyou_detail_004_kani=true&JigyosyoCd=3857780104-00&ServiceCd=160&Type=search", "url2": "http://www.aijukai-group.com" }, "geometry": { "type": "Point", "coordinates": [ 132.797484802911299, 33.808498242152474 ] } },
{ "type": "Feature", "properties": { "内容": "老人保健施設道後ベテルホーム【通所リハビリテーション】愛媛県松山市祝谷6丁目1277", "url": "https://www.kaigokensaku.mhlw.go.jp/38/index.php?action_kouhyou_detail_004_kani=true&JigyosyoCd=3857780112-00&ServiceCd=160&Type=search", "url2": "https://www.bethel.or.jp/" }, "geometry": { "type": "Point", "coordinates": [ 132.775171600000021, 33.8647852 ] } },
{ "type": "Feature", "properties": { "内容": "済生会松山老人保健施設にぎたつ苑【通所リハビリテーション】愛媛県松山市山西町841-1", "url": "https://www.kaigokensaku.mhlw.go.jp/38/index.php?action_kouhyou_detail_004_kani=true&JigyosyoCd=3857780138-00&ServiceCd=160&Type=search", "url2": "http://nigitatsu.saiseikai.or.jp" }, "geometry": { "type": "Point", "coordinates": [ 132.72154610000004, 33.8518135 ] } },
{ "type": "Feature", "properties": { "内容": "介護老人保健施設　高井の里【通所リハビリテーション】愛媛県松山市高井町1203番地", "url": "https://www.kaigokensaku.mhlw.go.jp/38/index.php?action_kouhyou_detail_004_kani=true&JigyosyoCd=3857780153-00&ServiceCd=160&Type=search", "url2": "http://www.jikyoukai.or.jp/facility/takai/" }, "geometry": { "type": "Point", "coordinates": [ 132.80870189999996, 33.8002489 ] } },
{ "type": "Feature", "properties": { "内容": "通所リハビリテーション事業所海辺の郷【通所リハビリテーション】愛媛県松山市柳原739番地", "url": "https://www.kaigokensaku.mhlw.go.jp/38/index.php?action_kouhyou_detail_004_kani=true&JigyosyoCd=3857780203-00&ServiceCd=160&Type=search", "url2": null }, "geometry": { "type": "Point", "coordinates": [ 132.771181399999932, 33.9590965 ] } },
{ "type": "Feature", "properties": { "内容": "老人保健施設　たかのこ館【通所リハビリテーション】愛媛県松山市鷹子町527-1", "url": "https://www.kaigokensaku.mhlw.go.jp/38/index.php?action_kouhyou_detail_004_kani=true&JigyosyoCd=3857780310-00&ServiceCd=160&Type=search", "url2": "https://takanoko-hsp.jp/takanokokan/" }, "geometry": { "type": "Point", "coordinates": [ 132.81493439999997, 33.8136753 ] } },
{ "type": "Feature", "properties": { "内容": "介護老人保健施設垣生あいじゅ【通所リハビリテーション】愛媛県松山市東垣生町277番地", "url": "https://www.kaigokensaku.mhlw.go.jp/38/index.php?action_kouhyou_detail_004_kani=true&JigyosyoCd=3857780583-00&ServiceCd=160&Type=search", "url2": "http://www.aijukai-group.com/" }, "geometry": { "type": "Point", "coordinates": [ 132.70954729999994, 33.8108676 ] } },
{ "type": "Feature", "properties": { "内容": "医療法人　友朋会　栗林病院【通所リハビリテーション】愛媛県松山市溝辺町甲３３１番地", "url": "https://www.kaigokensaku.mhlw.go.jp/38/index.php?action_kouhyou_detail_004_kani=true&JigyosyoCd=3810112254-00&ServiceCd=160&Type=search", "url2": "http://yuhokai.net" }, "geometry": { "type": "Point", "coordinates": [ 132.806876500000044, 33.8463356 ] } },
{ "type": "Feature", "properties": { "内容": "医療法人　田窪リウマチ・整形外科【通所リハビリテーション】愛媛県松山市枝松1丁目9番38号", "url": "https://www.kaigokensaku.mhlw.go.jp/38/index.php?action_kouhyou_detail_004_kani=true&JigyosyoCd=3810113740-00&ServiceCd=160&Type=search", "url2": "http://takubo-clinic.com/" }, "geometry": { "type": "Point", "coordinates": [ 132.7870333, 33.8375737 ] } },
{ "type": "Feature", "properties": { "内容": "やまだリウマチクリニック【通所リハビリテーション】愛媛県松山市樽味四丁目３－３３", "url": "https://www.kaigokensaku.mhlw.go.jp/38/index.php?action_kouhyou_detail_004_kani=true&JigyosyoCd=3810114508-00&ServiceCd=160&Type=search", "url2": "https://yamada-rc.com/" }, "geometry": { "type": "Point", "coordinates": [ 132.7882367, 33.8384888 ] } },
{ "type": "Feature", "properties": { "内容": "松山リハビリテーション病院【通所リハビリテーション】愛媛県松山市高井町1211", "url": "https://www.kaigokensaku.mhlw.go.jp/38/index.php?action_kouhyou_detail_004_kani=true&JigyosyoCd=3810128433-00&ServiceCd=160&Type=search", "url2": "www.jikyoukai.or.jp" }, "geometry": { "type": "Point", "coordinates": [ 132.8074918, 33.7994504 ] } },
{ "type": "Feature", "properties": { "内容": "道後温泉病院デイケアセンター　みらいずひめduka【通所リハビリテーション】道後姫塚乙21-21", "url": "https://www.kaigokensaku.mhlw.go.jp/38/index.php?action_kouhyou_detail_004_kani=true&JigyosyoCd=3810128615-00&ServiceCd=160&Type=search", "url2": "http://doh-racenter.jp/" }, "geometry": { "type": "Point", "coordinates": [ 132.790929028172286, 33.848728715933817 ] } },
{ "type": "Feature", "properties": { "内容": "老人保健施設ミネルワ　通所リハビリテーション【通所リハビリテーション】愛媛県松山市高岡町302-2", "url": "https://www.kaigokensaku.mhlw.go.jp/38/index.php?action_kouhyou_detail_004_kani=true&JigyosyoCd=3857780252-00&ServiceCd=160&Type=search", "url2": "http://www.mineruwa.jp" }, "geometry": { "type": "Point", "coordinates": [ 132.722281899999984, 33.8264354 ] } },
{ "type": "Feature", "properties": { "内容": "三津整形外科【通所リハビリテーション】古三津三丁目5番5号", "url": "https://www.kaigokensaku.mhlw.go.jp/38/index.php?action_kouhyou_detail_004_kani=true&JigyosyoCd=3810113724-00&ServiceCd=160&Type=search", "url2": "http://www.mitsuseikei.jp/mitsuseikei/" }, "geometry": { "type": "Point", "coordinates": [ 132.730350566270403, 33.856885187840234 ] } },
{ "type": "Feature", "properties": { "内容": "医療法人山本整形外科【通所リハビリテーション】愛媛県松山市内宮町533-4", "url": "https://www.kaigokensaku.mhlw.go.jp/38/index.php?action_kouhyou_detail_004_kani=true&JigyosyoCd=3810118517-00&ServiceCd=160&Type=search", "url2": null }, "geometry": { "type": "Point", "coordinates": [ 132.7486733, 33.8922101 ] } },
{ "type": "Feature", "properties": { "内容": "長井医院　通所リハビリテーション【通所リハビリテーション】愛媛県松山市築山町7-11", "url": "https://www.kaigokensaku.mhlw.go.jp/38/index.php?action_kouhyou_detail_004_kani=true&JigyosyoCd=3810111363-00&ServiceCd=160&Type=search", "url2": "nagai-cl.jp" }, "geometry": { "type": "Point", "coordinates": [ 132.7781307, 33.8382582 ] } },
{ "type": "Feature", "properties": { "内容": "相原整形外科【通所リハビリテーション】愛媛県松山市南久米町550-1", "url": "https://www.kaigokensaku.mhlw.go.jp/38/index.php?action_kouhyou_detail_004_kani=true&JigyosyoCd=3810110670-00&ServiceCd=160&Type=search", "url2": null }, "geometry": { "type": "Point", "coordinates": [ 132.797397306745921, 33.81265785671691 ] } },
{ "type": "Feature", "properties": { "内容": "小田ひ尿器科・ふみこ皮フ科通所リハビリテーション【通所リハビリテーション】愛媛県松山市枝松６丁目１２－１０", "url": "https://www.kaigokensaku.mhlw.go.jp/38/index.php?action_kouhyou_detail_004_kani=true&JigyosyoCd=3810110662-00&ServiceCd=160&Type=search", "url2": "ｗｗｗ．ｏｄａ－ｃｌｉｎｉｃ．ｊｐ/" }, "geometry": { "type": "Point", "coordinates": [ 132.783987499999967, 33.8262984 ] } },
{ "type": "Feature", "properties": { "内容": "しのざき整形外科　通所リハビリテーション【通所リハビリテーション】愛媛県今治市伯方町伊方甲1022-1", "url": "https://www.kaigokensaku.mhlw.go.jp/38/index.php?action_kouhyou_detail_004_kani=true&JigyosyoCd=3810211049-00&ServiceCd=160&Type=search", "url2": null }, "geometry": { "type": "Point", "coordinates": [ 133.0674827, 34.2208634 ] } },
{ "type": "Feature", "properties": { "内容": "広瀬クリニック通所リハビリテーション【通所リハビリテーション】愛媛県今治市拝志3番1号広瀬クリニック", "url": "https://www.kaigokensaku.mhlw.go.jp/38/index.php?action_kouhyou_detail_004_kani=true&JigyosyoCd=3810211213-00&ServiceCd=160&Type=search", "url2": "http://www.hirose-youseikai.org" }, "geometry": { "type": "Point", "coordinates": [ 133.024708299999986, 34.0428302 ] } },
{ "type": "Feature", "properties": { "内容": "通所リハビリテーション光生病院【通所リハビリテーション】愛媛県今治市室屋町3丁目2番地10", "url": "https://www.kaigokensaku.mhlw.go.jp/38/index.php?action_kouhyou_detail_004_kani=true&JigyosyoCd=3810228118-00&ServiceCd=160&Type=search", "url2": "https://www.imabari-kouseibyouin.com/" }, "geometry": { "type": "Point", "coordinates": [ 133.000339899999972, 34.0698516 ] } },
{ "type": "Feature", "properties": { "内容": "社会福祉法人恩賜財団済生会今治第二病院【通所リハビリテーション】愛媛県今治市北日吉町1丁目7番43号", "url": "https://www.kaigokensaku.mhlw.go.jp/38/index.php?action_kouhyou_detail_004_kani=true&JigyosyoCd=3810210603-00&ServiceCd=160&Type=search", "url2": "http://www.imabari.saiseikai.or.jp/imabari2/" }, "geometry": { "type": "Point", "coordinates": [ 132.988566799999944, 34.0635947 ] } },
{ "type": "Feature", "properties": { "内容": "鈴木病院【通所リハビリテーション】愛媛県今治市別宮町二丁目1番地5", "url": "https://www.kaigokensaku.mhlw.go.jp/38/index.php?action_kouhyou_detail_004_kani=true&JigyosyoCd=3810210629-00&ServiceCd=160&Type=search", "url2": "http://yasuragi-suzuki.or.jp/" }, "geometry": { "type": "Point", "coordinates": [ 132.996974099999989, 34.0672865 ] } },
{ "type": "Feature", "properties": { "内容": "消化器科久保病院【通所リハビリテーション】今治市内堀一丁目１－１９", "url": "https://www.kaigokensaku.mhlw.go.jp/38/index.php?action_kouhyou_detail_004_kani=true&JigyosyoCd=3810210835-00&ServiceCd=160&Type=search", "url2": "http://kubo-hospital.com/" }, "geometry": { "type": "Point", "coordinates": [ 132.967349600000034, 34.1041028 ] } },
{ "type": "Feature", "properties": { "内容": "今治第一病院【通所リハビリテーション】愛媛県今治市宮下町1丁目1番21号、愛媛県今治市北日吉町1丁目13番10号（分室）", "url": "https://www.kaigokensaku.mhlw.go.jp/38/index.php?action_kouhyou_detail_004_kani=true&JigyosyoCd=3810228092-00&ServiceCd=160&Type=search", "url2": "http://www.imabari-daiichi.com/" }, "geometry": { "type": "Point", "coordinates": [ 132.989637903041086, 34.06659784040783 ] } },
{ "type": "Feature", "properties": { "内容": "医療法人平成会　山内病院【通所リハビリテーション】愛媛県今治市片山3丁目1番40号", "url": "https://www.kaigokensaku.mhlw.go.jp/38/index.php?action_kouhyou_detail_004_kani=true&JigyosyoCd=3810228332-00&ServiceCd=160&Type=search", "url2": "http://www.hp-yamauchi.or.jp" }, "geometry": { "type": "Point", "coordinates": [ 132.984671930688506, 34.051961522689766 ] } },
{ "type": "Feature", "properties": { "内容": "大西クリニック　通所リハビリテーション【通所リハビリテーション】愛媛県今治市大西町紺原甲８２７番地１", "url": "https://www.kaigokensaku.mhlw.go.jp/38/index.php?action_kouhyou_detail_004_kani=true&JigyosyoCd=3813210196-00&ServiceCd=160&Type=search", "url2": null }, "geometry": { "type": "Point", "coordinates": [ 132.937963500000023, 34.067822200000023 ] } },
{ "type": "Feature", "properties": { "内容": "介護老人保健施設あすなろ【通所リハビリテーション】愛媛県今治市伯方町北浦甲2289番地1", "url": "https://www.kaigokensaku.mhlw.go.jp/38/index.php?action_kouhyou_detail_004_kani=true&JigyosyoCd=3850280011-00&ServiceCd=160&Type=search", "url2": null }, "geometry": { "type": "Point", "coordinates": [ 133.099371799999972, 34.2154657 ] } },
{ "type": "Feature", "properties": { "内容": "済生会今治老人保健施設　希望の園【通所リハビリテーション】愛媛県今治市喜田村7丁目1番6号", "url": "https://www.kaigokensaku.mhlw.go.jp/38/index.php?action_kouhyou_detail_004_kani=true&JigyosyoCd=3857780021-00&ServiceCd=160&Type=search", "url2": "http://www.imabari.saiseikai.or.jp/site/kibounosono/" }, "geometry": { "type": "Point", "coordinates": [ 133.0200317, 34.0439907 ] } },
{ "type": "Feature", "properties": { "内容": "老人保健施設燧園【通所リハビリテーション】愛媛県今治市末広町三丁目1-6", "url": "https://www.kaigokensaku.mhlw.go.jp/38/index.php?action_kouhyou_detail_004_kani=true&JigyosyoCd=3857780047-00&ServiceCd=160&Type=search", "url2": "http://www.yoshino-hospital.or.jp/" }, "geometry": { "type": "Point", "coordinates": [ 133.003923, 34.0628543 ] } },
{ "type": "Feature", "properties": { "内容": "老人保健施設ときわ園【通所リハビリテーション】愛媛県今治市常盤町5丁目3番37号", "url": "https://www.kaigokensaku.mhlw.go.jp/38/index.php?action_kouhyou_detail_004_kani=true&JigyosyoCd=3857780195-00&ServiceCd=160&Type=search", "url2": "http://sanseikai.com/" }, "geometry": { "type": "Point", "coordinates": [ 132.993771599999945, 34.0602844 ] } },
{ "type": "Feature", "properties": { "内容": "介護老人保健施設　八惠苑　通所リハビリテーション【通所リハビリテーション】愛媛県今治市北日吉町1丁目18番7号", "url": "https://www.kaigokensaku.mhlw.go.jp/38/index.php?action_kouhyou_detail_004_kani=true&JigyosyoCd=3857780286-00&ServiceCd=160&Type=search", "url2": "https://www.juntenkai.jp/hachikeien" }, "geometry": { "type": "Point", "coordinates": [ 132.991613603179957, 34.064975824437553 ] } },
{ "type": "Feature", "properties": { "内容": "介護老人保健施設シルビウス・ケアセンター【通所リハビリテーション】今治市別名261番地", "url": "https://www.kaigokensaku.mhlw.go.jp/38/index.php?action_kouhyou_detail_004_kani=true&JigyosyoCd=3857780328-00&ServiceCd=160&Type=search", "url2": "http://www.katagihosp.com" }, "geometry": { "type": "Point", "coordinates": [ 132.975811300000032, 34.042281 ] } },
{ "type": "Feature", "properties": { "内容": "老人保健施設セントラルケアホーム【通所リハビリテーション】愛媛県今治市松本町2丁目6-6", "url": "https://www.kaigokensaku.mhlw.go.jp/38/index.php?action_kouhyou_detail_004_kani=true&JigyosyoCd=3857780351-00&ServiceCd=160&Type=search", "url2": "https://central-carehome.jp/" }, "geometry": { "type": "Point", "coordinates": [ 133.00276759999997, 34.0630903 ] } },
{ "type": "Feature", "properties": { "内容": "介護老人保健施設ヒロセ【通所リハビリテーション】愛媛県今治市国分7丁目4番1号", "url": "https://www.kaigokensaku.mhlw.go.jp/38/index.php?action_kouhyou_detail_004_kani=true&JigyosyoCd=3857780450-00&ServiceCd=160&Type=search", "url2": "http://www.hirose-youseikai.org/" }, "geometry": { "type": "Point", "coordinates": [ 133.0224925, 34.0229986 ] } },
{ "type": "Feature", "properties": { "内容": "おおにし光生園【通所リハビリテーション】愛媛県今治市大西町九王甲６２２番地１", "url": "https://www.kaigokensaku.mhlw.go.jp/38/index.php?action_kouhyou_detail_004_kani=true&JigyosyoCd=3857780526-00&ServiceCd=160&Type=search", "url2": "https://www.imabari-kouseibyouin.com/" }, "geometry": { "type": "Point", "coordinates": [ 132.932088053334013, 34.088612667169002 ] } },
{ "type": "Feature", "properties": { "内容": "介護老人保健施設　さくら苑【通所リハビリテーション】愛媛県今治市別宮町3丁目7-17", "url": "https://www.kaigokensaku.mhlw.go.jp/38/index.php?action_kouhyou_detail_004_kani=true&JigyosyoCd=3857780146-00&ServiceCd=160&Type=search", "url2": "http://www.kiharabyouin.jp/" }, "geometry": { "type": "Point", "coordinates": [ 132.994596699999988, 34.0690527 ] } },
{ "type": "Feature", "properties": { "内容": "老人保健施設養老の里【通所リハビリテーション】愛媛県今治市波方町樋口甲1686-1", "url": "https://www.kaigokensaku.mhlw.go.jp/38/index.php?action_kouhyou_detail_004_kani=true&JigyosyoCd=3857780344-00&ServiceCd=160&Type=search", "url2": "http://kouzinkai.jp" }, "geometry": { "type": "Point", "coordinates": [ 132.953278299999965, 34.1018475 ] } },
{ "type": "Feature", "properties": { "内容": "かとう内科【通所リハビリテーション】愛媛県今治市立花町1丁目10番5号", "url": "https://www.kaigokensaku.mhlw.go.jp/38/index.php?action_kouhyou_detail_004_kani=true&JigyosyoCd=3810210041-00&ServiceCd=160&Type=search", "url2": null }, "geometry": { "type": "Point", "coordinates": [ 132.997348699999947, 34.0530079 ] } },
{ "type": "Feature", "properties": { "内容": "片木脳神経外科【通所リハビリテーション】愛媛県今治市別名274番地", "url": "https://www.kaigokensaku.mhlw.go.jp/38/index.php?action_kouhyou_detail_004_kani=true&JigyosyoCd=3810228266-00&ServiceCd=160&Type=search", "url2": "http://www.katagihosp.com/" }, "geometry": { "type": "Point", "coordinates": [ 132.9760308, 34.0420616 ] } },
{ "type": "Feature", "properties": { "内容": "独立行政法人地域医療機能推進機構宇和島病院【通所リハビリテーション】賀古町２丁目１番３７号", "url": "https://www.kaigokensaku.mhlw.go.jp/38/index.php?action_kouhyou_detail_004_kani=true&JigyosyoCd=3810318067-00&ServiceCd=160&Type=search", "url2": "https://uwajima.jcho.go.jp" }, "geometry": { "type": "Point", "coordinates": [ 132.569669699999963, 33.2159851 ] } },
{ "type": "Feature", "properties": { "内容": "医療法人　徳洲会　宇和島徳洲会病院【通所リハビリテーション】愛媛県宇和島市住吉町2丁目6-24", "url": "https://www.kaigokensaku.mhlw.go.jp/38/index.php?action_kouhyou_detail_004_kani=true&JigyosyoCd=3810310379-00&ServiceCd=160&Type=search", "url2": "http://www.uwatoku.org/" }, "geometry": { "type": "Point", "coordinates": [ 132.554021899999952, 33.2289536 ] } },
{ "type": "Feature", "properties": { "内容": "宇和島市介護老人保健施設オレンジ荘【通所リハビリテーション】愛媛県宇和島市吉田町北小路甲184番地3", "url": "https://www.kaigokensaku.mhlw.go.jp/38/index.php?action_kouhyou_detail_004_kani=true&JigyosyoCd=3850380019-00&ServiceCd=160&Type=search", "url2": null }, "geometry": { "type": "Point", "coordinates": [ 132.540394228311129, 33.282176515183977 ] } },
{ "type": "Feature", "properties": { "内容": "宇和島市介護老人保健施設ふれあい荘【通所リハビリテーション】愛媛県宇和島市津島町岩松甲39番1", "url": "https://www.kaigokensaku.mhlw.go.jp/38/index.php?action_kouhyou_detail_004_kani=true&JigyosyoCd=3850380027-00&ServiceCd=160&Type=search", "url2": null }, "geometry": { "type": "Point", "coordinates": [ 132.5355452, 33.1271005 ] } },
{ "type": "Feature", "properties": { "内容": "独立行政法人地域医療機能推進機構宇和島病院附属介護老人保健施設【通所リハビリテーション】愛媛県宇和島市賀古町1丁目2番20号", "url": "https://www.kaigokensaku.mhlw.go.jp/38/index.php?action_kouhyou_detail_004_kani=true&JigyosyoCd=3857780245-00&ServiceCd=160&Type=search", "url2": "https://uwajima.jcho.go.jp/rouken/" }, "geometry": { "type": "Point", "coordinates": [ 132.5697983, 33.2152052 ] } },
{ "type": "Feature", "properties": { "内容": "指定通所リハビリテーションやすらぎの杜【通所リハビリテーション】愛媛県宇和島市保田甲1932番地2", "url": "https://www.kaigokensaku.mhlw.go.jp/38/index.php?action_kouhyou_detail_004_kani=true&JigyosyoCd=3857780518-00&ServiceCd=160&Type=search", "url2": "http://shouwakai.jp/" }, "geometry": { "type": "Point", "coordinates": [ 132.5420097, 33.1842995 ] } },
{ "type": "Feature", "properties": { "内容": "医療法人青峰会　チヨダクリニック【通所リハビリテーション】愛媛県八幡浜市矢野町七丁目1455番地22", "url": "https://www.kaigokensaku.mhlw.go.jp/38/index.php?action_kouhyou_detail_004_kani=true&JigyosyoCd=3810410096-00&ServiceCd=160&Type=search", "url2": "http://www.kujira.biz/" }, "geometry": { "type": "Point", "coordinates": [ 132.424194506884731, 33.457017250316163 ] } },
{ "type": "Feature", "properties": { "内容": "通所リハビリテーション青葉荘【通所リハビリテーション】愛媛県八幡浜市向灘229番地14", "url": "https://www.kaigokensaku.mhlw.go.jp/38/index.php?action_kouhyou_detail_004_kani=true&JigyosyoCd=3857780385-00&ServiceCd=160&Type=search", "url2": "https://rouken-aobaso.jp/" }, "geometry": { "type": "Point", "coordinates": [ 132.424102700000049, 33.4665641 ] } },
{ "type": "Feature", "properties": { "内容": "介護老人保健施設　西安【通所リハビリテーション】愛媛県八幡浜市大平1番耕地870番地2", "url": "https://www.kaigokensaku.mhlw.go.jp/38/index.php?action_kouhyou_detail_004_kani=true&JigyosyoCd=3857780567-00&ServiceCd=160&Type=search", "url2": "http://www.atomgroup.jp" }, "geometry": { "type": "Point", "coordinates": [ 132.427300725903223, 33.465864103868483 ] } },
{ "type": "Feature", "properties": { "内容": "住友別子病院【通所リハビリテーション】愛媛県新居浜市王子町3番1号", "url": "https://www.kaigokensaku.mhlw.go.jp/38/index.php?action_kouhyou_detail_004_kani=true&JigyosyoCd=3810510796-00&ServiceCd=160&Type=search", "url2": "https://sbh.gr.jp/index2.php" }, "geometry": { "type": "Point", "coordinates": [ 133.263179197614477, 33.953459317161951 ] } },
{ "type": "Feature", "properties": { "内容": "新田診療所【通所リハビリテーション】愛媛県新居浜市新田町1-9-9", "url": "https://www.kaigokensaku.mhlw.go.jp/38/index.php?action_kouhyou_detail_004_kani=true&JigyosyoCd=3810510929-00&ServiceCd=160&Type=search", "url2": "http://niihama-mcoop.or.jp/" }, "geometry": { "type": "Point", "coordinates": [ 133.262269, 33.9570394 ] } },
{ "type": "Feature", "properties": { "内容": "医療法人宮下整形外科.内科【通所リハビリテーション】愛媛県新居浜市松神子3-1-26", "url": "https://www.kaigokensaku.mhlw.go.jp/38/index.php?action_kouhyou_detail_004_kani=true&JigyosyoCd=3810510382-00&ServiceCd=160&Type=search", "url2": "http://www.miyashita-clinic.jp" }, "geometry": { "type": "Point", "coordinates": [ 133.326085499999976, 33.9732189 ] } },
{ "type": "Feature", "properties": { "内容": "高津診療所【通所リハビリテーション】愛媛県新居浜市高津町3番20号", "url": "https://www.kaigokensaku.mhlw.go.jp/38/index.php?action_kouhyou_detail_004_kani=true&JigyosyoCd=3810510481-00&ServiceCd=160&Type=search", "url2": "http://www.shikoku.ne.jp/nii-coop/" }, "geometry": { "type": "Point", "coordinates": [ 133.300430300000016, 33.9709331 ] } },
{ "type": "Feature", "properties": { "内容": "中萩診療所【通所リハビリテーション】愛媛県新居浜市萩生1061番地", "url": "https://www.kaigokensaku.mhlw.go.jp/38/index.php?action_kouhyou_detail_004_kani=true&JigyosyoCd=3810510937-00&ServiceCd=160&Type=search", "url2": null }, "geometry": { "type": "Point", "coordinates": [ 133.266590299999962, 33.9258956 ] } },
{ "type": "Feature", "properties": { "内容": "愛媛医療生活協組合　新居浜協立病院【通所リハビリテーション】若水町　1丁目　7-45", "url": "https://www.kaigokensaku.mhlw.go.jp/38/index.php?action_kouhyou_detail_004_kani=true&JigyosyoCd=3810528145-00&ServiceCd=160&Type=search", "url2": "kyoritsu@ehime-med.or.jp" }, "geometry": { "type": "Point", "coordinates": [ 133.278729399999946, 33.9662277 ] } },
{ "type": "Feature", "properties": { "内容": "通所リハビリテーションはぴねすケアセンター【通所リハビリテーション】愛媛県新居浜市多喜浜二丁目１番５０号", "url": "https://www.kaigokensaku.mhlw.go.jp/38/index.php?action_kouhyou_detail_004_kani=true&JigyosyoCd=3857780161-00&ServiceCd=160&Type=search", "url2": "http://www.hapinesu.com" }, "geometry": { "type": "Point", "coordinates": [ 133.330248900000015, 33.9753353 ] } },
{ "type": "Feature", "properties": { "内容": "通所リハビリテーション事業所　リハビリステーション三恵荘【通所リハビリテーション】愛媛県新居浜市萩生河ノ北67番60", "url": "https://www.kaigokensaku.mhlw.go.jp/38/index.php?action_kouhyou_detail_004_kani=true&JigyosyoCd=3857780229-00&ServiceCd=160&Type=search", "url2": "http://www.sankeiso.sankeikai.com" }, "geometry": { "type": "Point", "coordinates": [ 133.261635100000035, 33.9305229 ] } },
{ "type": "Feature", "properties": { "内容": "介護老人保健施設ふなき久和園【通所リハビリテーション】愛媛県新居浜市船木甲3656-8", "url": "https://www.kaigokensaku.mhlw.go.jp/38/index.php?action_kouhyou_detail_004_kani=true&JigyosyoCd=3857780401-00&ServiceCd=160&Type=search", "url2": "http://www.kyuuwa-niihama.jp" }, "geometry": { "type": "Point", "coordinates": [ 133.329376, 33.928677 ] } },
{ "type": "Feature", "properties": { "内容": "介護老人保健施設若水ケアセンター【通所リハビリテーション】愛媛県新居浜市若水町一丁目9番13号", "url": "https://www.kaigokensaku.mhlw.go.jp/38/index.php?action_kouhyou_detail_004_kani=true&JigyosyoCd=3857780575-00&ServiceCd=160&Type=search", "url2": "http://www.hapinesu.com/" }, "geometry": { "type": "Point", "coordinates": [ 133.277701699999966, 33.9659138 ] } },
{ "type": "Feature", "properties": { "内容": "医療法人社団久和会　立花病院【通所リハビリテーション】愛媛県新居浜市喜光地町1-13-29", "url": "https://www.kaigokensaku.mhlw.go.jp/38/index.php?action_kouhyou_detail_004_kani=true&JigyosyoCd=3810528251-00&ServiceCd=160&Type=search", "url2": "http://kyuuwa-niihama.jp/index.php" }, "geometry": { "type": "Point", "coordinates": [ 133.30207214907378, 33.934875159260955 ] } },
{ "type": "Feature", "properties": { "内容": "岩崎病院【通所リハビリテーション】愛媛県新居浜市中萩町2-5", "url": "https://www.kaigokensaku.mhlw.go.jp/38/index.php?action_kouhyou_detail_004_kani=true&JigyosyoCd=3810528301-00&ServiceCd=160&Type=search", "url2": "http://www.shikoku.ne.jp/iwasaki/" }, "geometry": { "type": "Point", "coordinates": [ 133.2845337, 33.9307591 ] } },
{ "type": "Feature", "properties": { "内容": "ながやす整形外科クリニック【通所リハビリテーション】愛媛県新居浜市宮西町1−15", "url": "https://www.kaigokensaku.mhlw.go.jp/38/index.php?action_kouhyou_detail_004_kani=true&JigyosyoCd=3810510606-00&ServiceCd=160&Type=search", "url2": null }, "geometry": { "type": "Point", "coordinates": [ 133.27817490000001, 33.9604347 ] } },
{ "type": "Feature", "properties": { "内容": "今井クリニック整形外科【通所リハビリテーション】愛媛県西条市丹原町今井106-1", "url": "https://www.kaigokensaku.mhlw.go.jp/38/index.php?action_kouhyou_detail_004_kani=true&JigyosyoCd=3810610505-00&ServiceCd=160&Type=search", "url2": "imai-clinic.net" }, "geometry": { "type": "Point", "coordinates": [ 133.056026, 33.900693 ] } },
{ "type": "Feature", "properties": { "内容": "西条中央病院【通所リハビリテーション】愛媛県西条市朔日市804番地", "url": "https://www.kaigokensaku.mhlw.go.jp/38/index.php?action_kouhyou_detail_004_kani=true&JigyosyoCd=3810628135-00&ServiceCd=160&Type=search", "url2": "http://www.saijo-c-hospital.jp/" }, "geometry": { "type": "Point", "coordinates": [ 133.180863232038945, 33.928623852138919 ] } },
{ "type": "Feature", "properties": { "内容": "通所リハビリテーションゆるぎ荘【通所リハビリテーション】愛媛県西条市福武字蔵ノ尾甲162番地の1", "url": "https://www.kaigokensaku.mhlw.go.jp/38/index.php?action_kouhyou_detail_004_kani=true&JigyosyoCd=3857780039-00&ServiceCd=160&Type=search", "url2": "yurugisou@trad.ocn.ne.jp" }, "geometry": { "type": "Point", "coordinates": [ 133.181169700000027, 33.9195105 ] } },
{ "type": "Feature", "properties": { "内容": "済生会西条老人保健施設いしづち苑【通所リハビリテーション】愛媛県西条市朔日市269番地1", "url": "https://www.kaigokensaku.mhlw.go.jp/38/index.php?action_kouhyou_detail_004_kani=true&JigyosyoCd=3857780187-00&ServiceCd=160&Type=search", "url2": "https://www.saiseikaisaijo.jp/ishiduchi-top/" }, "geometry": { "type": "Point", "coordinates": [ 133.191021800000044, 33.9287072 ] } },
{ "type": "Feature", "properties": { "内容": "老人保健施設コスモス【通所リハビリテーション】愛媛県西条市周布338番地", "url": "https://www.kaigokensaku.mhlw.go.jp/38/index.php?action_kouhyou_detail_004_kani=true&JigyosyoCd=3857780237-00&ServiceCd=160&Type=search", "url2": "http://www.cosmos-2012.com" }, "geometry": { "type": "Point", "coordinates": [ 133.086625700000013, 33.9256241 ] } },
{ "type": "Feature", "properties": { "内容": "老人保健施設水都苑【通所リハビリテーション】愛媛県西条市大町739番地", "url": "https://www.kaigokensaku.mhlw.go.jp/38/index.php?action_kouhyou_detail_004_kani=true&JigyosyoCd=3857780302-00&ServiceCd=160&Type=search", "url2": "http://www.murakami-kinen.or.jp/suitoen/" }, "geometry": { "type": "Point", "coordinates": [ 133.189780299999939, 33.9148445 ] } },
{ "type": "Feature", "properties": { "内容": "老人保健施設あすか【通所リハビリテーション】愛媛県西条市丹原町古田甲167番地1", "url": "https://www.kaigokensaku.mhlw.go.jp/38/index.php?action_kouhyou_detail_004_kani=true&JigyosyoCd=3857780468-00&ServiceCd=160&Type=search", "url2": "http://www.koujin.net" }, "geometry": { "type": "Point", "coordinates": [ 133.059552428680462, 33.918628151547423 ] } },
{ "type": "Feature", "properties": { "内容": "老人保健施設リハ・クリネ通所リハビリテーション【通所リハビリテーション】愛媛県西条市小松町新屋敷甲2385-1", "url": "https://www.kaigokensaku.mhlw.go.jp/38/index.php?action_kouhyou_detail_004_kani=true&JigyosyoCd=3857780476-00&ServiceCd=160&Type=search", "url2": "http://www.rihakurine.com/" }, "geometry": { "type": "Point", "coordinates": [ 133.107831406684909, 33.893418708518539 ] } },
{ "type": "Feature", "properties": { "内容": "西条市立周桑病院【通所リハビリテーション】愛媛県西条市壬生川131番地", "url": "https://www.kaigokensaku.mhlw.go.jp/38/index.php?action_kouhyou_detail_004_kani=true&JigyosyoCd=3810610331-00&ServiceCd=160&Type=search", "url2": "http://www.shuso-hospital.jp/" }, "geometry": { "type": "Point", "coordinates": [ 133.0784189, 33.9328601 ] } },
{ "type": "Feature", "properties": { "内容": "西条市民病院【通所リハビリテーション】愛媛県西条市小松町妙口甲1521番地", "url": "https://www.kaigokensaku.mhlw.go.jp/38/index.php?action_kouhyou_detail_004_kani=true&JigyosyoCd=3870601527-00&ServiceCd=160&Type=search", "url2": "http://saijo-hospital.jp/" }, "geometry": { "type": "Point", "coordinates": [ 133.089892912641972, 33.895679425077795 ] } },
{ "type": "Feature", "properties": { "内容": "デイケア暖だん【通所リハビリテーション】愛媛県西条市飯岡字原之段１２９２番地", "url": "https://www.kaigokensaku.mhlw.go.jp/38/index.php?action_kouhyou_detail_004_kani=true&JigyosyoCd=3810610000-00&ServiceCd=160&Type=search", "url2": null }, "geometry": { "type": "Point", "coordinates": [ 133.234721849516745, 33.920562418030514 ] } },
{ "type": "Feature", "properties": { "内容": "介護老人保健施設ひまわり【通所リハビリテーション】愛媛県大洲市徳森1508番地1", "url": "https://www.kaigokensaku.mhlw.go.jp/38/index.php?action_kouhyou_detail_004_kani=true&JigyosyoCd=3857780088-00&ServiceCd=160&Type=search", "url2": "http://www.ozu-johukai.jp/" }, "geometry": { "type": "Point", "coordinates": [ 132.582899600000019, 33.5309362 ] } },
{ "type": "Feature", "properties": { "内容": "老人保健施設フレンド【通所リハビリテーション】愛媛県大洲市東大洲39", "url": "https://www.kaigokensaku.mhlw.go.jp/38/index.php?action_kouhyou_detail_004_kani=true&JigyosyoCd=3857780393-00&ServiceCd=160&Type=search", "url2": "https://friend-kg.jp/" }, "geometry": { "type": "Point", "coordinates": [ 132.551677299999938, 33.5168064 ] } },
{ "type": "Feature", "properties": { "内容": "介護老人保健施設　長浜ひまわり【通所リハビリテーション】愛媛県大洲市柴甲1422番地3", "url": "https://www.kaigokensaku.mhlw.go.jp/38/index.php?action_kouhyou_detail_004_kani=true&JigyosyoCd=3857780534-00&ServiceCd=160&Type=search", "url2": "http://www.ozu-johukai.jp" }, "geometry": { "type": "Point", "coordinates": [ 132.52097313090843, 33.57860759986405 ] } },
{ "type": "Feature", "properties": { "内容": "医療法人肱嵐会石村病院【通所リハビリテーション】愛媛県大洲市長浜甲176番地", "url": "https://www.kaigokensaku.mhlw.go.jp/38/index.php?action_kouhyou_detail_004_kani=true&JigyosyoCd=3813628124-00&ServiceCd=160&Type=search", "url2": null }, "geometry": { "type": "Point", "coordinates": [ 132.481803300000024, 33.6134442 ] } },
{ "type": "Feature", "properties": { "内容": "伊予診療所【通所リハビリテーション】愛媛県伊予市下吾川55番地1", "url": "https://www.kaigokensaku.mhlw.go.jp/38/index.php?action_kouhyou_detail_004_kani=true&JigyosyoCd=3811028053-00&ServiceCd=160&Type=search", "url2": null }, "geometry": { "type": "Point", "coordinates": [ 132.712272798877365, 33.759734283774591 ] } },
{ "type": "Feature", "properties": { "内容": "きはら整形外科【通所リハビリテーション】愛媛県伊予市米湊815番地1", "url": "https://www.kaigokensaku.mhlw.go.jp/38/index.php?action_kouhyou_detail_004_kani=true&JigyosyoCd=3811010275-00&ServiceCd=160&Type=search", "url2": "https://www.kihara-seikei.com" }, "geometry": { "type": "Point", "coordinates": [ 132.7042692, 33.7582856 ] } },
{ "type": "Feature", "properties": { "内容": "老人保健施設　伊予ヶ丘【通所リハビリテーション】愛媛県伊予市八倉917番地1", "url": "https://www.kaigokensaku.mhlw.go.jp/38/index.php?action_kouhyou_detail_004_kani=true&JigyosyoCd=3857780120-00&ServiceCd=160&Type=search", "url2": "http://www.iyohp.jp/" }, "geometry": { "type": "Point", "coordinates": [ 132.771122200000036, 33.7838081 ] } },
{ "type": "Feature", "properties": { "内容": "一般財団法人新居浜精神衛生研究所附属豊岡台病院【通所リハビリテーション】愛媛県四国中央市豊岡町長田603-1", "url": "https://www.kaigokensaku.mhlw.go.jp/38/index.php?action_kouhyou_detail_004_kani=true&JigyosyoCd=3810918023-00&ServiceCd=160&Type=search", "url2": "http://www.toyookadai-hosp.or.jp/" }, "geometry": { "type": "Point", "coordinates": [ 133.4751943, 33.9719606 ] } },
{ "type": "Feature", "properties": { "内容": "松岡整形外科医院【通所リハビリテーション】愛媛県四国中央市川之江町329-8松岡整形外科医院", "url": "https://www.kaigokensaku.mhlw.go.jp/38/index.php?action_kouhyou_detail_004_kani=true&JigyosyoCd=3811310261-00&ServiceCd=160&Type=search", "url2": "https://www.matsuokaseikei.com/" }, "geometry": { "type": "Point", "coordinates": [ 133.5666262, 34.0023835 ] } },
{ "type": "Feature", "properties": { "内容": "通所リハビリテーション　くりのみ2【通所リハビリテーション】愛媛県四国中央市中之庄町402-1", "url": "https://www.kaigokensaku.mhlw.go.jp/38/index.php?action_kouhyou_detail_004_kani=true&JigyosyoCd=3810910152-00&ServiceCd=160&Type=search", "url2": null }, "geometry": { "type": "Point", "coordinates": [ 133.532274408598369, 33.976318531087003 ] } },
{ "type": "Feature", "properties": { "内容": "医療法人康人会西岡病院【通所リハビリテーション】愛媛県四国中央市三島金子2丁目7-22", "url": "https://www.kaigokensaku.mhlw.go.jp/38/index.php?action_kouhyou_detail_004_kani=true&JigyosyoCd=3810928105-00&ServiceCd=160&Type=search", "url2": "http://www.nishioka-hp.com" }, "geometry": { "type": "Point", "coordinates": [ 133.537529, 33.9798576 ] } },
{ "type": "Feature", "properties": { "内容": "デイケア　ひかり２【通所リハビリテーション】愛媛県四国中央市三島金子1丁目4番31号", "url": "https://www.kaigokensaku.mhlw.go.jp/38/index.php?action_kouhyou_detail_004_kani=true&JigyosyoCd=3811310022-00&ServiceCd=160&Type=search", "url2": null }, "geometry": { "type": "Point", "coordinates": [ 133.5379845, 33.9816129 ] } },
{ "type": "Feature", "properties": { "内容": "老人保健施設ちかい【通所リハビリテーション】愛媛県四国中央市土居町土居2227番地32", "url": "https://www.kaigokensaku.mhlw.go.jp/38/index.php?action_kouhyou_detail_004_kani=true&JigyosyoCd=3857780484-00&ServiceCd=160&Type=search", "url2": "https://chikaisisetu.jimdofree.com/" }, "geometry": { "type": "Point", "coordinates": [ 133.414509299999963, 33.9614655 ] } },
{ "type": "Feature", "properties": { "内容": "通所リハビリテーションくりのみ館【通所リハビリテーション】愛媛県四国中央市中之庄町393-1", "url": "https://www.kaigokensaku.mhlw.go.jp/38/index.php?action_kouhyou_detail_004_kani=true&JigyosyoCd=3857780591-00&ServiceCd=160&Type=search", "url2": null }, "geometry": { "type": "Point", "coordinates": [ 133.531882099999962, 33.9767329 ] } },
{ "type": "Feature", "properties": { "内容": "長谷川病院　通所リハビリテーションはるかぜ【通所リハビリテーション】愛媛県四国中央市金生町下分1249の1", "url": "https://www.kaigokensaku.mhlw.go.jp/38/index.php?action_kouhyou_detail_004_kani=true&JigyosyoCd=3871301168-00&ServiceCd=160&Type=search", "url2": "http://meisei-hasegawa.com/" }, "geometry": { "type": "Point", "coordinates": [ 133.580380600000012, 33.9978941 ] } },
{ "type": "Feature", "properties": { "内容": "通所リハビリテーション事業所アイリス【通所リハビリテーション】愛媛県四国中央市上分町732番地1", "url": "https://www.kaigokensaku.mhlw.go.jp/38/index.php?action_kouhyou_detail_004_kani=true&JigyosyoCd=3851380026-00&ServiceCd=160&Type=search", "url2": "http://kenkou-kai.jp/" }, "geometry": { "type": "Point", "coordinates": [ 133.58867443809811, 33.991389616349124 ] } },
{ "type": "Feature", "properties": { "内容": "西予市野村介護老人保健施設つくし苑【通所リハビリテーション】愛媛県西予市野村町野村9号47番地3", "url": "https://www.kaigokensaku.mhlw.go.jp/38/index.php?action_kouhyou_detail_004_kani=true&JigyosyoCd=3851480016-00&ServiceCd=160&Type=search", "url2": "https://www.seiyo-mh.jp/site/seiyo-tsukushi/" }, "geometry": { "type": "Point", "coordinates": [ 132.641104899999959, 33.3727568 ] } },
{ "type": "Feature", "properties": { "内容": "老人保健施設うわ【通所リハビリテーション】愛媛県西予市宇和町上松葉176番地1", "url": "https://www.kaigokensaku.mhlw.go.jp/38/index.php?action_kouhyou_detail_004_kani=true&JigyosyoCd=3857780294-00&ServiceCd=160&Type=search", "url2": "http://www.kojinkai.jp" }, "geometry": { "type": "Point", "coordinates": [ 132.502539800000022, 33.3852863 ] } },
{ "type": "Feature", "properties": { "内容": "老人保健施設みのり園【通所リハビリテーション】愛媛県西予市三瓶町朝立1-386-1", "url": "https://www.kaigokensaku.mhlw.go.jp/38/index.php?action_kouhyou_detail_004_kani=true&JigyosyoCd=3857780369-00&ServiceCd=160&Type=search", "url2": null }, "geometry": { "type": "Point", "coordinates": [ 132.4231714, 33.3837064 ] } },
{ "type": "Feature", "properties": { "内容": "池川内科・神経内科【通所リハビリテーション】愛媛県東温市志津川89番地3", "url": "https://www.kaigokensaku.mhlw.go.jp/38/index.php?action_kouhyou_detail_004_kani=true&JigyosyoCd=3813310111-00&ServiceCd=160&Type=search", "url2": null }, "geometry": { "type": "Point", "coordinates": [ 132.880026, 33.8068971 ] } },
{ "type": "Feature", "properties": { "内容": "愛媛十全医療学院附属病院【通所リハビリテーション】愛媛県東温市南方561番地", "url": "https://www.kaigokensaku.mhlw.go.jp/38/index.php?action_kouhyou_detail_004_kani=true&JigyosyoCd=3813328121-00&ServiceCd=160&Type=search", "url2": "http://www.ehime-juzen.jp/" }, "geometry": { "type": "Point", "coordinates": [ 132.91056750000007, 33.7981239 ] } },
{ "type": "Feature", "properties": { "内容": "医療法人順風会　介護老人保健施設長安【通所リハビリテーション】愛媛県東温市志津川片山甲29番地1", "url": "https://www.kaigokensaku.mhlw.go.jp/38/index.php?action_kouhyou_detail_004_kani=true&JigyosyoCd=3857780278-00&ServiceCd=160&Type=search", "url2": "http://www.junpu.or.jp/choan.rohken/" }, "geometry": { "type": "Point", "coordinates": [ 132.8728489, 33.796737 ] } },
{ "type": "Feature", "properties": { "内容": "通所リハビリテーション　希望の館【通所リハビリテーション】愛媛県東温市則之内甲2783-1", "url": "https://www.kaigokensaku.mhlw.go.jp/38/index.php?action_kouhyou_detail_004_kani=true&JigyosyoCd=3857780500-00&ServiceCd=160&Type=search", "url2": "http://www.kibounoyakata.sankeikai.com" }, "geometry": { "type": "Point", "coordinates": [ 132.921456654800409, 33.792968708351168 ] } },
{ "type": "Feature", "properties": { "内容": "西本整形外科【通所リハビリテーション】愛媛県東温市田窪303-1", "url": "https://www.kaigokensaku.mhlw.go.jp/38/index.php?action_kouhyou_detail_004_kani=true&JigyosyoCd=3813310046-00&ServiceCd=160&Type=search", "url2": null }, "geometry": { "type": "Point", "coordinates": [ 132.8665995, 33.7916596 ] } },
{ "type": "Feature", "properties": { "内容": "久万高原町立老人保健施設あけぼの【通所リハビリテーション】愛媛県上浮穴郡久万高原町久万71番地1", "url": "https://www.kaigokensaku.mhlw.go.jp/38/index.php?action_kouhyou_detail_004_kani=true&JigyosyoCd=3853480014-00&ServiceCd=160&Type=search", "url2": "http://www.town.kumakogen.ehime.jp/k-hospital/akebono/gaiyo.html" }, "geometry": { "type": "Point", "coordinates": [ 132.904720700000013, 33.6550863 ] } },
{ "type": "Feature", "properties": { "内容": "医療法人光佑会老人保健施設菜の花【通所リハビリテーション】愛媛県伊予郡松前町大字神崎578番地1", "url": "https://www.kaigokensaku.mhlw.go.jp/38/index.php?action_kouhyou_detail_004_kani=true&JigyosyoCd=3857780260-00&ServiceCd=160&Type=search", "url2": null }, "geometry": { "type": "Point", "coordinates": [ 132.7379949, 33.7871487 ] } },
{ "type": "Feature", "properties": { "内容": "東岡整形外科通所リハビリテーション・訪問リハビリテーション【通所リハビリテーション】愛媛県伊予郡松前町恵久美670番地1", "url": "https://www.kaigokensaku.mhlw.go.jp/38/index.php?action_kouhyou_detail_004_kani=true&JigyosyoCd=3813510223-00&ServiceCd=160&Type=search", "url2": null }, "geometry": { "type": "Point", "coordinates": [ 132.722596900000013, 33.7946872 ] } },
{ "type": "Feature", "properties": { "内容": "医療法人　順風会　八倉医院【通所リハビリテーション】愛媛県伊予郡砥部町重光275-1", "url": "https://www.kaigokensaku.mhlw.go.jp/38/index.php?action_kouhyou_detail_004_kani=true&JigyosyoCd=3813510363-00&ServiceCd=160&Type=search", "url2": "http://www.atomgroup.net/jun/yak.htm" }, "geometry": { "type": "Point", "coordinates": [ 132.778552, 33.7863303 ] } },
{ "type": "Feature", "properties": { "内容": "介護老人保健施設とべ和合苑【通所リハビリテーション】愛媛県伊予郡砥部町北川毛1412-3", "url": "https://www.kaigokensaku.mhlw.go.jp/38/index.php?action_kouhyou_detail_004_kani=true&JigyosyoCd=3857780492-00&ServiceCd=160&Type=search", "url2": "http://www.kouyoukai.biz/" }, "geometry": { "type": "Point", "coordinates": [ 132.786003100000016, 33.7395023 ] } },
{ "type": "Feature", "properties": { "内容": "土居内科外科医院【通所リハビリテーション】愛媛県　喜多郡　内子町　平岡　甲135番地1土居内科外科医院", "url": "https://www.kaigokensaku.mhlw.go.jp/38/index.php?action_kouhyou_detail_004_kani=true&JigyosyoCd=3813610023-00&ServiceCd=160&Type=search", "url2": null }, "geometry": { "type": "Point", "coordinates": [ 132.659945200000038, 33.5350129 ] } },
{ "type": "Feature", "properties": { "内容": "済生会小田老人保健施設ふじの園【通所リハビリテーション】愛媛県喜多郡内子町小田149-1", "url": "https://www.kaigokensaku.mhlw.go.jp/38/index.php?action_kouhyou_detail_004_kani=true&JigyosyoCd=3857780179-00&ServiceCd=160&Type=search", "url2": null }, "geometry": { "type": "Point", "coordinates": [ 132.8042021, 33.567929 ] } },
{ "type": "Feature", "properties": { "内容": "介護老人保健施設アンジュ【通所リハビリテーション】愛媛県喜多郡内子町平岡甲133番地", "url": "https://www.kaigokensaku.mhlw.go.jp/38/index.php?action_kouhyou_detail_004_kani=true&JigyosyoCd=3857780542-00&ServiceCd=160&Type=search", "url2": "http://rikyukai.web.fc2.com/index1.html" }, "geometry": { "type": "Point", "coordinates": [ 132.659406098385602, 33.53210234022751 ] } },
{ "type": "Feature", "properties": { "内容": "介護老人保健施設　アンビションうちこ園【通所リハビリテーション】愛媛県喜多郡内子町内子3683番地", "url": "https://www.kaigokensaku.mhlw.go.jp/38/index.php?action_kouhyou_detail_004_kani=true&JigyosyoCd=3857780559-00&ServiceCd=160&Type=search", "url2": "https://www.uchiko.taishikai.com" }, "geometry": { "type": "Point", "coordinates": [ 132.6428575, 33.5518993 ] } },
{ "type": "Feature", "properties": { "内容": "介護老人保健施設たんぽぽ【通所リハビリテーション】愛媛県北宇和郡鬼北町大字近永574番地", "url": "https://www.kaigokensaku.mhlw.go.jp/38/index.php?action_kouhyou_detail_004_kani=true&JigyosyoCd=3857780427-00&ServiceCd=160&Type=search", "url2": "http://wwwc.pikara.ne.jp/tanpopo/index.htm" }, "geometry": { "type": "Point", "coordinates": [ 132.674035099999969, 33.2571013 ] } },
{ "type": "Feature", "properties": { "内容": "老人保健施設なんぐん館【通所リハビリテーション】愛媛県南宇和郡愛南町御荘深泥703-2", "url": "https://www.kaigokensaku.mhlw.go.jp/38/index.php?action_kouhyou_detail_004_kani=true&JigyosyoCd=3857780435-00&ServiceCd=160&Type=search", "url2": "http://www.nangunkan.justhpbs.jp/" }, "geometry": { "type": "Point", "coordinates": [ 132.542570500000011, 32.9598296 ] } }
]
}
