{
"type": "FeatureCollection",
"name": "geo_38_4",
"crs": { "type": "name", "properties": { "name": "urn:ogc:def:crs:OGC:1.3:CRS84" } },
"features": [
{ "type": "Feature", "properties": { "ID": 3840000000000, "正式名称": "てらお助産院", "機関区分": 4, "都道府県コード": 38, "市区町村コード": 207, "所在地": "愛媛県大洲市菅田町菅田甲２３７０－５", "緯度": 33.509354, "経度": 132.59123, "url": "https://www.iryou.teikyouseido.mhlw.go.jp/znk-web/juminkanja/S2430/initialize?prefCd=38&kikanCd=0000000000&kikanKbn=4", "url2": "terao-mh,com", "内容": "てらお助産院【4:助産院】愛媛県大洲市菅田町菅田甲２３７０－５" }, "geometry": { "type": "Point", "coordinates": [ 132.59123, 33.509354 ] } },
{ "type": "Feature", "properties": { "ID": 3845383100006, "正式名称": "ますみ助産院", "機関区分": 4, "都道府県コード": 38, "市区町村コード": 201, "所在地": "愛媛県松山市春日町６－１１　サーパス市駅南１００３号", "緯度": 33.832826, "経度": 132.764596, "url": "https://www.iryou.teikyouseido.mhlw.go.jp/znk-web/juminkanja/S2430/initialize?prefCd=38&kikanCd=5383100006&kikanKbn=4", "url2": "https://masumijyosanin.localinfo.jp", "内容": "ますみ助産院【4:助産院】愛媛県松山市春日町６－１１　サーパス市駅南１００３号" }, "geometry": { "type": "Point", "coordinates": [ 132.764596, 33.832826 ] } },
{ "type": "Feature", "properties": { "ID": 3845383100100, "正式名称": "一般社団法人愛媛助産師会　まつやま助産院", "機関区分": 4, "都道府県コード": 38, "市区町村コード": 201, "所在地": "愛媛県松山市中一万町２－１", "緯度": 33.846408, "経度": 132.774983, "url": "https://www.iryou.teikyouseido.mhlw.go.jp/znk-web/juminkanja/S2430/initialize?prefCd=38&kikanCd=5383100100&kikanKbn=4", "url2": "https//matsujyo.com", "内容": "一般社団法人愛媛助産師会　まつやま助産院【4:助産院】愛媛県松山市中一万町２－１" }, "geometry": { "type": "Point", "coordinates": [ 132.774983, 33.846408 ] } },
{ "type": "Feature", "properties": { "ID": 3845385100100, "正式名称": "マミー助産院", "機関区分": 4, "都道府県コード": 38, "市区町村コード": 213, "所在地": "愛媛県四国中央市土居町北野甲５８７－３", "緯度": 33.952336, "経度": 133.391993, "url": "https://www.iryou.teikyouseido.mhlw.go.jp/znk-web/juminkanja/S2430/initialize?prefCd=38&kikanCd=5385100100&kikanKbn=4", "url2": "https://mamijyosanin.jimdo.com/", "内容": "マミー助産院【4:助産院】愛媛県四国中央市土居町北野甲５８７－３" }, "geometry": { "type": "Point", "coordinates": [ 133.391993, 33.952336 ] } },
{ "type": "Feature", "properties": { "ID": 3845386400105, "正式名称": "はらだ助産院", "機関区分": 4, "都道府県コード": 38, "市区町村コード": 204, "所在地": "愛媛県八幡浜市", "緯度": 33.446893, "経度": 132.43583, "url": "https://www.iryou.teikyouseido.mhlw.go.jp/znk-web/juminkanja/S2430/initialize?prefCd=38&kikanCd=5386400105&kikanKbn=4", "url2": null, "内容": "はらだ助産院【4:助産院】愛媛県八幡浜市" }, "geometry": { "type": "Point", "coordinates": [ 132.43583, 33.446893 ] } },
{ "type": "Feature", "properties": { "ID": 3845386400107, "正式名称": "あやか助産院", "機関区分": 4, "都道府県コード": 38, "市区町村コード": 213, "所在地": "愛媛県四国中央市", "緯度": 33.981422, "経度": 133.54472, "url": "https://www.iryou.teikyouseido.mhlw.go.jp/znk-web/juminkanja/S2430/initialize?prefCd=38&kikanCd=5386400107&kikanKbn=4", "url2": "https://ayakajosanin.amebaownd.com/", "内容": "あやか助産院【4:助産院】愛媛県四国中央市" }, "geometry": { "type": "Point", "coordinates": [ 133.54472, 33.981422 ] } },
{ "type": "Feature", "properties": { "ID": 3845386400108, "正式名称": "出張専門助産所　ｎｏｇａｍｉｄｗｉｆｅ", "機関区分": 4, "都道府県コード": 38, "市区町村コード": 201, "所在地": "愛媛県松山市北斎院町", "緯度": 33.838745, "経度": 132.72722, "url": "https://www.iryou.teikyouseido.mhlw.go.jp/znk-web/juminkanja/S2430/initialize?prefCd=38&kikanCd=5386400108&kikanKbn=4", "url2": "https://nogamidwife.amebaownd.com/", "内容": "出張専門助産所　ｎｏｇａｍｉｄｗｉｆｅ【4:助産院】愛媛県松山市北斎院町" }, "geometry": { "type": "Point", "coordinates": [ 132.72722, 33.838745 ] } },
{ "type": "Feature", "properties": { "ID": 3845386400111, "正式名称": "助産院ぬくもり", "機関区分": 4, "都道府県コード": 38, "市区町村コード": 203, "所在地": "愛媛県宇和島市", "緯度": 33.222225, "経度": 132.56512, "url": "https://www.iryou.teikyouseido.mhlw.go.jp/znk-web/juminkanja/S2430/initialize?prefCd=38&kikanCd=5386400111&kikanKbn=4", "url2": null, "内容": "助産院ぬくもり【4:助産院】愛媛県宇和島市" }, "geometry": { "type": "Point", "coordinates": [ 132.56512, 33.222225 ] } },
{ "type": "Feature", "properties": { "ID": 3845386400112, "正式名称": "出張訪問助産師すずき", "機関区分": 4, "都道府県コード": 38, "市区町村コード": 206, "所在地": "愛媛県西条市飯岡３８１－８９", "緯度": 33.916889, "経度": 133.243631, "url": "https://www.iryou.teikyouseido.mhlw.go.jp/znk-web/juminkanja/S2430/initialize?prefCd=38&kikanCd=5386400112&kikanKbn=4", "url2": null, "内容": "出張訪問助産師すずき【4:助産院】愛媛県西条市飯岡３８１－８９" }, "geometry": { "type": "Point", "coordinates": [ 133.243631, 33.916889 ] } },
{ "type": "Feature", "properties": { "ID": 3845386400113, "正式名称": "ＬＡＢＯ助産院", "機関区分": 4, "都道府県コード": 38, "市区町村コード": 206, "所在地": "愛媛県西条市朔日市７３７番地の３　八絋２階", "緯度": 33.934426, "経度": 133.190073, "url": "https://www.iryou.teikyouseido.mhlw.go.jp/znk-web/juminkanja/S2430/initialize?prefCd=38&kikanCd=5386400113&kikanKbn=4", "url2": "linktr.ee/labo.mw", "内容": "ＬＡＢＯ助産院【4:助産院】愛媛県西条市朔日市７３７番地の３　八絋２階" }, "geometry": { "type": "Point", "coordinates": [ 133.190073, 33.934426 ] } },
{ "type": "Feature", "properties": { "ID": 3845386400115, "正式名称": "出張専門　せき助産院", "機関区分": 4, "都道府県コード": 38, "市区町村コード": 201, "所在地": "愛媛県松山市桑原－", "緯度": 33.830093, "経度": 132.79283, "url": "https://www.iryou.teikyouseido.mhlw.go.jp/znk-web/juminkanja/S2430/initialize?prefCd=38&kikanCd=5386400115&kikanKbn=4", "url2": null, "内容": "出張専門　せき助産院【4:助産院】愛媛県松山市桑原－" }, "geometry": { "type": "Point", "coordinates": [ 132.79283, 33.830093 ] } },
{ "type": "Feature", "properties": { "ID": 3845386400116, "正式名称": "ゆう助産院", "機関区分": 4, "都道府県コード": 38, "市区町村コード": 202, "所在地": "愛媛県今治市横田町", "緯度": 34.047234, "経度": 133.00865, "url": "https://www.iryou.teikyouseido.mhlw.go.jp/znk-web/juminkanja/S2430/initialize?prefCd=38&kikanCd=5386400116&kikanKbn=4", "url2": null, "内容": "ゆう助産院【4:助産院】愛媛県今治市横田町" }, "geometry": { "type": "Point", "coordinates": [ 133.00865, 34.047234 ] } },
{ "type": "Feature", "properties": { "ID": 3845386400119, "正式名称": "ｈｉｔｏｂｉｔｏ－ひとびと－　助産院", "機関区分": 4, "都道府県コード": 38, "市区町村コード": 205, "所在地": "愛媛県新居浜市郷", "緯度": 33.966885, "経度": 133.31274, "url": "https://www.iryou.teikyouseido.mhlw.go.jp/znk-web/juminkanja/S2430/initialize?prefCd=38&kikanCd=5386400119&kikanKbn=4", "url2": null, "内容": "ｈｉｔｏｂｉｔｏ－ひとびと－　助産院【4:助産院】愛媛県新居浜市郷" }, "geometry": { "type": "Point", "coordinates": [ 133.31274, 33.966885 ] } },
{ "type": "Feature", "properties": { "ID": 3845386400121, "正式名称": "産前産後ケアハウスＦＵＷＡＲＩ", "機関区分": 4, "都道府県コード": 38, "市区町村コード": 205, "所在地": "愛媛県新居浜市萩生３００番地２", "緯度": 33.934373, "経度": 133.274644, "url": "https://www.iryou.teikyouseido.mhlw.go.jp/znk-web/juminkanja/S2430/initialize?prefCd=38&kikanCd=5386400121&kikanKbn=4", "url2": "https://sangokea-ehime-niihama-fuwari.hp.peraichi.com", "内容": "産前産後ケアハウスＦＵＷＡＲＩ【4:助産院】愛媛県新居浜市萩生３００番地２" }, "geometry": { "type": "Point", "coordinates": [ 133.274644, 33.934373 ] } },
{ "type": "Feature", "properties": { "ID": 3845386400122, "正式名称": "めいぷる助産院", "機関区分": 4, "都道府県コード": 38, "市区町村コード": 202, "所在地": "愛媛県今治市新谷甲１１－２", "緯度": 34.026383, "経度": 133.00197, "url": "https://www.iryou.teikyouseido.mhlw.go.jp/znk-web/juminkanja/S2430/initialize?prefCd=38&kikanCd=5386400122&kikanKbn=4", "url2": "https://maple-imabari.jimdosite.com/", "内容": "めいぷる助産院【4:助産院】愛媛県今治市新谷甲１１－２" }, "geometry": { "type": "Point", "coordinates": [ 133.00197, 34.026383 ] } },
{ "type": "Feature", "properties": { "ID": 3845386400123, "正式名称": "どんぐり助産院", "機関区分": 4, "都道府県コード": 38, "市区町村コード": 205, "所在地": "愛媛県新居浜市中村ー", "緯度": 33.932711, "経度": 133.286975, "url": "https://www.iryou.teikyouseido.mhlw.go.jp/znk-web/juminkanja/S2430/initialize?prefCd=38&kikanCd=5386400123&kikanKbn=4", "url2": null, "内容": "どんぐり助産院【4:助産院】愛媛県新居浜市中村ー" }, "geometry": { "type": "Point", "coordinates": [ 133.286975, 33.932711 ] } },
{ "type": "Feature", "properties": { "ID": 3845386400124, "正式名称": "なないろ助産院", "機関区分": 4, "都道府県コード": 38, "市区町村コード": 204, "所在地": "愛媛県八幡浜市愛宕山団地２５１番地１０号", "緯度": 33.462447, "経度": 132.427163, "url": "https://www.iryou.teikyouseido.mhlw.go.jp/znk-web/juminkanja/S2430/initialize?prefCd=38&kikanCd=5386400124&kikanKbn=4", "url2": null, "内容": "なないろ助産院【4:助産院】愛媛県八幡浜市愛宕山団地２５１番地１０号" }, "geometry": { "type": "Point", "coordinates": [ 132.427163, 33.462447 ] } }
]
}
